<?xml version="1.0" encoding="UTF-8"?>
<!-- track-length = 68972 filtered ascend = 582 plain-ascend = 76 cost=79945 energy=0.4kwh time=3h 55m 13s -->
<gpx
 xmlns="http://www.topografix.com/GPX/1/1"
 xmlns:xsi="http://www.w3.org/2001/XMLSchema-instance"
 xsi:schemaLocation="http://www.topografix.com/GPX/1/1 http://www.topografix.com/GPX/1/1/gpx.xsd"
 version="1.1"
 creator="bikerouter.de 2026.32">
 <wpt lat="49.655471" lon="13.290238"><name>Micro brewery Modrá hvězda</name></wpt>
 <wpt lat="49.440239" lon="12.929731"><name>Domažlice</name></wpt>
 <wpt lat="49.350686" lon="12.887212"><name>Border</name></wpt>
 <trk>
  <name>Dobřany - Grabitz - 69,0 km, elev. gain 582 m</name>
  <link href="https://bikerouter.de/#map=11/49.4815/13.0648/standard&amp;lonlats=13.290228,49.655483;12.929733,49.440241;12.924637,49.438153;12.883256,49.346143;12.844286,49.308174;12.838967,49.309458&amp;pois=13.290238,49.655471,Micro+brewery+Modr%C3%A1+hv%C4%9Bzda;12.929731,49.440239,Doma%C5%BElice;12.887212,49.350686,Border&amp;profile=trekking">
   <text>bikerouter.de</text>
  </link>
  <trkseg>
   <trkpt lat="49.655482" lon="13.290227"><ele>326.5</ele></trkpt>
   <trkpt lat="49.655202" lon="13.290522"><ele>325.75</ele></trkpt>
   <trkpt lat="49.655157" lon="13.290561"><ele>326</ele></trkpt>
   <trkpt lat="49.655096" lon="13.290598"><ele>326</ele></trkpt>
   <trkpt lat="49.655051" lon="13.290499"><ele>325.75</ele></trkpt>
   <trkpt lat="49.654995" lon="13.290445"><ele>325.5</ele></trkpt>
   <trkpt lat="49.654532" lon="13.290272"><ele>324.5</ele></trkpt>
   <trkpt lat="49.654444" lon="13.290186"><ele>325</ele></trkpt>
   <trkpt lat="49.654364" lon="13.29008"><ele>325</ele></trkpt>
   <trkpt lat="49.654036" lon="13.289817"><ele>325</ele></trkpt>
   <trkpt lat="49.653949" lon="13.289726"><ele>325</ele></trkpt>
   <trkpt lat="49.653883" lon="13.289594"><ele>325</ele></trkpt>
   <trkpt lat="49.653841" lon="13.289509"><ele>325</ele></trkpt>
   <trkpt lat="49.653607" lon="13.289069"><ele>326</ele></trkpt>
   <trkpt lat="49.653522" lon="13.288953"><ele>326</ele></trkpt>
   <trkpt lat="49.653473" lon="13.288909"><ele>326</ele></trkpt>
   <trkpt lat="49.653422" lon="13.288872"><ele>325.75</ele></trkpt>
   <trkpt lat="49.653331" lon="13.288828"><ele>325.75</ele></trkpt>
   <trkpt lat="49.653196" lon="13.288787"><ele>325.75</ele></trkpt>
   <trkpt lat="49.65276" lon="13.288686"><ele>327</ele></trkpt>
   <trkpt lat="49.652163" lon="13.288357"><ele>328</ele></trkpt>
   <trkpt lat="49.652083" lon="13.288312"><ele>328</ele></trkpt>
   <trkpt lat="49.651896" lon="13.28821"><ele>328.5</ele></trkpt>
   <trkpt lat="49.651672" lon="13.288062"><ele>328.75</ele></trkpt>
   <trkpt lat="49.651604" lon="13.288025"><ele>328.75</ele></trkpt>
   <trkpt lat="49.651485" lon="13.287961"><ele>328.5</ele></trkpt>
   <trkpt lat="49.651351" lon="13.287923"><ele>328.5</ele></trkpt>
   <trkpt lat="49.651302" lon="13.287919"><ele>328.5</ele></trkpt>
   <trkpt lat="49.651202" lon="13.287931"><ele>328.5</ele></trkpt>
   <trkpt lat="49.651124" lon="13.287951"><ele>328.5</ele></trkpt>
   <trkpt lat="49.651098" lon="13.287876"><ele>328.25</ele></trkpt>
   <trkpt lat="49.651051" lon="13.287831"><ele>328</ele></trkpt>
   <trkpt lat="49.651023" lon="13.287825"><ele>328</ele></trkpt>
   <trkpt lat="49.65097" lon="13.287847"><ele>328</ele></trkpt>
   <trkpt lat="49.650948" lon="13.287873"><ele>328.25</ele></trkpt>
   <trkpt lat="49.650931" lon="13.287908"><ele>328.25</ele></trkpt>
   <trkpt lat="49.65085" lon="13.287874"><ele>328.25</ele></trkpt>
   <trkpt lat="49.650751" lon="13.287824"><ele>328</ele></trkpt>
   <trkpt lat="49.65013" lon="13.287404"><ele>326.75</ele></trkpt>
   <trkpt lat="49.649661" lon="13.287093"><ele>327</ele></trkpt>
   <trkpt lat="49.649515" lon="13.286922"><ele>326.75</ele></trkpt>
   <trkpt lat="49.649368" lon="13.286685"><ele>327</ele></trkpt>
   <trkpt lat="49.649246" lon="13.286425"><ele>326.75</ele></trkpt>
   <trkpt lat="49.649134" lon="13.286133"><ele>327</ele></trkpt>
   <trkpt lat="49.649007" lon="13.285798"><ele>327</ele></trkpt>
   <trkpt lat="49.648872" lon="13.285551"><ele>327</ele></trkpt>
   <trkpt lat="49.648762" lon="13.28539"><ele>327.25</ele></trkpt>
   <trkpt lat="49.648714" lon="13.285322"><ele>327.25</ele></trkpt>
   <trkpt lat="49.648577" lon="13.285138"><ele>328</ele></trkpt>
   <trkpt lat="49.648411" lon="13.284968"><ele>328.5</ele></trkpt>
   <trkpt lat="49.647412" lon="13.28407"><ele>334.75</ele></trkpt>
   <trkpt lat="49.647115" lon="13.283704"><ele>336.25</ele></trkpt>
   <trkpt lat="49.646814" lon="13.283257"><ele>337</ele></trkpt>
   <trkpt lat="49.646376" lon="13.282532"><ele>337</ele></trkpt>
   <trkpt lat="49.646082" lon="13.281989"><ele>337.25</ele></trkpt>
   <trkpt lat="49.645993" lon="13.281856"><ele>337</ele></trkpt>
   <trkpt lat="49.645838" lon="13.281831"><ele>337.75</ele></trkpt>
   <trkpt lat="49.641871" lon="13.282435"><ele>344.75</ele></trkpt>
   <trkpt lat="49.63972" lon="13.282763"><ele>352</ele></trkpt>
   <trkpt lat="49.63922" lon="13.282722"><ele>352.75</ele></trkpt>
   <trkpt lat="49.638619" lon="13.282553"><ele>353</ele></trkpt>
   <trkpt lat="49.637884" lon="13.282146"><ele>353.25</ele></trkpt>
   <trkpt lat="49.636016" lon="13.281817"><ele>357</ele></trkpt>
   <trkpt lat="49.635012" lon="13.281839"><ele>357.75</ele></trkpt>
   <trkpt lat="49.63463" lon="13.281847"><ele>358</ele></trkpt>
   <trkpt lat="49.634437" lon="13.281792"><ele>358.25</ele></trkpt>
   <trkpt lat="49.633671" lon="13.281571"><ele>358.5</ele></trkpt>
   <trkpt lat="49.632622" lon="13.281586"><ele>359.75</ele></trkpt>
   <trkpt lat="49.631211" lon="13.281096"><ele>361</ele></trkpt>
   <trkpt lat="49.630381" lon="13.280973"><ele>362</ele></trkpt>
   <trkpt lat="49.628916" lon="13.28062"><ele>363.75</ele></trkpt>
   <trkpt lat="49.628538" lon="13.280474"><ele>364</ele></trkpt>
   <trkpt lat="49.627718" lon="13.27973"><ele>366</ele></trkpt>
   <trkpt lat="49.62735" lon="13.279485"><ele>366.5</ele></trkpt>
   <trkpt lat="49.627314" lon="13.279493"><ele>366.75</ele></trkpt>
   <trkpt lat="49.625793" lon="13.278677"><ele>372</ele></trkpt>
   <trkpt lat="49.62513" lon="13.278247"><ele>374</ele></trkpt>
   <trkpt lat="49.624672" lon="13.277959"><ele>376</ele></trkpt>
   <trkpt lat="49.624511" lon="13.278149"><ele>376.25</ele></trkpt>
   <trkpt lat="49.624137" lon="13.27864"><ele>377.75</ele></trkpt>
   <trkpt lat="49.623914" lon="13.278867"><ele>377.75</ele></trkpt>
   <trkpt lat="49.623702" lon="13.279106"><ele>378.5</ele></trkpt>
   <trkpt lat="49.623056" lon="13.279871"><ele>379</ele></trkpt>
   <trkpt lat="49.62257" lon="13.280601"><ele>378.75</ele></trkpt>
   <trkpt lat="49.622395" lon="13.280835"><ele>378.75</ele></trkpt>
   <trkpt lat="49.622227" lon="13.281075"><ele>378.75</ele></trkpt>
   <trkpt lat="49.622162" lon="13.28118"><ele>379</ele></trkpt>
   <trkpt lat="49.621807" lon="13.281654"><ele>379.5</ele></trkpt>
   <trkpt lat="49.621777" lon="13.281786"><ele>379</ele></trkpt>
   <trkpt lat="49.621767" lon="13.281966"><ele>378.5</ele></trkpt>
   <trkpt lat="49.621745" lon="13.281933"><ele>378.75</ele></trkpt>
   <trkpt lat="49.621674" lon="13.281854"><ele>379.25</ele></trkpt>
   <trkpt lat="49.621551" lon="13.281778"><ele>379.75</ele></trkpt>
   <trkpt lat="49.621219" lon="13.281588"><ele>380.75</ele></trkpt>
   <trkpt lat="49.620435" lon="13.281167"><ele>382.5</ele></trkpt>
   <trkpt lat="49.615659" lon="13.278604"><ele>371.25</ele></trkpt>
   <trkpt lat="49.615424" lon="13.278387"><ele>371</ele></trkpt>
   <trkpt lat="49.615236" lon="13.278094"><ele>370.5</ele></trkpt>
   <trkpt lat="49.614908" lon="13.277321"><ele>370.75</ele></trkpt>
   <trkpt lat="49.614663" lon="13.276839"><ele>370.5</ele></trkpt>
   <trkpt lat="49.614104" lon="13.275962"><ele>368.5</ele></trkpt>
   <trkpt lat="49.613816" lon="13.275414"><ele>367.25</ele></trkpt>
   <trkpt lat="49.613712" lon="13.275008"><ele>366.5</ele></trkpt>
   <trkpt lat="49.613671" lon="13.274449"><ele>366.25</ele></trkpt>
   <trkpt lat="49.613694" lon="13.27186"><ele>367.5</ele></trkpt>
   <trkpt lat="49.61366" lon="13.271584"><ele>367</ele></trkpt>
   <trkpt lat="49.613619" lon="13.271451"><ele>366.25</ele></trkpt>
   <trkpt lat="49.613554" lon="13.271357"><ele>365.75</ele></trkpt>
   <trkpt lat="49.612406" lon="13.270633"><ele>363</ele></trkpt>
   <trkpt lat="49.611727" lon="13.270277"><ele>365.25</ele></trkpt>
   <trkpt lat="49.611263" lon="13.269952"><ele>367.75</ele></trkpt>
   <trkpt lat="49.610644" lon="13.269332"><ele>370.75</ele></trkpt>
   <trkpt lat="49.610436" lon="13.269124"><ele>371.75</ele></trkpt>
   <trkpt lat="49.610361" lon="13.269013"><ele>372</ele></trkpt>
   <trkpt lat="49.609884" lon="13.268303"><ele>373.5</ele></trkpt>
   <trkpt lat="49.60958" lon="13.267852"><ele>373.5</ele></trkpt>
   <trkpt lat="49.608992" lon="13.267286"><ele>373.25</ele></trkpt>
   <trkpt lat="49.607995" lon="13.266587"><ele>371.75</ele></trkpt>
   <trkpt lat="49.607395" lon="13.266213"><ele>372.25</ele></trkpt>
   <trkpt lat="49.606709" lon="13.265853"><ele>371.75</ele></trkpt>
   <trkpt lat="49.606098" lon="13.265703"><ele>369.5</ele></trkpt>
   <trkpt lat="49.605669" lon="13.265644"><ele>368.5</ele></trkpt>
   <trkpt lat="49.60549" lon="13.265575"><ele>367.5</ele></trkpt>
   <trkpt lat="49.605406" lon="13.265522"><ele>366.75</ele></trkpt>
   <trkpt lat="49.605273" lon="13.265322"><ele>366</ele></trkpt>
   <trkpt lat="49.60514" lon="13.265053"><ele>365.5</ele></trkpt>
   <trkpt lat="49.604856" lon="13.264426"><ele>363.75</ele></trkpt>
   <trkpt lat="49.604665" lon="13.264035"><ele>363</ele></trkpt>
   <trkpt lat="49.604578" lon="13.263843"><ele>362.25</ele></trkpt>
   <trkpt lat="49.604492" lon="13.263646"><ele>362.5</ele></trkpt>
   <trkpt lat="49.604211" lon="13.263046"><ele>363</ele></trkpt>
   <trkpt lat="49.6041" lon="13.262864"><ele>363.75</ele></trkpt>
   <trkpt lat="49.604043" lon="13.2628"><ele>363.75</ele></trkpt>
   <trkpt lat="49.603789" lon="13.262754"><ele>364.25</ele></trkpt>
   <trkpt lat="49.60326" lon="13.2623"><ele>365.5</ele></trkpt>
   <trkpt lat="49.603095" lon="13.262276"><ele>365.75</ele></trkpt>
   <trkpt lat="49.603039" lon="13.262268"><ele>365.75</ele></trkpt>
   <trkpt lat="49.602427" lon="13.262524"><ele>364</ele></trkpt>
   <trkpt lat="49.602144" lon="13.262597"><ele>363.75</ele></trkpt>
   <trkpt lat="49.601972" lon="13.262565"><ele>363.75</ele></trkpt>
   <trkpt lat="49.601598" lon="13.262349"><ele>363.5</ele></trkpt>
   <trkpt lat="49.601534" lon="13.262303"><ele>363.5</ele></trkpt>
   <trkpt lat="49.600645" lon="13.261573"><ele>364</ele></trkpt>
   <trkpt lat="49.598851" lon="13.260266"><ele>365.75</ele></trkpt>
   <trkpt lat="49.598233" lon="13.259592"><ele>366.5</ele></trkpt>
   <trkpt lat="49.597993" lon="13.259396"><ele>367</ele></trkpt>
   <trkpt lat="49.597184" lon="13.258928"><ele>368</ele></trkpt>
   <trkpt lat="49.596813" lon="13.258638"><ele>369.25</ele></trkpt>
   <trkpt lat="49.596455" lon="13.258313"><ele>370.75</ele></trkpt>
   <trkpt lat="49.596136" lon="13.258089"><ele>371.75</ele></trkpt>
   <trkpt lat="49.594856" lon="13.257488"><ele>371.75</ele></trkpt>
   <trkpt lat="49.594691" lon="13.257373"><ele>371.5</ele></trkpt>
   <trkpt lat="49.594258" lon="13.256992"><ele>370.5</ele></trkpt>
   <trkpt lat="49.594179" lon="13.256961"><ele>370.75</ele></trkpt>
   <trkpt lat="49.593869" lon="13.257055"><ele>371</ele></trkpt>
   <trkpt lat="49.593588" lon="13.257223"><ele>371</ele></trkpt>
   <trkpt lat="49.593135" lon="13.257649"><ele>372.25</ele></trkpt>
   <trkpt lat="49.592997" lon="13.257709"><ele>372.5</ele></trkpt>
   <trkpt lat="49.592836" lon="13.257719"><ele>372</ele></trkpt>
   <trkpt lat="49.592698" lon="13.257653"><ele>372.25</ele></trkpt>
   <trkpt lat="49.592453" lon="13.257349"><ele>373</ele></trkpt>
   <trkpt lat="49.592215" lon="13.257142"><ele>373</ele></trkpt>
   <trkpt lat="49.592048" lon="13.257111"><ele>373.5</ele></trkpt>
   <trkpt lat="49.59123" lon="13.257254"><ele>375.75</ele></trkpt>
   <trkpt lat="49.588301" lon="13.257977"><ele>378.75</ele></trkpt>
   <trkpt lat="49.588136" lon="13.258009"><ele>378.75</ele></trkpt>
   <trkpt lat="49.588007" lon="13.258005"><ele>379</ele></trkpt>
   <trkpt lat="49.587845" lon="13.257974"><ele>379</ele></trkpt>
   <trkpt lat="49.587692" lon="13.257908"><ele>379</ele></trkpt>
   <trkpt lat="49.586668" lon="13.257303"><ele>381</ele></trkpt>
   <trkpt lat="49.586255" lon="13.257009"><ele>382.25</ele></trkpt>
   <trkpt lat="49.58539" lon="13.256232"><ele>385.5</ele></trkpt>
   <trkpt lat="49.58387" lon="13.254773"><ele>388</ele></trkpt>
   <trkpt lat="49.583609" lon="13.254422"><ele>388.75</ele></trkpt>
   <trkpt lat="49.582903" lon="13.253179"><ele>389.5</ele></trkpt>
   <trkpt lat="49.582245" lon="13.251674"><ele>391.75</ele></trkpt>
   <trkpt lat="49.581892" lon="13.250453"><ele>393</ele></trkpt>
   <trkpt lat="49.581518" lon="13.248887"><ele>395</ele></trkpt>
   <trkpt lat="49.581154" lon="13.247638"><ele>397.75</ele></trkpt>
   <trkpt lat="49.580895" lon="13.246955"><ele>398.75</ele></trkpt>
   <trkpt lat="49.579791" lon="13.244611"><ele>400</ele></trkpt>
   <trkpt lat="49.578996" lon="13.242923"><ele>398.25</ele></trkpt>
   <trkpt lat="49.578716" lon="13.242421"><ele>398.5</ele></trkpt>
   <trkpt lat="49.578513" lon="13.242171"><ele>398.5</ele></trkpt>
   <trkpt lat="49.577581" lon="13.241419"><ele>397.5</ele></trkpt>
   <trkpt lat="49.577213" lon="13.241017"><ele>396.75</ele></trkpt>
   <trkpt lat="49.577166" lon="13.240937"><ele>396.5</ele></trkpt>
   <trkpt lat="49.577126" lon="13.240841"><ele>396.25</ele></trkpt>
   <trkpt lat="49.577077" lon="13.240544"><ele>396.25</ele></trkpt>
   <trkpt lat="49.577064" lon="13.240508"><ele>396.25</ele></trkpt>
   <trkpt lat="49.577221" lon="13.240309"><ele>396.75</ele></trkpt>
   <trkpt lat="49.577266" lon="13.240209"><ele>397.5</ele></trkpt>
   <trkpt lat="49.577292" lon="13.240119"><ele>398</ele></trkpt>
   <trkpt lat="49.577312" lon="13.239994"><ele>398.5</ele></trkpt>
   <trkpt lat="49.577336" lon="13.238274"><ele>399.25</ele></trkpt>
   <trkpt lat="49.577298" lon="13.237236"><ele>399.75</ele></trkpt>
   <trkpt lat="49.577259" lon="13.236864"><ele>400</ele></trkpt>
   <trkpt lat="49.576989" lon="13.23529"><ele>400</ele></trkpt>
   <trkpt lat="49.57688" lon="13.234874"><ele>399.75</ele></trkpt>
   <trkpt lat="49.576796" lon="13.234679"><ele>400</ele></trkpt>
   <trkpt lat="49.576678" lon="13.234481"><ele>400.75</ele></trkpt>
   <trkpt lat="49.576158" lon="13.233626"><ele>401.75</ele></trkpt>
   <trkpt lat="49.57601" lon="13.233458"><ele>401.75</ele></trkpt>
   <trkpt lat="49.575469" lon="13.23311"><ele>401.75</ele></trkpt>
   <trkpt lat="49.575343" lon="13.233001"><ele>402</ele></trkpt>
   <trkpt lat="49.575202" lon="13.232827"><ele>402</ele></trkpt>
   <trkpt lat="49.574249" lon="13.23099"><ele>407</ele></trkpt>
   <trkpt lat="49.573805" lon="13.230325"><ele>411.25</ele></trkpt>
   <trkpt lat="49.57262" lon="13.22834"><ele>427</ele></trkpt>
   <trkpt lat="49.572521" lon="13.22814"><ele>428.5</ele></trkpt>
   <trkpt lat="49.572459" lon="13.227859"><ele>429.75</ele></trkpt>
   <trkpt lat="49.571768" lon="13.222832"><ele>449.25</ele></trkpt>
   <trkpt lat="49.571686" lon="13.221815"><ele>450</ele></trkpt>
   <trkpt lat="49.571377" lon="13.219789"><ele>443</ele></trkpt>
   <trkpt lat="49.570994" lon="13.217778"><ele>436.25</ele></trkpt>
   <trkpt lat="49.570794" lon="13.216959"><ele>433.25</ele></trkpt>
   <trkpt lat="49.570633" lon="13.216125"><ele>431.5</ele></trkpt>
   <trkpt lat="49.570456" lon="13.215688"><ele>431.25</ele></trkpt>
   <trkpt lat="49.570288" lon="13.215385"><ele>431.75</ele></trkpt>
   <trkpt lat="49.569641" lon="13.214477"><ele>432.75</ele></trkpt>
   <trkpt lat="49.569358" lon="13.21395"><ele>433.75</ele></trkpt>
   <trkpt lat="49.569165" lon="13.213518"><ele>435.25</ele></trkpt>
   <trkpt lat="49.568791" lon="13.212213"><ele>435.75</ele></trkpt>
   <trkpt lat="49.568691" lon="13.211979"><ele>435.5</ele></trkpt>
   <trkpt lat="49.56816" lon="13.211061"><ele>436.5</ele></trkpt>
   <trkpt lat="49.568035" lon="13.210773"><ele>436.75</ele></trkpt>
   <trkpt lat="49.567745" lon="13.2098"><ele>437</ele></trkpt>
   <trkpt lat="49.567326" lon="13.208568"><ele>437</ele></trkpt>
   <trkpt lat="49.566814" lon="13.20761"><ele>436.5</ele></trkpt>
   <trkpt lat="49.566312" lon="13.206443"><ele>434.5</ele></trkpt>
   <trkpt lat="49.566255" lon="13.20634"><ele>434</ele></trkpt>
   <trkpt lat="49.565903" lon="13.205694"><ele>429.75</ele></trkpt>
   <trkpt lat="49.564513" lon="13.203374"><ele>412.75</ele></trkpt>
   <trkpt lat="49.564228" lon="13.202898"><ele>408.75</ele></trkpt>
   <trkpt lat="49.56399" lon="13.202442"><ele>406.5</ele></trkpt>
   <trkpt lat="49.563916" lon="13.202253"><ele>405.25</ele></trkpt>
   <trkpt lat="49.563761" lon="13.201861"><ele>404.5</ele></trkpt>
   <trkpt lat="49.563597" lon="13.201468"><ele>402.5</ele></trkpt>
   <trkpt lat="49.563323" lon="13.201066"><ele>401</ele></trkpt>
   <trkpt lat="49.563053" lon="13.200768"><ele>399.75</ele></trkpt>
   <trkpt lat="49.562655" lon="13.200475"><ele>398.5</ele></trkpt>
   <trkpt lat="49.562549" lon="13.200395"><ele>398.5</ele></trkpt>
   <trkpt lat="49.562453" lon="13.200308"><ele>398.75</ele></trkpt>
   <trkpt lat="49.562344" lon="13.200188"><ele>399.25</ele></trkpt>
   <trkpt lat="49.561755" lon="13.199367"><ele>395</ele></trkpt>
   <trkpt lat="49.561719" lon="13.199297"><ele>394.25</ele></trkpt>
   <trkpt lat="49.561696" lon="13.199229"><ele>393.5</ele></trkpt>
   <trkpt lat="49.561624" lon="13.198947"><ele>391.25</ele></trkpt>
   <trkpt lat="49.561222" lon="13.197765"><ele>383.25</ele></trkpt>
   <trkpt lat="49.561169" lon="13.197568"><ele>381.75</ele></trkpt>
   <trkpt lat="49.560906" lon="13.197668"><ele>381</ele></trkpt>
   <trkpt lat="49.56063" lon="13.197801"><ele>380.25</ele></trkpt>
   <trkpt lat="49.560517" lon="13.197858"><ele>380</ele></trkpt>
   <trkpt lat="49.560453" lon="13.197909"><ele>380</ele></trkpt>
   <trkpt lat="49.560263" lon="13.197404"><ele>378.5</ele></trkpt>
   <trkpt lat="49.560235" lon="13.197339"><ele>378.25</ele></trkpt>
   <trkpt lat="49.560124" lon="13.197168"><ele>378</ele></trkpt>
   <trkpt lat="49.559959" lon="13.196917"><ele>377.5</ele></trkpt>
   <trkpt lat="49.55979" lon="13.196654"><ele>377.5</ele></trkpt>
   <trkpt lat="49.559655" lon="13.196434"><ele>378</ele></trkpt>
   <trkpt lat="49.559615" lon="13.196347"><ele>378</ele></trkpt>
   <trkpt lat="49.559503" lon="13.196061"><ele>377.75</ele></trkpt>
   <trkpt lat="49.559218" lon="13.195274"><ele>379.5</ele></trkpt>
   <trkpt lat="49.559052" lon="13.194805"><ele>382</ele></trkpt>
   <trkpt lat="49.55894" lon="13.194497"><ele>383</ele></trkpt>
   <trkpt lat="49.558657" lon="13.193719"><ele>385.75</ele></trkpt>
   <trkpt lat="49.558319" lon="13.192791"><ele>388</ele></trkpt>
   <trkpt lat="49.557956" lon="13.19179"><ele>392</ele></trkpt>
   <trkpt lat="49.557325" lon="13.190018"><ele>396.75</ele></trkpt>
   <trkpt lat="49.556755" lon="13.188418"><ele>400</ele></trkpt>
   <trkpt lat="49.556654" lon="13.188115"><ele>400.75</ele></trkpt>
   <trkpt lat="49.556654" lon="13.187809"><ele>400.75</ele></trkpt>
   <trkpt lat="49.557991" lon="13.182092"><ele>403.75</ele></trkpt>
   <trkpt lat="49.557629" lon="13.169653"><ele>425</ele></trkpt>
   <trkpt lat="49.557558" lon="13.167821"><ele>426</ele></trkpt>
   <trkpt lat="49.557507" lon="13.166729"><ele>424</ele></trkpt>
   <trkpt lat="49.557462" lon="13.166337"><ele>422.75</ele></trkpt>
   <trkpt lat="49.557182" lon="13.164685"><ele>423</ele></trkpt>
   <trkpt lat="49.557116" lon="13.164275"><ele>424.75</ele></trkpt>
   <trkpt lat="49.556992" lon="13.163582"><ele>428.5</ele></trkpt>
   <trkpt lat="49.556951" lon="13.163338"><ele>428.75</ele></trkpt>
   <trkpt lat="49.556723" lon="13.16198"><ele>430.75</ele></trkpt>
   <trkpt lat="49.55611" lon="13.158338"><ele>438</ele></trkpt>
   <trkpt lat="49.555916" lon="13.157586"><ele>438.25</ele></trkpt>
   <trkpt lat="49.555212" lon="13.155633"><ele>443.25</ele></trkpt>
   <trkpt lat="49.555131" lon="13.155475"><ele>444</ele></trkpt>
   <trkpt lat="49.554925" lon="13.155135"><ele>446</ele></trkpt>
   <trkpt lat="49.553239" lon="13.153292"><ele>460.25</ele></trkpt>
   <trkpt lat="49.553187" lon="13.153201"><ele>460.5</ele></trkpt>
   <trkpt lat="49.553173" lon="13.153105"><ele>460.5</ele></trkpt>
   <trkpt lat="49.553175" lon="13.152964"><ele>460.5</ele></trkpt>
   <trkpt lat="49.553301" lon="13.149514"><ele>466</ele></trkpt>
   <trkpt lat="49.553408" lon="13.146662"><ele>468.25</ele></trkpt>
   <trkpt lat="49.553383" lon="13.146411"><ele>468</ele></trkpt>
   <trkpt lat="49.553337" lon="13.146177"><ele>468</ele></trkpt>
   <trkpt lat="49.551789" lon="13.140816"><ele>466.25</ele></trkpt>
   <trkpt lat="49.549646" lon="13.133472"><ele>465.5</ele></trkpt>
   <trkpt lat="49.548981" lon="13.133789"><ele>463</ele></trkpt>
   <trkpt lat="49.548434" lon="13.133877"><ele>460.25</ele></trkpt>
   <trkpt lat="49.548256" lon="13.133853"><ele>459.75</ele></trkpt>
   <trkpt lat="49.548105" lon="13.133814"><ele>459.25</ele></trkpt>
   <trkpt lat="49.547573" lon="13.133564"><ele>458.25</ele></trkpt>
   <trkpt lat="49.544245" lon="13.13271"><ele>451.75</ele></trkpt>
   <trkpt lat="49.543887" lon="13.132646"><ele>451.5</ele></trkpt>
   <trkpt lat="49.543694" lon="13.13261"><ele>451.25</ele></trkpt>
   <trkpt lat="49.542868" lon="13.132616"><ele>452.25</ele></trkpt>
   <trkpt lat="49.541949" lon="13.132452"><ele>452.75</ele></trkpt>
   <trkpt lat="49.541464" lon="13.132235"><ele>453.75</ele></trkpt>
   <trkpt lat="49.540332" lon="13.131727"><ele>456</ele></trkpt>
   <trkpt lat="49.539259" lon="13.131387"><ele>456.75</ele></trkpt>
   <trkpt lat="49.538288" lon="13.131136"><ele>459.25</ele></trkpt>
   <trkpt lat="49.536445" lon="13.131122"><ele>465.75</ele></trkpt>
   <trkpt lat="49.535658" lon="13.130893"><ele>467</ele></trkpt>
   <trkpt lat="49.535364" lon="13.130912"><ele>467.75</ele></trkpt>
   <trkpt lat="49.534623" lon="13.131142"><ele>470.25</ele></trkpt>
   <trkpt lat="49.534314" lon="13.131237"><ele>471</ele></trkpt>
   <trkpt lat="49.533925" lon="13.13127"><ele>470.5</ele></trkpt>
   <trkpt lat="49.533618" lon="13.131173"><ele>470</ele></trkpt>
   <trkpt lat="49.532597" lon="13.130473"><ele>465.75</ele></trkpt>
   <trkpt lat="49.531939" lon="13.129938"><ele>462.75</ele></trkpt>
   <trkpt lat="49.530944" lon="13.128804"><ele>459.25</ele></trkpt>
   <trkpt lat="49.530793" lon="13.128696"><ele>458.75</ele></trkpt>
   <trkpt lat="49.530658" lon="13.128692"><ele>457.75</ele></trkpt>
   <trkpt lat="49.530529" lon="13.128794"><ele>457.25</ele></trkpt>
   <trkpt lat="49.52983" lon="13.129665"><ele>452.75</ele></trkpt>
   <trkpt lat="49.52948" lon="13.13005"><ele>450.25</ele></trkpt>
   <trkpt lat="49.529364" lon="13.130132"><ele>449.5</ele></trkpt>
   <trkpt lat="49.529316" lon="13.130153"><ele>449</ele></trkpt>
   <trkpt lat="49.529269" lon="13.130156"><ele>448.5</ele></trkpt>
   <trkpt lat="49.529217" lon="13.130143"><ele>448</ele></trkpt>
   <trkpt lat="49.529171" lon="13.130091"><ele>447.5</ele></trkpt>
   <trkpt lat="49.528966" lon="13.129633"><ele>446.5</ele></trkpt>
   <trkpt lat="49.528882" lon="13.129516"><ele>445.75</ele></trkpt>
   <trkpt lat="49.528731" lon="13.129385"><ele>445.5</ele></trkpt>
   <trkpt lat="49.528689" lon="13.129349"><ele>445.25</ele></trkpt>
   <trkpt lat="49.52794" lon="13.128964"><ele>442.25</ele></trkpt>
   <trkpt lat="49.527246" lon="13.128583"><ele>440</ele></trkpt>
   <trkpt lat="49.526994" lon="13.128442"><ele>440</ele></trkpt>
   <trkpt lat="49.526754" lon="13.128263"><ele>439.25</ele></trkpt>
   <trkpt lat="49.526175" lon="13.127759"><ele>437</ele></trkpt>
   <trkpt lat="49.525451" lon="13.127221"><ele>434.5</ele></trkpt>
   <trkpt lat="49.52466" lon="13.126741"><ele>433</ele></trkpt>
   <trkpt lat="49.523149" lon="13.125744"><ele>431.25</ele></trkpt>
   <trkpt lat="49.522668" lon="13.125358"><ele>431</ele></trkpt>
   <trkpt lat="49.522303" lon="13.124903"><ele>430.75</ele></trkpt>
   <trkpt lat="49.522072" lon="13.124422"><ele>430.75</ele></trkpt>
   <trkpt lat="49.521637" lon="13.123148"><ele>430.25</ele></trkpt>
   <trkpt lat="49.521371" lon="13.122252"><ele>428.75</ele></trkpt>
   <trkpt lat="49.520739" lon="13.120343"><ele>424.5</ele></trkpt>
   <trkpt lat="49.518745" lon="13.115258"><ele>419.5</ele></trkpt>
   <trkpt lat="49.518897" lon="13.115115"><ele>418.75</ele></trkpt>
   <trkpt lat="49.519565" lon="13.11448"><ele>418</ele></trkpt>
   <trkpt lat="49.519714" lon="13.114339"><ele>418</ele></trkpt>
   <trkpt lat="49.52002" lon="13.114247"><ele>416.75</ele></trkpt>
   <trkpt lat="49.520292" lon="13.114231"><ele>416.5</ele></trkpt>
   <trkpt lat="49.520667" lon="13.113995"><ele>416.25</ele></trkpt>
   <trkpt lat="49.520961" lon="13.113686"><ele>416.25</ele></trkpt>
   <trkpt lat="49.52158" lon="13.113147"><ele>416</ele></trkpt>
   <trkpt lat="49.521769" lon="13.112966"><ele>415.75</ele></trkpt>
   <trkpt lat="49.521908" lon="13.112795"><ele>415.75</ele></trkpt>
   <trkpt lat="49.522048" lon="13.11257"><ele>415.75</ele></trkpt>
   <trkpt lat="49.522134" lon="13.112283"><ele>416</ele></trkpt>
   <trkpt lat="49.522194" lon="13.11189"><ele>416</ele></trkpt>
   <trkpt lat="49.522137" lon="13.111419"><ele>416</ele></trkpt>
   <trkpt lat="49.52214" lon="13.111348"><ele>416</ele></trkpt>
   <trkpt lat="49.522148" lon="13.111179"><ele>416</ele></trkpt>
   <trkpt lat="49.522212" lon="13.110972"><ele>416</ele></trkpt>
   <trkpt lat="49.522507" lon="13.11048"><ele>415.75</ele></trkpt>
   <trkpt lat="49.522266" lon="13.109895"><ele>416</ele></trkpt>
   <trkpt lat="49.52208" lon="13.109376"><ele>416</ele></trkpt>
   <trkpt lat="49.521902" lon="13.108123"><ele>416.75</ele></trkpt>
   <trkpt lat="49.521805" lon="13.107682"><ele>417</ele></trkpt>
   <trkpt lat="49.521315" lon="13.106321"><ele>418</ele></trkpt>
   <trkpt lat="49.520884" lon="13.105125"><ele>419</ele></trkpt>
   <trkpt lat="49.518407" lon="13.098247"><ele>428.25</ele></trkpt>
   <trkpt lat="49.516022" lon="13.090886"><ele>443</ele></trkpt>
   <trkpt lat="49.515859" lon="13.090154"><ele>443.5</ele></trkpt>
   <trkpt lat="49.515813" lon="13.08968"><ele>443</ele></trkpt>
   <trkpt lat="49.515915" lon="13.079514"><ele>442</ele></trkpt>
   <trkpt lat="49.516032" lon="13.076659"><ele>440.5</ele></trkpt>
   <trkpt lat="49.516092" lon="13.076163"><ele>438.25</ele></trkpt>
   <trkpt lat="49.516185" lon="13.075891"><ele>437.75</ele></trkpt>
   <trkpt lat="49.516288" lon="13.075747"><ele>437.25</ele></trkpt>
   <trkpt lat="49.516638" lon="13.075494"><ele>435</ele></trkpt>
   <trkpt lat="49.517001" lon="13.075231"><ele>431.75</ele></trkpt>
   <trkpt lat="49.517062" lon="13.075164"><ele>431.25</ele></trkpt>
   <trkpt lat="49.517117" lon="13.075059"><ele>430.75</ele></trkpt>
   <trkpt lat="49.517151" lon="13.074951"><ele>430.25</ele></trkpt>
   <trkpt lat="49.517178" lon="13.074815"><ele>430</ele></trkpt>
   <trkpt lat="49.517192" lon="13.074147"><ele>429</ele></trkpt>
   <trkpt lat="49.517224" lon="13.074023"><ele>428.25</ele></trkpt>
   <trkpt lat="49.517286" lon="13.0739"><ele>428</ele></trkpt>
   <trkpt lat="49.517393" lon="13.073801"><ele>427.75</ele></trkpt>
   <trkpt lat="49.517484" lon="13.073743"><ele>427.75</ele></trkpt>
   <trkpt lat="49.517767" lon="13.073646"><ele>428</ele></trkpt>
   <trkpt lat="49.517906" lon="13.073625"><ele>428.25</ele></trkpt>
   <trkpt lat="49.517947" lon="13.073414"><ele>428.5</ele></trkpt>
   <trkpt lat="49.518016" lon="13.072734"><ele>429.75</ele></trkpt>
   <trkpt lat="49.518174" lon="13.071703"><ele>430.25</ele></trkpt>
   <trkpt lat="49.518426" lon="13.070058"><ele>427.5</ele></trkpt>
   <trkpt lat="49.518538" lon="13.068824"><ele>424</ele></trkpt>
   <trkpt lat="49.518901" lon="13.062767"><ele>392.75</ele></trkpt>
   <trkpt lat="49.518941" lon="13.062089"><ele>389.25</ele></trkpt>
   <trkpt lat="49.518955" lon="13.061428"><ele>387.75</ele></trkpt>
   <trkpt lat="49.518917" lon="13.061137"><ele>387.75</ele></trkpt>
   <trkpt lat="49.51745" lon="13.054642"><ele>388</ele></trkpt>
   <trkpt lat="49.517377" lon="13.054145"><ele>387.75</ele></trkpt>
   <trkpt lat="49.517238" lon="13.052216"><ele>384.75</ele></trkpt>
   <trkpt lat="49.517201" lon="13.051955"><ele>384</ele></trkpt>
   <trkpt lat="49.517117" lon="13.05167"><ele>383.75</ele></trkpt>
   <trkpt lat="49.516744" lon="13.050936"><ele>381</ele></trkpt>
   <trkpt lat="49.516395" lon="13.050163"><ele>376</ele></trkpt>
   <trkpt lat="49.51627" lon="13.049608"><ele>372</ele></trkpt>
   <trkpt lat="49.516261" lon="13.049352"><ele>371.25</ele></trkpt>
   <trkpt lat="49.515962" lon="13.049025"><ele>370</ele></trkpt>
   <trkpt lat="49.515854" lon="13.048889"><ele>370.75</ele></trkpt>
   <trkpt lat="49.515705" lon="13.048668"><ele>370.5</ele></trkpt>
   <trkpt lat="49.515567" lon="13.048469"><ele>370.75</ele></trkpt>
   <trkpt lat="49.515233" lon="13.048109"><ele>371</ele></trkpt>
   <trkpt lat="49.513489" lon="13.046996"><ele>375</ele></trkpt>
   <trkpt lat="49.513357" lon="13.046792"><ele>374.25</ele></trkpt>
   <trkpt lat="49.513138" lon="13.046428"><ele>371.75</ele></trkpt>
   <trkpt lat="49.513084" lon="13.04633"><ele>371.75</ele></trkpt>
   <trkpt lat="49.513045" lon="13.046236"><ele>372</ele></trkpt>
   <trkpt lat="49.513014" lon="13.046125"><ele>372</ele></trkpt>
   <trkpt lat="49.512993" lon="13.046008"><ele>371.5</ele></trkpt>
   <trkpt lat="49.51298" lon="13.045863"><ele>371.25</ele></trkpt>
   <trkpt lat="49.512982" lon="13.04539"><ele>370.5</ele></trkpt>
   <trkpt lat="49.51296" lon="13.044952"><ele>370</ele></trkpt>
   <trkpt lat="49.51293" lon="13.044774"><ele>370</ele></trkpt>
   <trkpt lat="49.512841" lon="13.04461"><ele>369.75</ele></trkpt>
   <trkpt lat="49.512814" lon="13.044567"><ele>369.75</ele></trkpt>
   <trkpt lat="49.512273" lon="13.0439"><ele>370.75</ele></trkpt>
   <trkpt lat="49.512188" lon="13.043734"><ele>371</ele></trkpt>
   <trkpt lat="49.512068" lon="13.043498"><ele>371.5</ele></trkpt>
   <trkpt lat="49.512038" lon="13.043364"><ele>371.5</ele></trkpt>
   <trkpt lat="49.511613" lon="13.041613"><ele>370</ele></trkpt>
   <trkpt lat="49.51159" lon="13.041439"><ele>370.25</ele></trkpt>
   <trkpt lat="49.511534" lon="13.041015"><ele>370.25</ele></trkpt>
   <trkpt lat="49.511497" lon="13.040153"><ele>370</ele></trkpt>
   <trkpt lat="49.511519" lon="13.038429"><ele>370</ele></trkpt>
   <trkpt lat="49.511493" lon="13.03728"><ele>371</ele></trkpt>
   <trkpt lat="49.511456" lon="13.036619"><ele>371.5</ele></trkpt>
   <trkpt lat="49.511396" lon="13.03624"><ele>371.75</ele></trkpt>
   <trkpt lat="49.510706" lon="13.033567"><ele>371.75</ele></trkpt>
   <trkpt lat="49.510527" lon="13.033062"><ele>372.25</ele></trkpt>
   <trkpt lat="49.51034" lon="13.032613"><ele>373.25</ele></trkpt>
   <trkpt lat="49.510105" lon="13.03224"><ele>372.75</ele></trkpt>
   <trkpt lat="49.50906" lon="13.030975"><ele>374.25</ele></trkpt>
   <trkpt lat="49.507454" lon="13.028439"><ele>373</ele></trkpt>
   <trkpt lat="49.507273" lon="13.028091"><ele>372</ele></trkpt>
   <trkpt lat="49.505202" lon="13.023022"><ele>374.75</ele></trkpt>
   <trkpt lat="49.505075" lon="13.022545"><ele>374</ele></trkpt>
   <trkpt lat="49.504973" lon="13.022241"><ele>374</ele></trkpt>
   <trkpt lat="49.504842" lon="13.022019"><ele>373.5</ele></trkpt>
   <trkpt lat="49.504724" lon="13.021861"><ele>373.75</ele></trkpt>
   <trkpt lat="49.50451" lon="13.021577"><ele>373.75</ele></trkpt>
   <trkpt lat="49.504034" lon="13.020826"><ele>373.75</ele></trkpt>
   <trkpt lat="49.50375" lon="13.019781"><ele>373.5</ele></trkpt>
   <trkpt lat="49.503638" lon="13.019125"><ele>373.75</ele></trkpt>
   <trkpt lat="49.50331" lon="13.016516"><ele>374</ele></trkpt>
   <trkpt lat="49.50319" lon="13.01585"><ele>373.75</ele></trkpt>
   <trkpt lat="49.503041" lon="13.015258"><ele>374</ele></trkpt>
   <trkpt lat="49.502783" lon="13.014689"><ele>374</ele></trkpt>
   <trkpt lat="49.502279" lon="13.01366"><ele>374.5</ele></trkpt>
   <trkpt lat="49.502112" lon="13.013229"><ele>374.25</ele></trkpt>
   <trkpt lat="49.501282" lon="13.010518"><ele>376.5</ele></trkpt>
   <trkpt lat="49.501138" lon="13.009962"><ele>376.75</ele></trkpt>
   <trkpt lat="49.501092" lon="13.009833"><ele>376.5</ele></trkpt>
   <trkpt lat="49.501012" lon="13.00965"><ele>376.5</ele></trkpt>
   <trkpt lat="49.500896" lon="13.009428"><ele>376.5</ele></trkpt>
   <trkpt lat="49.500771" lon="13.009211"><ele>376.5</ele></trkpt>
   <trkpt lat="49.500279" lon="13.008407"><ele>377.25</ele></trkpt>
   <trkpt lat="49.500115" lon="13.008212"><ele>377.75</ele></trkpt>
   <trkpt lat="49.499973" lon="13.008112"><ele>379.25</ele></trkpt>
   <trkpt lat="49.500011" lon="13.0076"><ele>378.75</ele></trkpt>
   <trkpt lat="49.500013" lon="13.007337"><ele>378.75</ele></trkpt>
   <trkpt lat="49.499959" lon="13.006597"><ele>379.25</ele></trkpt>
   <trkpt lat="49.499948" lon="13.006466"><ele>379.25</ele></trkpt>
   <trkpt lat="49.499947" lon="13.006336"><ele>379.25</ele></trkpt>
   <trkpt lat="49.499954" lon="13.00622"><ele>379.25</ele></trkpt>
   <trkpt lat="49.499969" lon="13.006103"><ele>379.25</ele></trkpt>
   <trkpt lat="49.500018" lon="13.005884"><ele>378.75</ele></trkpt>
   <trkpt lat="49.500128" lon="13.005618"><ele>377.5</ele></trkpt>
   <trkpt lat="49.500251" lon="13.005366"><ele>377</ele></trkpt>
   <trkpt lat="49.500299" lon="13.005233"><ele>376.75</ele></trkpt>
   <trkpt lat="49.500324" lon="13.005162"><ele>376.75</ele></trkpt>
   <trkpt lat="49.500361" lon="13.004993"><ele>376.5</ele></trkpt>
   <trkpt lat="49.500381" lon="13.004811"><ele>376</ele></trkpt>
   <trkpt lat="49.500372" lon="13.004459"><ele>376</ele></trkpt>
   <trkpt lat="49.500331" lon="13.003781"><ele>376.75</ele></trkpt>
   <trkpt lat="49.500361" lon="13.00329"><ele>376.5</ele></trkpt>
   <trkpt lat="49.500497" lon="13.002321"><ele>376</ele></trkpt>
   <trkpt lat="49.500532" lon="13.001903"><ele>376.75</ele></trkpt>
   <trkpt lat="49.500536" lon="13.001647"><ele>376.75</ele></trkpt>
   <trkpt lat="49.500491" lon="13.000131"><ele>377</ele></trkpt>
   <trkpt lat="49.500461" lon="12.999812"><ele>376.5</ele></trkpt>
   <trkpt lat="49.499943" lon="12.996465"><ele>377</ele></trkpt>
   <trkpt lat="49.499686" lon="12.995396"><ele>378.25</ele></trkpt>
   <trkpt lat="49.499629" lon="12.995097"><ele>376.5</ele></trkpt>
   <trkpt lat="49.499469" lon="12.993828"><ele>378.5</ele></trkpt>
   <trkpt lat="49.499439" lon="12.993282"><ele>377.75</ele></trkpt>
   <trkpt lat="49.499463" lon="12.992419"><ele>378.25</ele></trkpt>
   <trkpt lat="49.499473" lon="12.992257"><ele>378.75</ele></trkpt>
   <trkpt lat="49.499491" lon="12.992131"><ele>379</ele></trkpt>
   <trkpt lat="49.499522" lon="12.991853"><ele>379</ele></trkpt>
   <trkpt lat="49.499543" lon="12.991308"><ele>379.25</ele></trkpt>
   <trkpt lat="49.499546" lon="12.991238"><ele>379.25</ele></trkpt>
   <trkpt lat="49.499569" lon="12.990948"><ele>379.25</ele></trkpt>
   <trkpt lat="49.499605" lon="12.990695"><ele>379.75</ele></trkpt>
   <trkpt lat="49.499677" lon="12.990374"><ele>380</ele></trkpt>
   <trkpt lat="49.499765" lon="12.990046"><ele>381.25</ele></trkpt>
   <trkpt lat="49.499827" lon="12.989843"><ele>381.25</ele></trkpt>
   <trkpt lat="49.499835" lon="12.989816"><ele>381.25</ele></trkpt>
   <trkpt lat="49.499863" lon="12.989726"><ele>381</ele></trkpt>
   <trkpt lat="49.499893" lon="12.98974"><ele>381</ele></trkpt>
   <trkpt lat="49.499953" lon="12.989735"><ele>381</ele></trkpt>
   <trkpt lat="49.499981" lon="12.989716"><ele>381</ele></trkpt>
   <trkpt lat="49.500005" lon="12.989687"><ele>381</ele></trkpt>
   <trkpt lat="49.500038" lon="12.989608"><ele>381.25</ele></trkpt>
   <trkpt lat="49.500044" lon="12.989562"><ele>381.5</ele></trkpt>
   <trkpt lat="49.500042" lon="12.989511"><ele>381.75</ele></trkpt>
   <trkpt lat="49.500032" lon="12.989462"><ele>381.75</ele></trkpt>
   <trkpt lat="49.500014" lon="12.989419"><ele>382</ele></trkpt>
   <trkpt lat="49.499989" lon="12.989384"><ele>382</ele></trkpt>
   <trkpt lat="49.49996" lon="12.989361"><ele>382</ele></trkpt>
   <trkpt lat="49.499924" lon="12.989349"><ele>382</ele></trkpt>
   <trkpt lat="49.499888" lon="12.989353"><ele>382</ele></trkpt>
   <trkpt lat="49.499854" lon="12.989373"><ele>382</ele></trkpt>
   <trkpt lat="49.499825" lon="12.989407"><ele>382</ele></trkpt>
   <trkpt lat="49.499798" lon="12.989362"><ele>382</ele></trkpt>
   <trkpt lat="49.499767" lon="12.989327"><ele>381.75</ele></trkpt>
   <trkpt lat="49.499653" lon="12.989197"><ele>382</ele></trkpt>
   <trkpt lat="49.499624" lon="12.989176"><ele>382</ele></trkpt>
   <trkpt lat="49.499589" lon="12.989162"><ele>382</ele></trkpt>
   <trkpt lat="49.499381" lon="12.989141"><ele>382</ele></trkpt>
   <trkpt lat="49.499352" lon="12.989129"><ele>382</ele></trkpt>
   <trkpt lat="49.499331" lon="12.989106"><ele>382</ele></trkpt>
   <trkpt lat="49.499088" lon="12.988371"><ele>384</ele></trkpt>
   <trkpt lat="49.498907" lon="12.987438"><ele>386.75</ele></trkpt>
   <trkpt lat="49.498222" lon="12.987652"><ele>388</ele></trkpt>
   <trkpt lat="49.498006" lon="12.987729"><ele>388</ele></trkpt>
   <trkpt lat="49.496897" lon="12.988123"><ele>391.75</ele></trkpt>
   <trkpt lat="49.49664" lon="12.988165"><ele>392.5</ele></trkpt>
   <trkpt lat="49.496428" lon="12.988152"><ele>392.75</ele></trkpt>
   <trkpt lat="49.496013" lon="12.988081"><ele>394.25</ele></trkpt>
   <trkpt lat="49.495773" lon="12.987955"><ele>395</ele></trkpt>
   <trkpt lat="49.495538" lon="12.987782"><ele>395</ele></trkpt>
   <trkpt lat="49.495263" lon="12.987463"><ele>396</ele></trkpt>
   <trkpt lat="49.495039" lon="12.987245"><ele>396.75</ele></trkpt>
   <trkpt lat="49.493777" lon="12.986347"><ele>394.5</ele></trkpt>
   <trkpt lat="49.492544" lon="12.985322"><ele>390</ele></trkpt>
   <trkpt lat="49.492167" lon="12.984961"><ele>388.5</ele></trkpt>
   <trkpt lat="49.492047" lon="12.984759"><ele>388.25</ele></trkpt>
   <trkpt lat="49.491968" lon="12.984532"><ele>388</ele></trkpt>
   <trkpt lat="49.491816" lon="12.983449"><ele>388</ele></trkpt>
   <trkpt lat="49.491753" lon="12.983185"><ele>387.75</ele></trkpt>
   <trkpt lat="49.491657" lon="12.983059"><ele>387.75</ele></trkpt>
   <trkpt lat="49.491512" lon="12.982973"><ele>387.25</ele></trkpt>
   <trkpt lat="49.490291" lon="12.982609"><ele>387</ele></trkpt>
   <trkpt lat="49.489913" lon="12.982569"><ele>386.25</ele></trkpt>
   <trkpt lat="49.488041" lon="12.982532"><ele>383.75</ele></trkpt>
   <trkpt lat="49.487773" lon="12.982594"><ele>383.5</ele></trkpt>
   <trkpt lat="49.48756" lon="12.982698"><ele>383.25</ele></trkpt>
   <trkpt lat="49.48735" lon="12.982886"><ele>383.5</ele></trkpt>
   <trkpt lat="49.487181" lon="12.983088"><ele>383.75</ele></trkpt>
   <trkpt lat="49.487049" lon="12.983335"><ele>383.75</ele></trkpt>
   <trkpt lat="49.486944" lon="12.98373"><ele>383.5</ele></trkpt>
   <trkpt lat="49.486816" lon="12.984904"><ele>383.5</ele></trkpt>
   <trkpt lat="49.48672" lon="12.985815"><ele>385.25</ele></trkpt>
   <trkpt lat="49.486696" lon="12.986107"><ele>385.5</ele></trkpt>
   <trkpt lat="49.486677" lon="12.986524"><ele>385.75</ele></trkpt>
   <trkpt lat="49.486673" lon="12.986705"><ele>385.75</ele></trkpt>
   <trkpt lat="49.486665" lon="12.987029"><ele>384.5</ele></trkpt>
   <trkpt lat="49.486625" lon="12.987347"><ele>384.25</ele></trkpt>
   <trkpt lat="49.486588" lon="12.987593"><ele>384.25</ele></trkpt>
   <trkpt lat="49.486526" lon="12.987908"><ele>384.25</ele></trkpt>
   <trkpt lat="49.486479" lon="12.98811"><ele>384.25</ele></trkpt>
   <trkpt lat="49.486355" lon="12.988466"><ele>385</ele></trkpt>
   <trkpt lat="49.486286" lon="12.988632"><ele>385.5</ele></trkpt>
   <trkpt lat="49.486216" lon="12.988757"><ele>386</ele></trkpt>
   <trkpt lat="49.486128" lon="12.988855"><ele>386.75</ele></trkpt>
   <trkpt lat="49.486019" lon="12.988932"><ele>387</ele></trkpt>
   <trkpt lat="49.485785" lon="12.989052"><ele>387.25</ele></trkpt>
   <trkpt lat="49.485372" lon="12.989128"><ele>386.25</ele></trkpt>
   <trkpt lat="49.484915" lon="12.989445"><ele>385.75</ele></trkpt>
   <trkpt lat="49.484762" lon="12.989512"><ele>385.5</ele></trkpt>
   <trkpt lat="49.484191" lon="12.9897"><ele>386.75</ele></trkpt>
   <trkpt lat="49.484001" lon="12.98973"><ele>387.5</ele></trkpt>
   <trkpt lat="49.483906" lon="12.989728"><ele>387.75</ele></trkpt>
   <trkpt lat="49.483814" lon="12.989715"><ele>387.5</ele></trkpt>
   <trkpt lat="49.483667" lon="12.989682"><ele>387.25</ele></trkpt>
   <trkpt lat="49.483507" lon="12.989626"><ele>387</ele></trkpt>
   <trkpt lat="49.48336" lon="12.989564"><ele>387</ele></trkpt>
   <trkpt lat="49.483092" lon="12.989417"><ele>387</ele></trkpt>
   <trkpt lat="49.482781" lon="12.989213"><ele>386.5</ele></trkpt>
   <trkpt lat="49.482638" lon="12.989155"><ele>386.5</ele></trkpt>
   <trkpt lat="49.482383" lon="12.989083"><ele>385.5</ele></trkpt>
   <trkpt lat="49.482154" lon="12.988996"><ele>385</ele></trkpt>
   <trkpt lat="49.481882" lon="12.988853"><ele>385</ele></trkpt>
   <trkpt lat="49.481699" lon="12.988735"><ele>384.5</ele></trkpt>
   <trkpt lat="49.480912" lon="12.988106"><ele>385.75</ele></trkpt>
   <trkpt lat="49.480776" lon="12.988018"><ele>385.75</ele></trkpt>
   <trkpt lat="49.480094" lon="12.98764"><ele>385.5</ele></trkpt>
   <trkpt lat="49.479832" lon="12.98752"><ele>385.5</ele></trkpt>
   <trkpt lat="49.479649" lon="12.987486"><ele>385</ele></trkpt>
   <trkpt lat="49.479126" lon="12.987497"><ele>385</ele></trkpt>
   <trkpt lat="49.478949" lon="12.987465"><ele>385.5</ele></trkpt>
   <trkpt lat="49.478785" lon="12.987388"><ele>385.25</ele></trkpt>
   <trkpt lat="49.478361" lon="12.987041"><ele>385</ele></trkpt>
   <trkpt lat="49.478205" lon="12.986957"><ele>385</ele></trkpt>
   <trkpt lat="49.477794" lon="12.986821"><ele>385</ele></trkpt>
   <trkpt lat="49.477618" lon="12.986725"><ele>385</ele></trkpt>
   <trkpt lat="49.477392" lon="12.986522"><ele>385.25</ele></trkpt>
   <trkpt lat="49.477214" lon="12.986315"><ele>385.25</ele></trkpt>
   <trkpt lat="49.476841" lon="12.985852"><ele>385.5</ele></trkpt>
   <trkpt lat="49.475956" lon="12.984901"><ele>387.75</ele></trkpt>
   <trkpt lat="49.475691" lon="12.984529"><ele>387.25</ele></trkpt>
   <trkpt lat="49.475432" lon="12.984147"><ele>387.5</ele></trkpt>
   <trkpt lat="49.475318" lon="12.984022"><ele>387.5</ele></trkpt>
   <trkpt lat="49.47526" lon="12.983972"><ele>387.5</ele></trkpt>
   <trkpt lat="49.475208" lon="12.983927"><ele>387.5</ele></trkpt>
   <trkpt lat="49.47447" lon="12.983409"><ele>387</ele></trkpt>
   <trkpt lat="49.474286" lon="12.983227"><ele>387</ele></trkpt>
   <trkpt lat="49.474155" lon="12.983054"><ele>387.75</ele></trkpt>
   <trkpt lat="49.47404" lon="12.982811"><ele>386.5</ele></trkpt>
   <trkpt lat="49.473916" lon="12.982614"><ele>387</ele></trkpt>
   <trkpt lat="49.473728" lon="12.982445"><ele>387.5</ele></trkpt>
   <trkpt lat="49.473568" lon="12.982377"><ele>387</ele></trkpt>
   <trkpt lat="49.473119" lon="12.982217"><ele>387.75</ele></trkpt>
   <trkpt lat="49.472977" lon="12.982192"><ele>387.75</ele></trkpt>
   <trkpt lat="49.472858" lon="12.982191"><ele>387.75</ele></trkpt>
   <trkpt lat="49.471514" lon="12.982557"><ele>387.75</ele></trkpt>
   <trkpt lat="49.470936" lon="12.98284"><ele>388.5</ele></trkpt>
   <trkpt lat="49.470455" lon="12.982925"><ele>388.75</ele></trkpt>
   <trkpt lat="49.470138" lon="12.98291"><ele>389.75</ele></trkpt>
   <trkpt lat="49.469996" lon="12.982888"><ele>390</ele></trkpt>
   <trkpt lat="49.469924" lon="12.982877"><ele>390.25</ele></trkpt>
   <trkpt lat="49.469666" lon="12.982829"><ele>390.5</ele></trkpt>
   <trkpt lat="49.469462" lon="12.982773"><ele>391</ele></trkpt>
   <trkpt lat="49.469173" lon="12.982696"><ele>392.25</ele></trkpt>
   <trkpt lat="49.468966" lon="12.982564"><ele>392</ele></trkpt>
   <trkpt lat="49.468832" lon="12.98237"><ele>392.5</ele></trkpt>
   <trkpt lat="49.4688" lon="12.982305"><ele>393</ele></trkpt>
   <trkpt lat="49.468746" lon="12.982192"><ele>393.5</ele></trkpt>
   <trkpt lat="49.468667" lon="12.981798"><ele>395.5</ele></trkpt>
   <trkpt lat="49.468621" lon="12.981535"><ele>396</ele></trkpt>
   <trkpt lat="49.468572" lon="12.981364"><ele>396.25</ele></trkpt>
   <trkpt lat="49.4685" lon="12.981244"><ele>397</ele></trkpt>
   <trkpt lat="49.468363" lon="12.981099"><ele>397</ele></trkpt>
   <trkpt lat="49.468207" lon="12.981021"><ele>397</ele></trkpt>
   <trkpt lat="49.467943" lon="12.980981"><ele>396.25</ele></trkpt>
   <trkpt lat="49.466925" lon="12.980936"><ele>394.5</ele></trkpt>
   <trkpt lat="49.466949" lon="12.98084"><ele>394.75</ele></trkpt>
   <trkpt lat="49.466945" lon="12.980705"><ele>395.25</ele></trkpt>
   <trkpt lat="49.466837" lon="12.979813"><ele>398.5</ele></trkpt>
   <trkpt lat="49.466551" lon="12.979846"><ele>400.5</ele></trkpt>
   <trkpt lat="49.46639" lon="12.979842"><ele>402.25</ele></trkpt>
   <trkpt lat="49.466285" lon="12.979818"><ele>402.5</ele></trkpt>
   <trkpt lat="49.466179" lon="12.979775"><ele>402.75</ele></trkpt>
   <trkpt lat="49.466074" lon="12.97971"><ele>403.25</ele></trkpt>
   <trkpt lat="49.465975" lon="12.979627"><ele>404.25</ele></trkpt>
   <trkpt lat="49.465687" lon="12.979277"><ele>407.5</ele></trkpt>
   <trkpt lat="49.465444" lon="12.979056"><ele>409.75</ele></trkpt>
   <trkpt lat="49.465317" lon="12.978916"><ele>410</ele></trkpt>
   <trkpt lat="49.465195" lon="12.978708"><ele>412.5</ele></trkpt>
   <trkpt lat="49.465122" lon="12.978583"><ele>413.5</ele></trkpt>
   <trkpt lat="49.464929" lon="12.978196"><ele>415.75</ele></trkpt>
   <trkpt lat="49.464729" lon="12.977856"><ele>418.25</ele></trkpt>
   <trkpt lat="49.464665" lon="12.977756"><ele>419.5</ele></trkpt>
   <trkpt lat="49.464577" lon="12.977645"><ele>421.5</ele></trkpt>
   <trkpt lat="49.464444" lon="12.977538"><ele>422.5</ele></trkpt>
   <trkpt lat="49.464146" lon="12.977368"><ele>426.25</ele></trkpt>
   <trkpt lat="49.464038" lon="12.977341"><ele>426.5</ele></trkpt>
   <trkpt lat="49.463373" lon="12.977257"><ele>430.75</ele></trkpt>
   <trkpt lat="49.463251" lon="12.977224"><ele>431.5</ele></trkpt>
   <trkpt lat="49.463072" lon="12.977137"><ele>432.75</ele></trkpt>
   <trkpt lat="49.462862" lon="12.976983"><ele>432.75</ele></trkpt>
   <trkpt lat="49.462735" lon="12.976855"><ele>432.75</ele></trkpt>
   <trkpt lat="49.462433" lon="12.976489"><ele>431.75</ele></trkpt>
   <trkpt lat="49.461726" lon="12.975431"><ele>431.25</ele></trkpt>
   <trkpt lat="49.461521" lon="12.975033"><ele>431.25</ele></trkpt>
   <trkpt lat="49.461305" lon="12.974466"><ele>430.25</ele></trkpt>
   <trkpt lat="49.461161" lon="12.974152"><ele>428.25</ele></trkpt>
   <trkpt lat="49.460657" lon="12.973365"><ele>422.75</ele></trkpt>
   <trkpt lat="49.460485" lon="12.973067"><ele>422</ele></trkpt>
   <trkpt lat="49.460344" lon="12.972767"><ele>421.75</ele></trkpt>
   <trkpt lat="49.460178" lon="12.9723"><ele>421.25</ele></trkpt>
   <trkpt lat="49.460117" lon="12.97206"><ele>421.25</ele></trkpt>
   <trkpt lat="49.459977" lon="12.971341"><ele>421</ele></trkpt>
   <trkpt lat="49.459913" lon="12.971145"><ele>421.75</ele></trkpt>
   <trkpt lat="49.459813" lon="12.970934"><ele>421.25</ele></trkpt>
   <trkpt lat="49.459738" lon="12.970815"><ele>421</ele></trkpt>
   <trkpt lat="49.459588" lon="12.970646"><ele>420.75</ele></trkpt>
   <trkpt lat="49.459521" lon="12.97057"><ele>420.75</ele></trkpt>
   <trkpt lat="49.459377" lon="12.97049"><ele>421</ele></trkpt>
   <trkpt lat="49.458505" lon="12.967113"><ele>435</ele></trkpt>
   <trkpt lat="49.458194" lon="12.966115"><ele>437</ele></trkpt>
   <trkpt lat="49.457056" lon="12.963812"><ele>454.5</ele></trkpt>
   <trkpt lat="49.456634" lon="12.962313"><ele>456.25</ele></trkpt>
   <trkpt lat="49.456326" lon="12.960766"><ele>457.5</ele></trkpt>
   <trkpt lat="49.455873" lon="12.959339"><ele>458.5</ele></trkpt>
   <trkpt lat="49.455222" lon="12.956572"><ele>457</ele></trkpt>
   <trkpt lat="49.455036" lon="12.956657"><ele>456</ele></trkpt>
   <trkpt lat="49.454683" lon="12.956731"><ele>454.5</ele></trkpt>
   <trkpt lat="49.454264" lon="12.956851"><ele>452.25</ele></trkpt>
   <trkpt lat="49.45404" lon="12.956948"><ele>451.5</ele></trkpt>
   <trkpt lat="49.453787" lon="12.957069"><ele>450.25</ele></trkpt>
   <trkpt lat="49.453625" lon="12.957145"><ele>449.25</ele></trkpt>
   <trkpt lat="49.453508" lon="12.957172"><ele>448.5</ele></trkpt>
   <trkpt lat="49.453304" lon="12.957219"><ele>447.75</ele></trkpt>
   <trkpt lat="49.453398" lon="12.956842"><ele>448.25</ele></trkpt>
   <trkpt lat="49.453417" lon="12.956766"><ele>448.5</ele></trkpt>
   <trkpt lat="49.453496" lon="12.956427"><ele>448.5</ele></trkpt>
   <trkpt lat="49.453526" lon="12.956298"><ele>448</ele></trkpt>
   <trkpt lat="49.453563" lon="12.95614"><ele>447</ele></trkpt>
   <trkpt lat="49.453635" lon="12.955866"><ele>446</ele></trkpt>
   <trkpt lat="49.453655" lon="12.955721"><ele>446</ele></trkpt>
   <trkpt lat="49.45366" lon="12.955462"><ele>446</ele></trkpt>
   <trkpt lat="49.453604" lon="12.955186"><ele>446.75</ele></trkpt>
   <trkpt lat="49.453434" lon="12.954895"><ele>448.75</ele></trkpt>
   <trkpt lat="49.453142" lon="12.954217"><ele>452</ele></trkpt>
   <trkpt lat="49.452889" lon="12.953721"><ele>451.5</ele></trkpt>
   <trkpt lat="49.452566" lon="12.953171"><ele>449.75</ele></trkpt>
   <trkpt lat="49.452532" lon="12.953084"><ele>450</ele></trkpt>
   <trkpt lat="49.451923" lon="12.951521"><ele>449.25</ele></trkpt>
   <trkpt lat="49.451853" lon="12.95135"><ele>449.5</ele></trkpt>
   <trkpt lat="49.451779" lon="12.951198"><ele>449.75</ele></trkpt>
   <trkpt lat="49.451674" lon="12.951004"><ele>450.25</ele></trkpt>
   <trkpt lat="49.451579" lon="12.950866"><ele>450.25</ele></trkpt>
   <trkpt lat="49.451465" lon="12.950744"><ele>449.75</ele></trkpt>
   <trkpt lat="49.451347" lon="12.95064"><ele>449.5</ele></trkpt>
   <trkpt lat="49.451215" lon="12.950546"><ele>450</ele></trkpt>
   <trkpt lat="49.451089" lon="12.950472"><ele>450</ele></trkpt>
   <trkpt lat="49.450756" lon="12.950339"><ele>450.75</ele></trkpt>
   <trkpt lat="49.450182" lon="12.950167"><ele>453.75</ele></trkpt>
   <trkpt lat="49.449931" lon="12.950014"><ele>455.5</ele></trkpt>
   <trkpt lat="49.449698" lon="12.949819"><ele>458.25</ele></trkpt>
   <trkpt lat="49.449355" lon="12.949414"><ele>462.25</ele></trkpt>
   <trkpt lat="49.448106" lon="12.947904"><ele>473.5</ele></trkpt>
   <trkpt lat="49.447364" lon="12.947032"><ele>474.75</ele></trkpt>
   <trkpt lat="49.447016" lon="12.946638"><ele>474.25</ele></trkpt>
   <trkpt lat="49.446674" lon="12.946329"><ele>473</ele></trkpt>
   <trkpt lat="49.446481" lon="12.946141"><ele>471.5</ele></trkpt>
   <trkpt lat="49.446206" lon="12.945776"><ele>470.5</ele></trkpt>
   <trkpt lat="49.445898" lon="12.945267"><ele>468.25</ele></trkpt>
   <trkpt lat="49.445636" lon="12.944913"><ele>466.5</ele></trkpt>
   <trkpt lat="49.4455" lon="12.944783"><ele>465.5</ele></trkpt>
   <trkpt lat="49.445404" lon="12.94488"><ele>464.75</ele></trkpt>
   <trkpt lat="49.443458" lon="12.943407"><ele>455.75</ele></trkpt>
   <trkpt lat="49.443202" lon="12.943364"><ele>454</ele></trkpt>
   <trkpt lat="49.442863" lon="12.943386"><ele>451.5</ele></trkpt>
   <trkpt lat="49.44182" lon="12.943403"><ele>442.75</ele></trkpt>
   <trkpt lat="49.440979" lon="12.943488"><ele>435.5</ele></trkpt>
   <trkpt lat="49.440806" lon="12.943496"><ele>434.25</ele></trkpt>
   <trkpt lat="49.440615" lon="12.943519"><ele>432.5</ele></trkpt>
   <trkpt lat="49.440528" lon="12.943562"><ele>431.5</ele></trkpt>
   <trkpt lat="49.44045" lon="12.943563"><ele>430.75</ele></trkpt>
   <trkpt lat="49.440378" lon="12.943536"><ele>430</ele></trkpt>
   <trkpt lat="49.440337" lon="12.943442"><ele>429.5</ele></trkpt>
   <trkpt lat="49.440339" lon="12.943269"><ele>429.5</ele></trkpt>
   <trkpt lat="49.440341" lon="12.943192"><ele>429.5</ele></trkpt>
   <trkpt lat="49.440195" lon="12.943058"><ele>428</ele></trkpt>
   <trkpt lat="49.440138" lon="12.942548"><ele>426.25</ele></trkpt>
   <trkpt lat="49.440006" lon="12.942225"><ele>424</ele></trkpt>
   <trkpt lat="49.439939" lon="12.94205"><ele>424.5</ele></trkpt>
   <trkpt lat="49.439679" lon="12.941463"><ele>422.75</ele></trkpt>
   <trkpt lat="49.439462" lon="12.941025"><ele>420.25</ele></trkpt>
   <trkpt lat="49.439415" lon="12.941054"><ele>419.75</ele></trkpt>
   <trkpt lat="49.439186" lon="12.940106"><ele>418</ele></trkpt>
   <trkpt lat="49.439089" lon="12.939704"><ele>417.5</ele></trkpt>
   <trkpt lat="49.439026" lon="12.939395"><ele>417.25</ele></trkpt>
   <trkpt lat="49.438996" lon="12.939144"><ele>417.25</ele></trkpt>
   <trkpt lat="49.438974" lon="12.938893"><ele>417.25</ele></trkpt>
   <trkpt lat="49.438893" lon="12.938252"><ele>417.5</ele></trkpt>
   <trkpt lat="49.438854" lon="12.938098"><ele>417</ele></trkpt>
   <trkpt lat="49.438829" lon="12.937949"><ele>417</ele></trkpt>
   <trkpt lat="49.438828" lon="12.937891"><ele>417</ele></trkpt>
   <trkpt lat="49.438839" lon="12.937826"><ele>417</ele></trkpt>
   <trkpt lat="49.439352" lon="12.935915"><ele>417</ele></trkpt>
   <trkpt lat="49.439444" lon="12.935566"><ele>416.75</ele></trkpt>
   <trkpt lat="49.439622" lon="12.934995"><ele>417</ele></trkpt>
   <trkpt lat="49.439658" lon="12.934933"><ele>417</ele></trkpt>
   <trkpt lat="49.43986" lon="12.934842"><ele>417</ele></trkpt>
   <trkpt lat="49.439957" lon="12.93478"><ele>417</ele></trkpt>
   <trkpt lat="49.439966" lon="12.934739"><ele>417</ele></trkpt>
   <trkpt lat="49.439987" lon="12.934646"><ele>417</ele></trkpt>
   <trkpt lat="49.439991" lon="12.934213"><ele>417</ele></trkpt>
   <trkpt lat="49.439972" lon="12.93372"><ele>418.5</ele></trkpt>
   <trkpt lat="49.44003" lon="12.93371"><ele>418.5</ele></trkpt>
   <trkpt lat="49.44022" lon="12.933678"><ele>418.75</ele></trkpt>
   <trkpt lat="49.440315" lon="12.933645"><ele>419</ele></trkpt>
   <trkpt lat="49.44065" lon="12.933476"><ele>420.25</ele></trkpt>
   <trkpt lat="49.440718" lon="12.933444"><ele>420.5</ele></trkpt>
   <trkpt lat="49.440639" lon="12.932984"><ele>422.25</ele></trkpt>
   <trkpt lat="49.440589" lon="12.932691"><ele>423.25</ele></trkpt>
   <trkpt lat="49.440587" lon="12.932679"><ele>423.25</ele></trkpt>
   <trkpt lat="49.440568" lon="12.932577"><ele>423.5</ele></trkpt>
   <trkpt lat="49.440546" lon="12.932422"><ele>423.75</ele></trkpt>
   <trkpt lat="49.440542" lon="12.932394"><ele>423.75</ele></trkpt>
   <trkpt lat="49.440423" lon="12.931486"><ele>425.75</ele></trkpt>
   <trkpt lat="49.440413" lon="12.931391"><ele>425.75</ele></trkpt>
   <trkpt lat="49.44024" lon="12.929732"><ele>428.75</ele></trkpt>
   <trkpt lat="49.44024" lon="12.929731"><ele>428.75</ele></trkpt>
   <trkpt lat="49.440059" lon="12.92815"><ele>429</ele></trkpt>
   <trkpt lat="49.44004" lon="12.927843"><ele>429</ele></trkpt>
   <trkpt lat="49.44003" lon="12.92759"><ele>429.5</ele></trkpt>
   <trkpt lat="49.439843" lon="12.927653"><ele>428</ele></trkpt>
   <trkpt lat="49.439507" lon="12.92779"><ele>426</ele></trkpt>
   <trkpt lat="49.43924" lon="12.92802"><ele>424.25</ele></trkpt>
   <trkpt lat="49.439174" lon="12.928072"><ele>423.75</ele></trkpt>
   <trkpt lat="49.438998" lon="12.928141"><ele>422</ele></trkpt>
   <trkpt lat="49.438801" lon="12.928203"><ele>420</ele></trkpt>
   <trkpt lat="49.43856" lon="12.928288"><ele>418.5</ele></trkpt>
   <trkpt lat="49.438508" lon="12.928306"><ele>418.5</ele></trkpt>
   <trkpt lat="49.438495" lon="12.928311"><ele>418.5</ele></trkpt>
   <trkpt lat="49.438362" lon="12.928346"><ele>418</ele></trkpt>
   <trkpt lat="49.438354" lon="12.928295"><ele>418</ele></trkpt>
   <trkpt lat="49.438325" lon="12.928022"><ele>418</ele></trkpt>
   <trkpt lat="49.438267" lon="12.927447"><ele>418</ele></trkpt>
   <trkpt lat="49.438214" lon="12.926835"><ele>418</ele></trkpt>
   <trkpt lat="49.438196" lon="12.926787"><ele>418</ele></trkpt>
   <trkpt lat="49.43818" lon="12.926582"><ele>418</ele></trkpt>
   <trkpt lat="49.438173" lon="12.926519"><ele>418.25</ele></trkpt>
   <trkpt lat="49.438187" lon="12.926351"><ele>418.5</ele></trkpt>
   <trkpt lat="49.438185" lon="12.92628"><ele>418.5</ele></trkpt>
   <trkpt lat="49.438183" lon="12.926223"><ele>418.25</ele></trkpt>
   <trkpt lat="49.438113" lon="12.926087"><ele>418.25</ele></trkpt>
   <trkpt lat="49.438067" lon="12.925607"><ele>419</ele></trkpt>
   <trkpt lat="49.438059" lon="12.925247"><ele>419</ele></trkpt>
   <trkpt lat="49.438064" lon="12.92511"><ele>418.75</ele></trkpt>
   <trkpt lat="49.438136" lon="12.924631"><ele>418.75</ele></trkpt>
   <trkpt lat="49.438145" lon="12.924572"><ele>418.75</ele></trkpt>
   <trkpt lat="49.438202" lon="12.924256"><ele>419</ele></trkpt>
   <trkpt lat="49.438216" lon="12.923996"><ele>419.25</ele></trkpt>
   <trkpt lat="49.438217" lon="12.923806"><ele>419.25</ele></trkpt>
   <trkpt lat="49.43819" lon="12.923529"><ele>419</ele></trkpt>
   <trkpt lat="49.438062" lon="12.922475"><ele>420</ele></trkpt>
   <trkpt lat="49.438058" lon="12.922383"><ele>420</ele></trkpt>
   <trkpt lat="49.438056" lon="12.922331"><ele>419.75</ele></trkpt>
   <trkpt lat="49.43808" lon="12.922246"><ele>419.75</ele></trkpt>
   <trkpt lat="49.438116" lon="12.922203"><ele>419.75</ele></trkpt>
   <trkpt lat="49.438147" lon="12.922182"><ele>419.75</ele></trkpt>
   <trkpt lat="49.438127" lon="12.922093"><ele>419.5</ele></trkpt>
   <trkpt lat="49.438111" lon="12.922027"><ele>419.25</ele></trkpt>
   <trkpt lat="49.438168" lon="12.922017"><ele>419.5</ele></trkpt>
   <trkpt lat="49.438131" lon="12.921918"><ele>419.25</ele></trkpt>
   <trkpt lat="49.43808" lon="12.921829"><ele>419.25</ele></trkpt>
   <trkpt lat="49.438049" lon="12.921789"><ele>419.5</ele></trkpt>
   <trkpt lat="49.437909" lon="12.921696"><ele>419.25</ele></trkpt>
   <trkpt lat="49.437574" lon="12.921499"><ele>419.75</ele></trkpt>
   <trkpt lat="49.437358" lon="12.921296"><ele>420</ele></trkpt>
   <trkpt lat="49.437289" lon="12.921228"><ele>420</ele></trkpt>
   <trkpt lat="49.437143" lon="12.921035"><ele>420</ele></trkpt>
   <trkpt lat="49.436972" lon="12.920632"><ele>419.75</ele></trkpt>
   <trkpt lat="49.436863" lon="12.920355"><ele>421</ele></trkpt>
   <trkpt lat="49.436754" lon="12.920047"><ele>420.25</ele></trkpt>
   <trkpt lat="49.436736" lon="12.919893"><ele>419.75</ele></trkpt>
   <trkpt lat="49.43658" lon="12.919025"><ele>421.75</ele></trkpt>
   <trkpt lat="49.436431" lon="12.918153"><ele>420.25</ele></trkpt>
   <trkpt lat="49.436306" lon="12.917343"><ele>422.25</ele></trkpt>
   <trkpt lat="49.436245" lon="12.916921"><ele>421.25</ele></trkpt>
   <trkpt lat="49.436226" lon="12.916815"><ele>421.25</ele></trkpt>
   <trkpt lat="49.436219" lon="12.916577"><ele>421.5</ele></trkpt>
   <trkpt lat="49.436186" lon="12.915465"><ele>421.5</ele></trkpt>
   <trkpt lat="49.43614" lon="12.915259"><ele>421.25</ele></trkpt>
   <trkpt lat="49.436096" lon="12.914885"><ele>422.5</ele></trkpt>
   <trkpt lat="49.435865" lon="12.913428"><ele>422.5</ele></trkpt>
   <trkpt lat="49.435771" lon="12.912498"><ele>423</ele></trkpt>
   <trkpt lat="49.435721" lon="12.912116"><ele>424</ele></trkpt>
   <trkpt lat="49.435657" lon="12.911834"><ele>423.5</ele></trkpt>
   <trkpt lat="49.435657" lon="12.911697"><ele>423.25</ele></trkpt>
   <trkpt lat="49.435526" lon="12.911747"><ele>423.25</ele></trkpt>
   <trkpt lat="49.435493" lon="12.91176"><ele>423.5</ele></trkpt>
   <trkpt lat="49.435331" lon="12.911217"><ele>424.5</ele></trkpt>
   <trkpt lat="49.435215" lon="12.910932"><ele>424.75</ele></trkpt>
   <trkpt lat="49.435092" lon="12.910486"><ele>425</ele></trkpt>
   <trkpt lat="49.434952" lon="12.909866"><ele>425</ele></trkpt>
   <trkpt lat="49.43488" lon="12.90944"><ele>425.25</ele></trkpt>
   <trkpt lat="49.434778" lon="12.908894"><ele>426.5</ele></trkpt>
   <trkpt lat="49.434712" lon="12.908074"><ele>426</ele></trkpt>
   <trkpt lat="49.434708" lon="12.907866"><ele>426</ele></trkpt>
   <trkpt lat="49.434707" lon="12.907715"><ele>425.75</ele></trkpt>
   <trkpt lat="49.434703" lon="12.907637"><ele>425.5</ele></trkpt>
   <trkpt lat="49.434485" lon="12.90713"><ele>426.25</ele></trkpt>
   <trkpt lat="49.434126" lon="12.906388"><ele>427.25</ele></trkpt>
   <trkpt lat="49.434055" lon="12.906038"><ele>427</ele></trkpt>
   <trkpt lat="49.434078" lon="12.905434"><ele>426.75</ele></trkpt>
   <trkpt lat="49.433944" lon="12.904734"><ele>428</ele></trkpt>
   <trkpt lat="49.433637" lon="12.903694"><ele>430</ele></trkpt>
   <trkpt lat="49.433197" lon="12.902529"><ele>431.5</ele></trkpt>
   <trkpt lat="49.432767" lon="12.901464"><ele>434</ele></trkpt>
   <trkpt lat="49.43263" lon="12.900973"><ele>435.5</ele></trkpt>
   <trkpt lat="49.432614" lon="12.900874"><ele>435.75</ele></trkpt>
   <trkpt lat="49.43243" lon="12.900082"><ele>436.75</ele></trkpt>
   <trkpt lat="49.432179" lon="12.898954"><ele>440.25</ele></trkpt>
   <trkpt lat="49.431661" lon="12.897013"><ele>445</ele></trkpt>
   <trkpt lat="49.431199" lon="12.894994"><ele>448.5</ele></trkpt>
   <trkpt lat="49.431085" lon="12.894545"><ele>449.25</ele></trkpt>
   <trkpt lat="49.430901" lon="12.89382"><ele>450.25</ele></trkpt>
   <trkpt lat="49.430638" lon="12.892849"><ele>451</ele></trkpt>
   <trkpt lat="49.430583" lon="12.892631"><ele>451</ele></trkpt>
   <trkpt lat="49.430464" lon="12.892088"><ele>451.5</ele></trkpt>
   <trkpt lat="49.43044" lon="12.891876"><ele>450.75</ele></trkpt>
   <trkpt lat="49.430436" lon="12.891655"><ele>449.5</ele></trkpt>
   <trkpt lat="49.430386" lon="12.891237"><ele>448.5</ele></trkpt>
   <trkpt lat="49.430294" lon="12.890984"><ele>447.75</ele></trkpt>
   <trkpt lat="49.43004" lon="12.890528"><ele>447.25</ele></trkpt>
   <trkpt lat="49.429784" lon="12.890095"><ele>447.25</ele></trkpt>
   <trkpt lat="49.429473" lon="12.88971"><ele>447.5</ele></trkpt>
   <trkpt lat="49.429345" lon="12.889643"><ele>448.75</ele></trkpt>
   <trkpt lat="49.429044" lon="12.889177"><ele>447.25</ele></trkpt>
   <trkpt lat="49.428951" lon="12.889143"><ele>448</ele></trkpt>
   <trkpt lat="49.428705" lon="12.888937"><ele>448.75</ele></trkpt>
   <trkpt lat="49.428277" lon="12.888703"><ele>451.5</ele></trkpt>
   <trkpt lat="49.428086" lon="12.888575"><ele>452.25</ele></trkpt>
   <trkpt lat="49.427803" lon="12.888343"><ele>452.75</ele></trkpt>
   <trkpt lat="49.42739" lon="12.888037"><ele>450.5</ele></trkpt>
   <trkpt lat="49.426991" lon="12.887758"><ele>450.5</ele></trkpt>
   <trkpt lat="49.426628" lon="12.887531"><ele>450.75</ele></trkpt>
   <trkpt lat="49.426482" lon="12.887429"><ele>451.25</ele></trkpt>
   <trkpt lat="49.426351" lon="12.887312"><ele>451.5</ele></trkpt>
   <trkpt lat="49.426058" lon="12.886981"><ele>452</ele></trkpt>
   <trkpt lat="49.425851" lon="12.886805"><ele>452.75</ele></trkpt>
   <trkpt lat="49.425621" lon="12.886667"><ele>453.25</ele></trkpt>
   <trkpt lat="49.425399" lon="12.886498"><ele>453.5</ele></trkpt>
   <trkpt lat="49.425304" lon="12.886436"><ele>453.25</ele></trkpt>
   <trkpt lat="49.425247" lon="12.886374"><ele>453</ele></trkpt>
   <trkpt lat="49.425208" lon="12.886297"><ele>453</ele></trkpt>
   <trkpt lat="49.425185" lon="12.886214"><ele>452.75</ele></trkpt>
   <trkpt lat="49.42485" lon="12.886055"><ele>452.5</ele></trkpt>
   <trkpt lat="49.423215" lon="12.885405"><ele>455</ele></trkpt>
   <trkpt lat="49.422904" lon="12.885334"><ele>456.25</ele></trkpt>
   <trkpt lat="49.421832" lon="12.885152"><ele>457.5</ele></trkpt>
   <trkpt lat="49.421638" lon="12.885074"><ele>457</ele></trkpt>
   <trkpt lat="49.421308" lon="12.884956"><ele>457</ele></trkpt>
   <trkpt lat="49.420402" lon="12.884554"><ele>460</ele></trkpt>
   <trkpt lat="49.420109" lon="12.884483"><ele>460.25</ele></trkpt>
   <trkpt lat="49.41984" lon="12.884487"><ele>460.25</ele></trkpt>
   <trkpt lat="49.419507" lon="12.884694"><ele>462.5</ele></trkpt>
   <trkpt lat="49.419422" lon="12.884763"><ele>462.25</ele></trkpt>
   <trkpt lat="49.418786" lon="12.885415"><ele>462</ele></trkpt>
   <trkpt lat="49.418271" lon="12.886003"><ele>461.5</ele></trkpt>
   <trkpt lat="49.418054" lon="12.886083"><ele>462</ele></trkpt>
   <trkpt lat="49.417573" lon="12.886141"><ele>462.5</ele></trkpt>
   <trkpt lat="49.417526" lon="12.885874"><ele>462.75</ele></trkpt>
   <trkpt lat="49.417366" lon="12.885297"><ele>464.75</ele></trkpt>
   <trkpt lat="49.417432" lon="12.884927"><ele>464.25</ele></trkpt>
   <trkpt lat="49.417459" lon="12.88468"><ele>463.25</ele></trkpt>
   <trkpt lat="49.417462" lon="12.884451"><ele>463.25</ele></trkpt>
   <trkpt lat="49.417436" lon="12.884163"><ele>463.25</ele></trkpt>
   <trkpt lat="49.417342" lon="12.883829"><ele>465</ele></trkpt>
   <trkpt lat="49.417174" lon="12.883573"><ele>466</ele></trkpt>
   <trkpt lat="49.417076" lon="12.88337"><ele>466</ele></trkpt>
   <trkpt lat="49.41695" lon="12.883152"><ele>466.75</ele></trkpt>
   <trkpt lat="49.416818" lon="12.882886"><ele>468.5</ele></trkpt>
   <trkpt lat="49.416619" lon="12.882533"><ele>469.5</ele></trkpt>
   <trkpt lat="49.416306" lon="12.882156"><ele>472</ele></trkpt>
   <trkpt lat="49.416139" lon="12.881823"><ele>473.25</ele></trkpt>
   <trkpt lat="49.416024" lon="12.881372"><ele>475.25</ele></trkpt>
   <trkpt lat="49.415968" lon="12.881097"><ele>477</ele></trkpt>
   <trkpt lat="49.415921" lon="12.880715"><ele>477.5</ele></trkpt>
   <trkpt lat="49.415808" lon="12.880009"><ele>479</ele></trkpt>
   <trkpt lat="49.415802" lon="12.879279"><ele>478</ele></trkpt>
   <trkpt lat="49.415749" lon="12.878865"><ele>477.5</ele></trkpt>
   <trkpt lat="49.415499" lon="12.878094"><ele>478.25</ele></trkpt>
   <trkpt lat="49.415361" lon="12.877848"><ele>478.5</ele></trkpt>
   <trkpt lat="49.415196" lon="12.877501"><ele>478.75</ele></trkpt>
   <trkpt lat="49.415048" lon="12.877196"><ele>479.5</ele></trkpt>
   <trkpt lat="49.414818" lon="12.876623"><ele>479</ele></trkpt>
   <trkpt lat="49.414602" lon="12.87624"><ele>479.25</ele></trkpt>
   <trkpt lat="49.414497" lon="12.876097"><ele>479.5</ele></trkpt>
   <trkpt lat="49.414139" lon="12.875715"><ele>480.25</ele></trkpt>
   <trkpt lat="49.413937" lon="12.875424"><ele>480.5</ele></trkpt>
   <trkpt lat="49.413795" lon="12.875257"><ele>481</ele></trkpt>
   <trkpt lat="49.413298" lon="12.874797"><ele>485</ele></trkpt>
   <trkpt lat="49.413016" lon="12.874235"><ele>484.25</ele></trkpt>
   <trkpt lat="49.412777" lon="12.873706"><ele>483.5</ele></trkpt>
   <trkpt lat="49.412637" lon="12.873476"><ele>483</ele></trkpt>
   <trkpt lat="49.412381" lon="12.87323"><ele>482.25</ele></trkpt>
   <trkpt lat="49.412305" lon="12.87323"><ele>482.75</ele></trkpt>
   <trkpt lat="49.41223" lon="12.87325"><ele>483.25</ele></trkpt>
   <trkpt lat="49.412134" lon="12.873261"><ele>483.75</ele></trkpt>
   <trkpt lat="49.412061" lon="12.873222"><ele>483.75</ele></trkpt>
   <trkpt lat="49.41194" lon="12.873102"><ele>483.25</ele></trkpt>
   <trkpt lat="49.411633" lon="12.872801"><ele>482.25</ele></trkpt>
   <trkpt lat="49.411506" lon="12.872711"><ele>482.5</ele></trkpt>
   <trkpt lat="49.411292" lon="12.872513"><ele>482.75</ele></trkpt>
   <trkpt lat="49.411169" lon="12.872362"><ele>482.5</ele></trkpt>
   <trkpt lat="49.410358" lon="12.871785"><ele>483.25</ele></trkpt>
   <trkpt lat="49.409769" lon="12.871525"><ele>483.25</ele></trkpt>
   <trkpt lat="49.409579" lon="12.871379"><ele>482.75</ele></trkpt>
   <trkpt lat="49.409231" lon="12.871346"><ele>483.5</ele></trkpt>
   <trkpt lat="49.409059" lon="12.87127"><ele>483.75</ele></trkpt>
   <trkpt lat="49.408118" lon="12.870754"><ele>483.25</ele></trkpt>
   <trkpt lat="49.407807" lon="12.870707"><ele>483</ele></trkpt>
   <trkpt lat="49.407524" lon="12.870716"><ele>483</ele></trkpt>
   <trkpt lat="49.407449" lon="12.870681"><ele>483</ele></trkpt>
   <trkpt lat="49.407383" lon="12.8706"><ele>482.5</ele></trkpt>
   <trkpt lat="49.40735" lon="12.87049"><ele>481.75</ele></trkpt>
   <trkpt lat="49.407321" lon="12.870279"><ele>480.25</ele></trkpt>
   <trkpt lat="49.407287" lon="12.870032"><ele>479.25</ele></trkpt>
   <trkpt lat="49.407287" lon="12.869827"><ele>479.25</ele></trkpt>
   <trkpt lat="49.407331" lon="12.869399"><ele>478.5</ele></trkpt>
   <trkpt lat="49.407081" lon="12.868782"><ele>477.25</ele></trkpt>
   <trkpt lat="49.40701" lon="12.868641"><ele>477.25</ele></trkpt>
   <trkpt lat="49.406698" lon="12.868253"><ele>478.25</ele></trkpt>
   <trkpt lat="49.406536" lon="12.86808"><ele>478</ele></trkpt>
   <trkpt lat="49.40628" lon="12.867851"><ele>476.5</ele></trkpt>
   <trkpt lat="49.405468" lon="12.867301"><ele>475.25</ele></trkpt>
   <trkpt lat="49.405354" lon="12.867197"><ele>474.75</ele></trkpt>
   <trkpt lat="49.405314" lon="12.867112"><ele>474</ele></trkpt>
   <trkpt lat="49.405288" lon="12.866981"><ele>473.25</ele></trkpt>
   <trkpt lat="49.405193" lon="12.865757"><ele>469.25</ele></trkpt>
   <trkpt lat="49.405104" lon="12.865472"><ele>468.75</ele></trkpt>
   <trkpt lat="49.404913" lon="12.865008"><ele>468.5</ele></trkpt>
   <trkpt lat="49.404728" lon="12.864751"><ele>469</ele></trkpt>
   <trkpt lat="49.404543" lon="12.864568"><ele>469.25</ele></trkpt>
   <trkpt lat="49.404428" lon="12.864342"><ele>469.5</ele></trkpt>
   <trkpt lat="49.404199" lon="12.863704"><ele>467</ele></trkpt>
   <trkpt lat="49.404159" lon="12.863269"><ele>467.5</ele></trkpt>
   <trkpt lat="49.40414" lon="12.863464"><ele>467.25</ele></trkpt>
   <trkpt lat="49.404068" lon="12.863883"><ele>466.75</ele></trkpt>
   <trkpt lat="49.403986" lon="12.864088"><ele>467</ele></trkpt>
   <trkpt lat="49.403714" lon="12.864523"><ele>468.5</ele></trkpt>
   <trkpt lat="49.403637" lon="12.864587"><ele>469</ele></trkpt>
   <trkpt lat="49.403355" lon="12.864714"><ele>468</ele></trkpt>
   <trkpt lat="49.40313" lon="12.864883"><ele>467.5</ele></trkpt>
   <trkpt lat="49.402979" lon="12.864967"><ele>468</ele></trkpt>
   <trkpt lat="49.402875" lon="12.86501"><ele>468.5</ele></trkpt>
   <trkpt lat="49.402655" lon="12.865004"><ele>469.25</ele></trkpt>
   <trkpt lat="49.402515" lon="12.865035"><ele>470</ele></trkpt>
   <trkpt lat="49.40238" lon="12.865101"><ele>471</ele></trkpt>
   <trkpt lat="49.401947" lon="12.865408"><ele>473.75</ele></trkpt>
   <trkpt lat="49.40176" lon="12.865551"><ele>474.75</ele></trkpt>
   <trkpt lat="49.401531" lon="12.865588"><ele>474.5</ele></trkpt>
   <trkpt lat="49.401374" lon="12.865666"><ele>474.5</ele></trkpt>
   <trkpt lat="49.401311" lon="12.865813"><ele>474.25</ele></trkpt>
   <trkpt lat="49.401324" lon="12.865974"><ele>475</ele></trkpt>
   <trkpt lat="49.401357" lon="12.866133"><ele>475.75</ele></trkpt>
   <trkpt lat="49.401379" lon="12.866284"><ele>476.5</ele></trkpt>
   <trkpt lat="49.401365" lon="12.866413"><ele>477.25</ele></trkpt>
   <trkpt lat="49.401324" lon="12.866498"><ele>479</ele></trkpt>
   <trkpt lat="49.401247" lon="12.866542"><ele>479.25</ele></trkpt>
   <trkpt lat="49.401171" lon="12.866567"><ele>479.25</ele></trkpt>
   <trkpt lat="49.401077" lon="12.86657"><ele>479.5</ele></trkpt>
   <trkpt lat="49.400934" lon="12.866473"><ele>481</ele></trkpt>
   <trkpt lat="49.400737" lon="12.866212"><ele>480.25</ele></trkpt>
   <trkpt lat="49.400643" lon="12.866162"><ele>480.5</ele></trkpt>
   <trkpt lat="49.400516" lon="12.866147"><ele>481</ele></trkpt>
   <trkpt lat="49.400351" lon="12.86619"><ele>481</ele></trkpt>
   <trkpt lat="49.400202" lon="12.866317"><ele>481</ele></trkpt>
   <trkpt lat="49.400047" lon="12.866416"><ele>479.75</ele></trkpt>
   <trkpt lat="49.399449" lon="12.866715"><ele>475.25</ele></trkpt>
   <trkpt lat="49.399369" lon="12.866712"><ele>474</ele></trkpt>
   <trkpt lat="49.399327" lon="12.866374"><ele>472</ele></trkpt>
   <trkpt lat="49.399215" lon="12.865924"><ele>471.5</ele></trkpt>
   <trkpt lat="49.398817" lon="12.864461"><ele>470.75</ele></trkpt>
   <trkpt lat="49.398697" lon="12.863884"><ele>470.25</ele></trkpt>
   <trkpt lat="49.398651" lon="12.863624"><ele>470.75</ele></trkpt>
   <trkpt lat="49.398682" lon="12.863309"><ele>471</ele></trkpt>
   <trkpt lat="49.398134" lon="12.863181"><ele>471</ele></trkpt>
   <trkpt lat="49.398301" lon="12.862439"><ele>472.75</ele></trkpt>
   <trkpt lat="49.397837" lon="12.861909"><ele>472.25</ele></trkpt>
   <trkpt lat="49.397701" lon="12.861651"><ele>472.25</ele></trkpt>
   <trkpt lat="49.397527" lon="12.861307"><ele>472.25</ele></trkpt>
   <trkpt lat="49.3973" lon="12.860965"><ele>472.5</ele></trkpt>
   <trkpt lat="49.397111" lon="12.860713"><ele>472.75</ele></trkpt>
   <trkpt lat="49.396928" lon="12.860493"><ele>472.75</ele></trkpt>
   <trkpt lat="49.396846" lon="12.860411"><ele>472.75</ele></trkpt>
   <trkpt lat="49.396704" lon="12.860341"><ele>472.75</ele></trkpt>
   <trkpt lat="49.396627" lon="12.860403"><ele>472.5</ele></trkpt>
   <trkpt lat="49.396487" lon="12.860704"><ele>471.75</ele></trkpt>
   <trkpt lat="49.396131" lon="12.86143"><ele>472</ele></trkpt>
   <trkpt lat="49.396084" lon="12.861524"><ele>472.5</ele></trkpt>
   <trkpt lat="49.39595" lon="12.861708"><ele>473.5</ele></trkpt>
   <trkpt lat="49.395864" lon="12.861843"><ele>474.5</ele></trkpt>
   <trkpt lat="49.395295" lon="12.863028"><ele>477.75</ele></trkpt>
   <trkpt lat="49.394718" lon="12.862409"><ele>477.75</ele></trkpt>
   <trkpt lat="49.394267" lon="12.861987"><ele>478</ele></trkpt>
   <trkpt lat="49.394171" lon="12.86224"><ele>476.75</ele></trkpt>
   <trkpt lat="49.394089" lon="12.86235"><ele>475.5</ele></trkpt>
   <trkpt lat="49.393892" lon="12.862545"><ele>474</ele></trkpt>
   <trkpt lat="49.393706" lon="12.862706"><ele>474.5</ele></trkpt>
   <trkpt lat="49.393661" lon="12.862753"><ele>474.75</ele></trkpt>
   <trkpt lat="49.393621" lon="12.862851"><ele>474.75</ele></trkpt>
   <trkpt lat="49.393599" lon="12.862955"><ele>475.25</ele></trkpt>
   <trkpt lat="49.393599" lon="12.863083"><ele>475.25</ele></trkpt>
   <trkpt lat="49.393622" lon="12.863232"><ele>475.5</ele></trkpt>
   <trkpt lat="49.393639" lon="12.863511"><ele>476.25</ele></trkpt>
   <trkpt lat="49.393636" lon="12.863669"><ele>476.25</ele></trkpt>
   <trkpt lat="49.393473" lon="12.864671"><ele>477.5</ele></trkpt>
   <trkpt lat="49.393412" lon="12.864919"><ele>478.5</ele></trkpt>
   <trkpt lat="49.393115" lon="12.865403"><ele>483</ele></trkpt>
   <trkpt lat="49.392959" lon="12.865585"><ele>484.75</ele></trkpt>
   <trkpt lat="49.392754" lon="12.865702"><ele>486</ele></trkpt>
   <trkpt lat="49.39246" lon="12.865779"><ele>487</ele></trkpt>
   <trkpt lat="49.392284" lon="12.865896"><ele>487</ele></trkpt>
   <trkpt lat="49.39196" lon="12.866164"><ele>488</ele></trkpt>
   <trkpt lat="49.391896" lon="12.866246"><ele>488.25</ele></trkpt>
   <trkpt lat="49.391194" lon="12.866968"><ele>490.75</ele></trkpt>
   <trkpt lat="49.390811" lon="12.867387"><ele>493.5</ele></trkpt>
   <trkpt lat="49.390175" lon="12.868271"><ele>492.5</ele></trkpt>
   <trkpt lat="49.389782" lon="12.868669"><ele>493.75</ele></trkpt>
   <trkpt lat="49.389338" lon="12.868773"><ele>492.25</ele></trkpt>
   <trkpt lat="49.389064" lon="12.869069"><ele>492.25</ele></trkpt>
   <trkpt lat="49.388898" lon="12.86946"><ele>493.25</ele></trkpt>
   <trkpt lat="49.388823" lon="12.869605"><ele>494.25</ele></trkpt>
   <trkpt lat="49.38871" lon="12.869704"><ele>494.5</ele></trkpt>
   <trkpt lat="49.388577" lon="12.869736"><ele>494.25</ele></trkpt>
   <trkpt lat="49.388258" lon="12.869599"><ele>493.75</ele></trkpt>
   <trkpt lat="49.387745" lon="12.86979"><ele>491.5</ele></trkpt>
   <trkpt lat="49.387413" lon="12.869842"><ele>491.75</ele></trkpt>
   <trkpt lat="49.387309" lon="12.869912"><ele>492.25</ele></trkpt>
   <trkpt lat="49.387182" lon="12.870117"><ele>493.25</ele></trkpt>
   <trkpt lat="49.387122" lon="12.870425"><ele>494.75</ele></trkpt>
   <trkpt lat="49.387018" lon="12.870751"><ele>496</ele></trkpt>
   <trkpt lat="49.386929" lon="12.870916"><ele>496.5</ele></trkpt>
   <trkpt lat="49.386764" lon="12.871096"><ele>497</ele></trkpt>
   <trkpt lat="49.386609" lon="12.871158"><ele>498</ele></trkpt>
   <trkpt lat="49.386106" lon="12.871171"><ele>499</ele></trkpt>
   <trkpt lat="49.385814" lon="12.871122"><ele>498.25</ele></trkpt>
   <trkpt lat="49.38547" lon="12.870869"><ele>498.75</ele></trkpt>
   <trkpt lat="49.385141" lon="12.87047"><ele>498</ele></trkpt>
   <trkpt lat="49.384717" lon="12.870003"><ele>500</ele></trkpt>
   <trkpt lat="49.384402" lon="12.869679"><ele>499.75</ele></trkpt>
   <trkpt lat="49.384204" lon="12.869574"><ele>499.5</ele></trkpt>
   <trkpt lat="49.38393" lon="12.869499"><ele>498.75</ele></trkpt>
   <trkpt lat="49.383559" lon="12.869469"><ele>498.25</ele></trkpt>
   <trkpt lat="49.382793" lon="12.869537"><ele>497.25</ele></trkpt>
   <trkpt lat="49.382737" lon="12.86966"><ele>498.5</ele></trkpt>
   <trkpt lat="49.38264" lon="12.870084"><ele>504</ele></trkpt>
   <trkpt lat="49.382564" lon="12.870386"><ele>504.25</ele></trkpt>
   <trkpt lat="49.381716" lon="12.872072"><ele>530</ele></trkpt>
   <trkpt lat="49.381535" lon="12.872971"><ele>541.75</ele></trkpt>
   <trkpt lat="49.381249" lon="12.872946"><ele>542.25</ele></trkpt>
   <trkpt lat="49.380849" lon="12.872844"><ele>542.5</ele></trkpt>
   <trkpt lat="49.380309" lon="12.872606"><ele>541</ele></trkpt>
   <trkpt lat="49.380082" lon="12.872541"><ele>541</ele></trkpt>
   <trkpt lat="49.379567" lon="12.87247"><ele>541</ele></trkpt>
   <trkpt lat="49.379361" lon="12.872472"><ele>541.5</ele></trkpt>
   <trkpt lat="49.379203" lon="12.872509"><ele>542</ele></trkpt>
   <trkpt lat="49.378918" lon="12.872531"><ele>542.25</ele></trkpt>
   <trkpt lat="49.378691" lon="12.872474"><ele>541.5</ele></trkpt>
   <trkpt lat="49.378446" lon="12.872359"><ele>540</ele></trkpt>
   <trkpt lat="49.378179" lon="12.872208"><ele>538.75</ele></trkpt>
   <trkpt lat="49.377941" lon="12.872049"><ele>537.75</ele></trkpt>
   <trkpt lat="49.377408" lon="12.871725"><ele>537.75</ele></trkpt>
   <trkpt lat="49.377053" lon="12.871386"><ele>536.5</ele></trkpt>
   <trkpt lat="49.376883" lon="12.871172"><ele>535.5</ele></trkpt>
   <trkpt lat="49.376735" lon="12.87102"><ele>535</ele></trkpt>
   <trkpt lat="49.376526" lon="12.870713"><ele>533.5</ele></trkpt>
   <trkpt lat="49.376463" lon="12.870573"><ele>532.75</ele></trkpt>
   <trkpt lat="49.376352" lon="12.870434"><ele>532.25</ele></trkpt>
   <trkpt lat="49.375894" lon="12.87007"><ele>531.25</ele></trkpt>
   <trkpt lat="49.375573" lon="12.869869"><ele>530.75</ele></trkpt>
   <trkpt lat="49.375235" lon="12.869717"><ele>530.75</ele></trkpt>
   <trkpt lat="49.375103" lon="12.869685"><ele>530.5</ele></trkpt>
   <trkpt lat="49.373999" lon="12.869566"><ele>534.25</ele></trkpt>
   <trkpt lat="49.373661" lon="12.869547"><ele>534.5</ele></trkpt>
   <trkpt lat="49.373404" lon="12.869581"><ele>535.5</ele></trkpt>
   <trkpt lat="49.372893" lon="12.869681"><ele>537</ele></trkpt>
   <trkpt lat="49.372321" lon="12.869903"><ele>538.5</ele></trkpt>
   <trkpt lat="49.372243" lon="12.869961"><ele>538.75</ele></trkpt>
   <trkpt lat="49.372061" lon="12.86971"><ele>536.75</ele></trkpt>
   <trkpt lat="49.371776" lon="12.869136"><ele>533</ele></trkpt>
   <trkpt lat="49.371625" lon="12.868792"><ele>530.5</ele></trkpt>
   <trkpt lat="49.371444" lon="12.868934"><ele>530.5</ele></trkpt>
   <trkpt lat="49.371415" lon="12.869109"><ele>531.5</ele></trkpt>
   <trkpt lat="49.371359" lon="12.869314"><ele>532.25</ele></trkpt>
   <trkpt lat="49.371279" lon="12.869512"><ele>532.5</ele></trkpt>
   <trkpt lat="49.371203" lon="12.869651"><ele>532.75</ele></trkpt>
   <trkpt lat="49.371117" lon="12.869798"><ele>533.25</ele></trkpt>
   <trkpt lat="49.370754" lon="12.870374"><ele>534.75</ele></trkpt>
   <trkpt lat="49.370178" lon="12.871354"><ele>534.25</ele></trkpt>
   <trkpt lat="49.370047" lon="12.871614"><ele>534.25</ele></trkpt>
   <trkpt lat="49.369766" lon="12.872296"><ele>536</ele></trkpt>
   <trkpt lat="49.369329" lon="12.873735"><ele>537.75</ele></trkpt>
   <trkpt lat="49.369093" lon="12.874635"><ele>537</ele></trkpt>
   <trkpt lat="49.368909" lon="12.875168"><ele>537.5</ele></trkpt>
   <trkpt lat="49.368497" lon="12.876361"><ele>536.5</ele></trkpt>
   <trkpt lat="49.368421" lon="12.876582"><ele>536</ele></trkpt>
   <trkpt lat="49.368119" lon="12.87731"><ele>535</ele></trkpt>
   <trkpt lat="49.367729" lon="12.878126"><ele>533.5</ele></trkpt>
   <trkpt lat="49.367571" lon="12.878541"><ele>532.5</ele></trkpt>
   <trkpt lat="49.367439" lon="12.878998"><ele>532</ele></trkpt>
   <trkpt lat="49.367284" lon="12.88016"><ele>530.75</ele></trkpt>
   <trkpt lat="49.367203" lon="12.880567"><ele>529.75</ele></trkpt>
   <trkpt lat="49.367039" lon="12.881102"><ele>533.5</ele></trkpt>
   <trkpt lat="49.366887" lon="12.881457"><ele>534.25</ele></trkpt>
   <trkpt lat="49.365852" lon="12.883068"><ele>533</ele></trkpt>
   <trkpt lat="49.365792" lon="12.883143"><ele>532.75</ele></trkpt>
   <trkpt lat="49.365443" lon="12.883506"><ele>531.75</ele></trkpt>
   <trkpt lat="49.365244" lon="12.883626"><ele>530.75</ele></trkpt>
   <trkpt lat="49.364699" lon="12.883764"><ele>529</ele></trkpt>
   <trkpt lat="49.363674" lon="12.883979"><ele>527</ele></trkpt>
   <trkpt lat="49.362718" lon="12.884239"><ele>521.75</ele></trkpt>
   <trkpt lat="49.362571" lon="12.88429"><ele>520.5</ele></trkpt>
   <trkpt lat="49.362509" lon="12.884323"><ele>520</ele></trkpt>
   <trkpt lat="49.36241" lon="12.884377"><ele>519.5</ele></trkpt>
   <trkpt lat="49.362325" lon="12.884453"><ele>519.25</ele></trkpt>
   <trkpt lat="49.362216" lon="12.884593"><ele>519.25</ele></trkpt>
   <trkpt lat="49.362067" lon="12.884833"><ele>519.5</ele></trkpt>
   <trkpt lat="49.361413" lon="12.886045"><ele>521.5</ele></trkpt>
   <trkpt lat="49.361304" lon="12.886107"><ele>521.5</ele></trkpt>
   <trkpt lat="49.360959" lon="12.88616"><ele>520</ele></trkpt>
   <trkpt lat="49.360093" lon="12.886438"><ele>519.5</ele></trkpt>
   <trkpt lat="49.359817" lon="12.886551"><ele>520</ele></trkpt>
   <trkpt lat="49.359481" lon="12.886738"><ele>520.5</ele></trkpt>
   <trkpt lat="49.359344" lon="12.88686"><ele>520.25</ele></trkpt>
   <trkpt lat="49.359243" lon="12.88701"><ele>520</ele></trkpt>
   <trkpt lat="49.359145" lon="12.887219"><ele>520.5</ele></trkpt>
   <trkpt lat="49.358958" lon="12.887423"><ele>519.25</ele></trkpt>
   <trkpt lat="49.358432" lon="12.888205"><ele>513.25</ele></trkpt>
   <trkpt lat="49.357882" lon="12.888893"><ele>508.5</ele></trkpt>
   <trkpt lat="49.357402" lon="12.889682"><ele>503.25</ele></trkpt>
   <trkpt lat="49.357216" lon="12.890028"><ele>501.75</ele></trkpt>
   <trkpt lat="49.356958" lon="12.890423"><ele>500.5</ele></trkpt>
   <trkpt lat="49.356746" lon="12.890648"><ele>499.75</ele></trkpt>
   <trkpt lat="49.356328" lon="12.89095"><ele>498.5</ele></trkpt>
   <trkpt lat="49.356199" lon="12.891116"><ele>498.5</ele></trkpt>
   <trkpt lat="49.356088" lon="12.891414"><ele>500</ele></trkpt>
   <trkpt lat="49.355964" lon="12.891868"><ele>501.5</ele></trkpt>
   <trkpt lat="49.355899" lon="12.892017"><ele>502.25</ele></trkpt>
   <trkpt lat="49.355689" lon="12.891902"><ele>501.75</ele></trkpt>
   <trkpt lat="49.355233" lon="12.891576"><ele>501.25</ele></trkpt>
   <trkpt lat="49.354833" lon="12.891371"><ele>500.75</ele></trkpt>
   <trkpt lat="49.354572" lon="12.891187"><ele>499.75</ele></trkpt>
   <trkpt lat="49.354477" lon="12.891085"><ele>499.75</ele></trkpt>
   <trkpt lat="49.354402" lon="12.890952"><ele>499.5</ele></trkpt>
   <trkpt lat="49.354202" lon="12.890418"><ele>498.25</ele></trkpt>
   <trkpt lat="49.35408" lon="12.890217"><ele>497.75</ele></trkpt>
   <trkpt lat="49.353883" lon="12.890031"><ele>498</ele></trkpt>
   <trkpt lat="49.353607" lon="12.889871"><ele>497.5</ele></trkpt>
   <trkpt lat="49.353373" lon="12.889776"><ele>497.25</ele></trkpt>
   <trkpt lat="49.353134" lon="12.889696"><ele>497.5</ele></trkpt>
   <trkpt lat="49.352323" lon="12.889279"><ele>497</ele></trkpt>
   <trkpt lat="49.351627" lon="12.888698"><ele>496.25</ele></trkpt>
   <trkpt lat="49.351116" lon="12.887966"><ele>494.5</ele></trkpt>
   <trkpt lat="49.350754" lon="12.887339"><ele>493</ele></trkpt>
   <trkpt lat="49.350634" lon="12.887116"><ele>492.25</ele></trkpt>
   <trkpt lat="49.350512" lon="12.886833"><ele>491.25</ele></trkpt>
   <trkpt lat="49.349891" lon="12.88596"><ele>487.75</ele></trkpt>
   <trkpt lat="49.349564" lon="12.884659"><ele>481</ele></trkpt>
   <trkpt lat="49.349286" lon="12.883533"><ele>474.5</ele></trkpt>
   <trkpt lat="49.349198" lon="12.883364"><ele>473.25</ele></trkpt>
   <trkpt lat="49.348427" lon="12.882925"><ele>469.5</ele></trkpt>
   <trkpt lat="49.348314" lon="12.882881"><ele>469.25</ele></trkpt>
   <trkpt lat="49.348198" lon="12.882851"><ele>468.75</ele></trkpt>
   <trkpt lat="49.347979" lon="12.882836"><ele>467.75</ele></trkpt>
   <trkpt lat="49.347798" lon="12.882839"><ele>467.25</ele></trkpt>
   <trkpt lat="49.347595" lon="12.882864"><ele>466.75</ele></trkpt>
   <trkpt lat="49.347369" lon="12.882932"><ele>466.25</ele></trkpt>
   <trkpt lat="49.347047" lon="12.883095"><ele>466</ele></trkpt>
   <trkpt lat="49.346817" lon="12.883201"><ele>465.75</ele></trkpt>
   <trkpt lat="49.346576" lon="12.883294"><ele>465.25</ele></trkpt>
   <trkpt lat="49.346434" lon="12.883292"><ele>464.75</ele></trkpt>
   <trkpt lat="49.346141" lon="12.883261"><ele>459</ele></trkpt>
   <trkpt lat="49.34544" lon="12.883187"><ele>459</ele></trkpt>
   <trkpt lat="49.34524" lon="12.883176"><ele>458</ele></trkpt>
   <trkpt lat="49.345147" lon="12.88322"><ele>457.75</ele></trkpt>
   <trkpt lat="49.344864" lon="12.883428"><ele>457.25</ele></trkpt>
   <trkpt lat="49.344137" lon="12.883925"><ele>455</ele></trkpt>
   <trkpt lat="49.34388" lon="12.883981"><ele>454.25</ele></trkpt>
   <trkpt lat="49.343355" lon="12.884066"><ele>451.75</ele></trkpt>
   <trkpt lat="49.343083" lon="12.884167"><ele>451</ele></trkpt>
   <trkpt lat="49.342979" lon="12.884274"><ele>450.75</ele></trkpt>
   <trkpt lat="49.342891" lon="12.884363"><ele>450.5</ele></trkpt>
   <trkpt lat="49.342414" lon="12.885353"><ele>451.5</ele></trkpt>
   <trkpt lat="49.342192" lon="12.885692"><ele>451.25</ele></trkpt>
   <trkpt lat="49.341389" lon="12.886572"><ele>448.5</ele></trkpt>
   <trkpt lat="49.341007" lon="12.886862"><ele>446.75</ele></trkpt>
   <trkpt lat="49.340521" lon="12.887251"><ele>444.75</ele></trkpt>
   <trkpt lat="49.340259" lon="12.887853"><ele>445</ele></trkpt>
   <trkpt lat="49.340078" lon="12.88818"><ele>445</ele></trkpt>
   <trkpt lat="49.339801" lon="12.888426"><ele>444.5</ele></trkpt>
   <trkpt lat="49.339401" lon="12.888761"><ele>444.25</ele></trkpt>
   <trkpt lat="49.339172" lon="12.888807"><ele>443.25</ele></trkpt>
   <trkpt lat="49.338688" lon="12.888771"><ele>441.75</ele></trkpt>
   <trkpt lat="49.338282" lon="12.888752"><ele>440.25</ele></trkpt>
   <trkpt lat="49.33753" lon="12.88876"><ele>439.5</ele></trkpt>
   <trkpt lat="49.337161" lon="12.888668"><ele>438.25</ele></trkpt>
   <trkpt lat="49.336705" lon="12.888572"><ele>437.75</ele></trkpt>
   <trkpt lat="49.336186" lon="12.88843"><ele>436.5</ele></trkpt>
   <trkpt lat="49.335848" lon="12.888438"><ele>436.25</ele></trkpt>
   <trkpt lat="49.335229" lon="12.888748"><ele>435.25</ele></trkpt>
   <trkpt lat="49.334978" lon="12.888931"><ele>435.25</ele></trkpt>
   <trkpt lat="49.334739" lon="12.889089"><ele>435.5</ele></trkpt>
   <trkpt lat="49.334448" lon="12.889421"><ele>435.75</ele></trkpt>
   <trkpt lat="49.334221" lon="12.889755"><ele>436.25</ele></trkpt>
   <trkpt lat="49.334073" lon="12.890028"><ele>436</ele></trkpt>
   <trkpt lat="49.333683" lon="12.890785"><ele>438</ele></trkpt>
   <trkpt lat="49.333268" lon="12.89162"><ele>438.25</ele></trkpt>
   <trkpt lat="49.333" lon="12.89215"><ele>439.5</ele></trkpt>
   <trkpt lat="49.332593" lon="12.893003"><ele>441.75</ele></trkpt>
   <trkpt lat="49.332545" lon="12.893186"><ele>441.75</ele></trkpt>
   <trkpt lat="49.332509" lon="12.893448"><ele>442</ele></trkpt>
   <trkpt lat="49.332482" lon="12.893759"><ele>441.25</ele></trkpt>
   <trkpt lat="49.332171" lon="12.893728"><ele>441.5</ele></trkpt>
   <trkpt lat="49.331917" lon="12.893691"><ele>441.5</ele></trkpt>
   <trkpt lat="49.330934" lon="12.893424"><ele>444.25</ele></trkpt>
   <trkpt lat="49.330305" lon="12.893279"><ele>445</ele></trkpt>
   <trkpt lat="49.329995" lon="12.893159"><ele>444.5</ele></trkpt>
   <trkpt lat="49.328949" lon="12.89266"><ele>440</ele></trkpt>
   <trkpt lat="49.328766" lon="12.892593"><ele>439.25</ele></trkpt>
   <trkpt lat="49.328461" lon="12.892541"><ele>437</ele></trkpt>
   <trkpt lat="49.327524" lon="12.89237"><ele>432.5</ele></trkpt>
   <trkpt lat="49.327055" lon="12.892302"><ele>433.25</ele></trkpt>
   <trkpt lat="49.32677" lon="12.892281"><ele>432.5</ele></trkpt>
   <trkpt lat="49.326387" lon="12.892251"><ele>431</ele></trkpt>
   <trkpt lat="49.325886" lon="12.892154"><ele>426</ele></trkpt>
   <trkpt lat="49.325583" lon="12.892085"><ele>422.75</ele></trkpt>
   <trkpt lat="49.325357" lon="12.892072"><ele>420.5</ele></trkpt>
   <trkpt lat="49.324951" lon="12.892114"><ele>418.25</ele></trkpt>
   <trkpt lat="49.324524" lon="12.892128"><ele>417</ele></trkpt>
   <trkpt lat="49.324149" lon="12.892083"><ele>416.25</ele></trkpt>
   <trkpt lat="49.323817" lon="12.891873"><ele>416.5</ele></trkpt>
   <trkpt lat="49.323631" lon="12.891442"><ele>416.75</ele></trkpt>
   <trkpt lat="49.323585" lon="12.891306"><ele>416.75</ele></trkpt>
   <trkpt lat="49.32327" lon="12.889995"><ele>419</ele></trkpt>
   <trkpt lat="49.322932" lon="12.888884"><ele>422.25</ele></trkpt>
   <trkpt lat="49.322799" lon="12.888421"><ele>422.75</ele></trkpt>
   <trkpt lat="49.322493" lon="12.887612"><ele>426</ele></trkpt>
   <trkpt lat="49.321041" lon="12.885669"><ele>428.75</ele></trkpt>
   <trkpt lat="49.320307" lon="12.884346"><ele>426</ele></trkpt>
   <trkpt lat="49.320105" lon="12.88378"><ele>425.75</ele></trkpt>
   <trkpt lat="49.319973" lon="12.88331"><ele>426</ele></trkpt>
   <trkpt lat="49.319805" lon="12.882867"><ele>426.5</ele></trkpt>
   <trkpt lat="49.319604" lon="12.882482"><ele>426</ele></trkpt>
   <trkpt lat="49.319254" lon="12.882009"><ele>425.25</ele></trkpt>
   <trkpt lat="49.318946" lon="12.88167"><ele>424.25</ele></trkpt>
   <trkpt lat="49.317513" lon="12.880405"><ele>419.5</ele></trkpt>
   <trkpt lat="49.316203" lon="12.879234"><ele>420</ele></trkpt>
   <trkpt lat="49.315594" lon="12.87869"><ele>418.75</ele></trkpt>
   <trkpt lat="49.314445" lon="12.877636"><ele>415</ele></trkpt>
   <trkpt lat="49.314112" lon="12.877284"><ele>413.25</ele></trkpt>
   <trkpt lat="49.313729" lon="12.876879"><ele>411.5</ele></trkpt>
   <trkpt lat="49.313169" lon="12.876162"><ele>409.5</ele></trkpt>
   <trkpt lat="49.313098" lon="12.876051"><ele>409.25</ele></trkpt>
   <trkpt lat="49.312977" lon="12.875829"><ele>407.75</ele></trkpt>
   <trkpt lat="49.31283" lon="12.87536"><ele>408.5</ele></trkpt>
   <trkpt lat="49.3128" lon="12.874959"><ele>409</ele></trkpt>
   <trkpt lat="49.312846" lon="12.87454"><ele>407.75</ele></trkpt>
   <trkpt lat="49.312966" lon="12.874144"><ele>408.25</ele></trkpt>
   <trkpt lat="49.313164" lon="12.873798"><ele>409</ele></trkpt>
   <trkpt lat="49.313481" lon="12.873392"><ele>409.25</ele></trkpt>
   <trkpt lat="49.314044" lon="12.872698"><ele>410</ele></trkpt>
   <trkpt lat="49.315252" lon="12.871238"><ele>410.5</ele></trkpt>
   <trkpt lat="49.31593" lon="12.87042"><ele>409.25</ele></trkpt>
   <trkpt lat="49.316704" lon="12.869509"><ele>409.5</ele></trkpt>
   <trkpt lat="49.317677" lon="12.86829"><ele>411</ele></trkpt>
   <trkpt lat="49.317799" lon="12.868115"><ele>411.25</ele></trkpt>
   <trkpt lat="49.317868" lon="12.867999"><ele>412.5</ele></trkpt>
   <trkpt lat="49.3179" lon="12.867909"><ele>412.5</ele></trkpt>
   <trkpt lat="49.317916" lon="12.867829"><ele>412</ele></trkpt>
   <trkpt lat="49.317925" lon="12.867727"><ele>411.25</ele></trkpt>
   <trkpt lat="49.317916" lon="12.867605"><ele>410.5</ele></trkpt>
   <trkpt lat="49.317895" lon="12.867509"><ele>409.75</ele></trkpt>
   <trkpt lat="49.317824" lon="12.867337"><ele>409.25</ele></trkpt>
   <trkpt lat="49.317673" lon="12.867154"><ele>409</ele></trkpt>
   <trkpt lat="49.317431" lon="12.866911"><ele>408.5</ele></trkpt>
   <trkpt lat="49.31731" lon="12.866802"><ele>408.5</ele></trkpt>
   <trkpt lat="49.317255" lon="12.866763"><ele>409.5</ele></trkpt>
   <trkpt lat="49.317046" lon="12.866653"><ele>410.75</ele></trkpt>
   <trkpt lat="49.316875" lon="12.866609"><ele>411</ele></trkpt>
   <trkpt lat="49.316693" lon="12.866591"><ele>411</ele></trkpt>
   <trkpt lat="49.316608" lon="12.86659"><ele>411.25</ele></trkpt>
   <trkpt lat="49.316369" lon="12.866643"><ele>411</ele></trkpt>
   <trkpt lat="49.31618" lon="12.866742"><ele>411</ele></trkpt>
   <trkpt lat="49.315105" lon="12.867465"><ele>411</ele></trkpt>
   <trkpt lat="49.314304" lon="12.867983"><ele>409</ele></trkpt>
   <trkpt lat="49.314234" lon="12.86802"><ele>409.25</ele></trkpt>
   <trkpt lat="49.314126" lon="12.868059"><ele>409.75</ele></trkpt>
   <trkpt lat="49.313888" lon="12.868121"><ele>409</ele></trkpt>
   <trkpt lat="49.313633" lon="12.868141"><ele>408.75</ele></trkpt>
   <trkpt lat="49.313509" lon="12.868129"><ele>408.75</ele></trkpt>
   <trkpt lat="49.31338" lon="12.868101"><ele>409.25</ele></trkpt>
   <trkpt lat="49.313198" lon="12.868043"><ele>409.5</ele></trkpt>
   <trkpt lat="49.313062" lon="12.867967"><ele>409.5</ele></trkpt>
   <trkpt lat="49.312912" lon="12.867844"><ele>410</ele></trkpt>
   <trkpt lat="49.312784" lon="12.867699"><ele>411.5</ele></trkpt>
   <trkpt lat="49.312629" lon="12.86746"><ele>413.25</ele></trkpt>
   <trkpt lat="49.312493" lon="12.86717"><ele>416.25</ele></trkpt>
   <trkpt lat="49.312032" lon="12.865797"><ele>423.25</ele></trkpt>
   <trkpt lat="49.31199" lon="12.865649"><ele>423</ele></trkpt>
   <trkpt lat="49.311901" lon="12.865324"><ele>423.25</ele></trkpt>
   <trkpt lat="49.31175" lon="12.86467"><ele>423</ele></trkpt>
   <trkpt lat="49.311622" lon="12.864112"><ele>422.25</ele></trkpt>
   <trkpt lat="49.311476" lon="12.863335"><ele>421</ele></trkpt>
   <trkpt lat="49.31117" lon="12.861688"><ele>415</ele></trkpt>
   <trkpt lat="49.311037" lon="12.861107"><ele>413.75</ele></trkpt>
   <trkpt lat="49.310852" lon="12.860421"><ele>409.5</ele></trkpt>
   <trkpt lat="49.310717" lon="12.860042"><ele>408.5</ele></trkpt>
   <trkpt lat="49.310313" lon="12.859142"><ele>404.5</ele></trkpt>
   <trkpt lat="49.310125" lon="12.858839"><ele>403.25</ele></trkpt>
   <trkpt lat="49.309868" lon="12.858462"><ele>400.75</ele></trkpt>
   <trkpt lat="49.310015" lon="12.858331"><ele>398.75</ele></trkpt>
   <trkpt lat="49.310126" lon="12.858257"><ele>398</ele></trkpt>
   <trkpt lat="49.310226" lon="12.858114"><ele>397</ele></trkpt>
   <trkpt lat="49.310278" lon="12.857884"><ele>396.25</ele></trkpt>
   <trkpt lat="49.310293" lon="12.857785"><ele>395.75</ele></trkpt>
   <trkpt lat="49.310318" lon="12.857618"><ele>395.75</ele></trkpt>
   <trkpt lat="49.310332" lon="12.857459"><ele>396</ele></trkpt>
   <trkpt lat="49.310297" lon="12.857175"><ele>396.75</ele></trkpt>
   <trkpt lat="49.310217" lon="12.856796"><ele>396</ele></trkpt>
   <trkpt lat="49.309826" lon="12.855848"><ele>396</ele></trkpt>
   <trkpt lat="49.309747" lon="12.854925"><ele>396</ele></trkpt>
   <trkpt lat="49.309442" lon="12.85332"><ele>395.75</ele></trkpt>
   <trkpt lat="49.309398" lon="12.85287"><ele>395.5</ele></trkpt>
   <trkpt lat="49.309497" lon="12.852382"><ele>395.5</ele></trkpt>
   <trkpt lat="49.30951" lon="12.852281"><ele>395.25</ele></trkpt>
   <trkpt lat="49.309509" lon="12.852199"><ele>395.25</ele></trkpt>
   <trkpt lat="49.309498" lon="12.852098"><ele>395.5</ele></trkpt>
   <trkpt lat="49.309475" lon="12.851997"><ele>395.75</ele></trkpt>
   <trkpt lat="49.3094" lon="12.851765"><ele>396.75</ele></trkpt>
   <trkpt lat="49.309254" lon="12.851422"><ele>395.75</ele></trkpt>
   <trkpt lat="49.309101" lon="12.851065"><ele>395.75</ele></trkpt>
   <trkpt lat="49.308994" lon="12.850642"><ele>395.5</ele></trkpt>
   <trkpt lat="49.308979" lon="12.850007"><ele>395</ele></trkpt>
   <trkpt lat="49.308823" lon="12.84918"><ele>395</ele></trkpt>
   <trkpt lat="49.30874" lon="12.848915"><ele>395.5</ele></trkpt>
   <trkpt lat="49.308426" lon="12.848168"><ele>395.5</ele></trkpt>
   <trkpt lat="49.308351" lon="12.847705"><ele>395.5</ele></trkpt>
   <trkpt lat="49.30835" lon="12.847256"><ele>395</ele></trkpt>
   <trkpt lat="49.308379" lon="12.846999"><ele>396.5</ele></trkpt>
   <trkpt lat="49.308116" lon="12.846933"><ele>396.25</ele></trkpt>
   <trkpt lat="49.308053" lon="12.846885"><ele>396.25</ele></trkpt>
   <trkpt lat="49.30802" lon="12.846824"><ele>396.75</ele></trkpt>
   <trkpt lat="49.30795" lon="12.846659"><ele>397.75</ele></trkpt>
   <trkpt lat="49.307518" lon="12.846351"><ele>399</ele></trkpt>
   <trkpt lat="49.307186" lon="12.845999"><ele>399</ele></trkpt>
   <trkpt lat="49.30691" lon="12.845668"><ele>396.75</ele></trkpt>
   <trkpt lat="49.306835" lon="12.845603"><ele>396.75</ele></trkpt>
   <trkpt lat="49.306746" lon="12.845444"><ele>396.5</ele></trkpt>
   <trkpt lat="49.306685" lon="12.84532"><ele>396</ele></trkpt>
   <trkpt lat="49.30683" lon="12.845178"><ele>398.25</ele></trkpt>
   <trkpt lat="49.307062" lon="12.844941"><ele>401.75</ele></trkpt>
   <trkpt lat="49.307681" lon="12.844372"><ele>409.5</ele></trkpt>
   <trkpt lat="49.307765" lon="12.844341"><ele>410.25</ele></trkpt>
   <trkpt lat="49.30787" lon="12.8443"><ele>411</ele></trkpt>
   <trkpt lat="49.307972" lon="12.844258"><ele>411.5</ele></trkpt>
   <trkpt lat="49.308042" lon="12.844267"><ele>412.25</ele></trkpt>
   <trkpt lat="49.308173" lon="12.844285"><ele>412.5</ele></trkpt>
   <trkpt lat="49.308484" lon="12.844331"><ele>412.5</ele></trkpt>
   <trkpt lat="49.30866" lon="12.844346"><ele>412.5</ele></trkpt>
   <trkpt lat="49.308938" lon="12.844357"><ele>412.5</ele></trkpt>
   <trkpt lat="49.309634" lon="12.844271"><ele>412</ele></trkpt>
   <trkpt lat="49.30969" lon="12.844255"><ele>412</ele></trkpt>
   <trkpt lat="49.309907" lon="12.844192"><ele>412</ele></trkpt>
   <trkpt lat="49.310079" lon="12.844151"><ele>410.25</ele></trkpt>
   <trkpt lat="49.310105" lon="12.844127"><ele>409.75</ele></trkpt>
   <trkpt lat="49.310127" lon="12.844084"><ele>409.25</ele></trkpt>
   <trkpt lat="49.310103" lon="12.844052"><ele>409.75</ele></trkpt>
   <trkpt lat="49.310085" lon="12.843998"><ele>410</ele></trkpt>
   <trkpt lat="49.310077" lon="12.843902"><ele>410</ele></trkpt>
   <trkpt lat="49.310081" lon="12.843836"><ele>409.75</ele></trkpt>
   <trkpt lat="49.310084" lon="12.84372"><ele>409.5</ele></trkpt>
   <trkpt lat="49.310074" lon="12.843614"><ele>409.25</ele></trkpt>
   <trkpt lat="49.310058" lon="12.843561"><ele>408.5</ele></trkpt>
   <trkpt lat="49.310035" lon="12.843517"><ele>408</ele></trkpt>
   <trkpt lat="49.309842" lon="12.84325"><ele>405.5</ele></trkpt>
   <trkpt lat="49.309816" lon="12.843206"><ele>405.5</ele></trkpt>
   <trkpt lat="49.3098" lon="12.843162"><ele>405.25</ele></trkpt>
   <trkpt lat="49.309782" lon="12.843111"><ele>405</ele></trkpt>
   <trkpt lat="49.309768" lon="12.843044"><ele>405</ele></trkpt>
   <trkpt lat="49.309658" lon="12.841803"><ele>403.75</ele></trkpt>
   <trkpt lat="49.309621" lon="12.841129"><ele>403.25</ele></trkpt>
   <trkpt lat="49.309612" lon="12.841005"><ele>403.5</ele></trkpt>
   <trkpt lat="49.309596" lon="12.840797"><ele>404</ele></trkpt>
   <trkpt lat="49.309479" lon="12.83926"><ele>404</ele></trkpt>
   <trkpt lat="49.309456" lon="12.838969"><ele>404</ele></trkpt>
   <trkpt lat="49.309458" lon="12.838968"><ele>404.25</ele></trkpt>
  </trkseg>
 </trk>
</gpx>