<?xml version="1.0" encoding="UTF-8"?>
<!-- track-length = 28451 filtered ascend = 14 plain-ascend = -18 cost=32526 energy=0.1kwh time=1h 18m 47s -->
<gpx
 xmlns="http://www.topografix.com/GPX/1/1"
 xmlns:xsi="http://www.w3.org/2001/XMLSchema-instance"
 xsi:schemaLocation="http://www.topografix.com/GPX/1/1 http://www.topografix.com/GPX/1/1/gpx.xsd"
 version="1.1"
 creator="bikerouter.de 2026.25">
 <wpt lat="48.802678" lon="16.803742"><name>Lednice Castle</name></wpt>
 <wpt lat="48.804355" lon="16.832294"><name>Janův Castle</name></wpt>
 <wpt lat="48.760256" lon="16.876097"><name>Břeclav Castle</name></wpt>
 <trk>
  <name>Velké Pavlovice - Břeclav - 28,5 km, elev. gain 14 m</name>
  <link href="https://bikerouter.de/#map=12/48.8313/16.8376/standard&amp;lonlats=16.823091,48.907791;16.8042,48.802571;16.804522,48.801457;16.832289,48.804358;16.876097,48.760256;16.878286,48.760215;16.880904,48.759235;16.890967,48.754898;16.89237,48.754569&amp;pois=16.803742,48.802678,Lednice+Castle;16.832294,48.804355,Jan%C5%AFv+Castle;16.876097,48.760256,B%C5%99eclav+Castle&amp;profile=trekking">
   <text>bikerouter.de</text>
  </link>
  <trkseg>
   <trkpt lat="48.907786" lon="16.823087"><ele>181.75</ele></trkpt>
   <trkpt lat="48.907849" lon="16.822873"><ele>181.25</ele></trkpt>
   <trkpt lat="48.907928" lon="16.822607"><ele>180</ele></trkpt>
   <trkpt lat="48.907937" lon="16.822412"><ele>178.5</ele></trkpt>
   <trkpt lat="48.907898" lon="16.822087"><ele>175.75</ele></trkpt>
   <trkpt lat="48.907808" lon="16.821861"><ele>174.5</ele></trkpt>
   <trkpt lat="48.907672" lon="16.821679"><ele>173.5</ele></trkpt>
   <trkpt lat="48.907473" lon="16.821462"><ele>172</ele></trkpt>
   <trkpt lat="48.907431" lon="16.821391"><ele>172</ele></trkpt>
   <trkpt lat="48.907369" lon="16.821311"><ele>171.75</ele></trkpt>
   <trkpt lat="48.907295" lon="16.821233"><ele>171.75</ele></trkpt>
   <trkpt lat="48.907134" lon="16.821319"><ele>171.5</ele></trkpt>
   <trkpt lat="48.907054" lon="16.821341"><ele>171</ele></trkpt>
   <trkpt lat="48.906806" lon="16.821405"><ele>170</ele></trkpt>
   <trkpt lat="48.906545" lon="16.8215"><ele>169.25</ele></trkpt>
   <trkpt lat="48.906302" lon="16.82161"><ele>169.25</ele></trkpt>
   <trkpt lat="48.905788" lon="16.821905"><ele>169.5</ele></trkpt>
   <trkpt lat="48.905305" lon="16.822168"><ele>169.75</ele></trkpt>
   <trkpt lat="48.905049" lon="16.822269"><ele>169.5</ele></trkpt>
   <trkpt lat="48.904931" lon="16.822302"><ele>169.75</ele></trkpt>
   <trkpt lat="48.904649" lon="16.822332"><ele>169.25</ele></trkpt>
   <trkpt lat="48.904186" lon="16.822329"><ele>168.25</ele></trkpt>
   <trkpt lat="48.903744" lon="16.822344"><ele>168.75</ele></trkpt>
   <trkpt lat="48.902733" lon="16.822334"><ele>169</ele></trkpt>
   <trkpt lat="48.902457" lon="16.822318"><ele>169</ele></trkpt>
   <trkpt lat="48.902022" lon="16.822238"><ele>169</ele></trkpt>
   <trkpt lat="48.901781" lon="16.822123"><ele>168.5</ele></trkpt>
   <trkpt lat="48.901629" lon="16.822081"><ele>168.25</ele></trkpt>
   <trkpt lat="48.900744" lon="16.821902"><ele>167.75</ele></trkpt>
   <trkpt lat="48.900714" lon="16.821623"><ele>167.5</ele></trkpt>
   <trkpt lat="48.900704" lon="16.821447"><ele>167.75</ele></trkpt>
   <trkpt lat="48.900705" lon="16.821343"><ele>167.75</ele></trkpt>
   <trkpt lat="48.900583" lon="16.821344"><ele>167.75</ele></trkpt>
   <trkpt lat="48.900541" lon="16.821302"><ele>167.5</ele></trkpt>
   <trkpt lat="48.898409" lon="16.82152"><ele>166.25</ele></trkpt>
   <trkpt lat="48.898316" lon="16.821559"><ele>166.5</ele></trkpt>
   <trkpt lat="48.898296" lon="16.821595"><ele>166.75</ele></trkpt>
   <trkpt lat="48.898289" lon="16.821782"><ele>167</ele></trkpt>
   <trkpt lat="48.898294" lon="16.822309"><ele>167</ele></trkpt>
   <trkpt lat="48.898287" lon="16.822344"><ele>167</ele></trkpt>
   <trkpt lat="48.898264" lon="16.822362"><ele>167</ele></trkpt>
   <trkpt lat="48.897506" lon="16.822458"><ele>167.75</ele></trkpt>
   <trkpt lat="48.897441" lon="16.822476"><ele>168</ele></trkpt>
   <trkpt lat="48.897472" lon="16.822649"><ele>167.75</ele></trkpt>
   <trkpt lat="48.897502" lon="16.822806"><ele>167.75</ele></trkpt>
   <trkpt lat="48.897139" lon="16.822881"><ele>166</ele></trkpt>
   <trkpt lat="48.896786" lon="16.8229"><ele>166.5</ele></trkpt>
   <trkpt lat="48.896605" lon="16.82292"><ele>166.25</ele></trkpt>
   <trkpt lat="48.896406" lon="16.822989"><ele>166</ele></trkpt>
   <trkpt lat="48.896301" lon="16.823078"><ele>166</ele></trkpt>
   <trkpt lat="48.896026" lon="16.823399"><ele>165.75</ele></trkpt>
   <trkpt lat="48.895718" lon="16.823692"><ele>165.5</ele></trkpt>
   <trkpt lat="48.894891" lon="16.824271"><ele>165.5</ele></trkpt>
   <trkpt lat="48.894669" lon="16.824484"><ele>165.5</ele></trkpt>
   <trkpt lat="48.89368" lon="16.825469"><ele>165.5</ele></trkpt>
   <trkpt lat="48.891802" lon="16.827352"><ele>165</ele></trkpt>
   <trkpt lat="48.891014" lon="16.828093"><ele>166.25</ele></trkpt>
   <trkpt lat="48.890484" lon="16.828486"><ele>165.75</ele></trkpt>
   <trkpt lat="48.88882" lon="16.829783"><ele>165.5</ele></trkpt>
   <trkpt lat="48.888635" lon="16.829898"><ele>165</ele></trkpt>
   <trkpt lat="48.888073" lon="16.830597"><ele>165.5</ele></trkpt>
   <trkpt lat="48.887382" lon="16.831536"><ele>164.5</ele></trkpt>
   <trkpt lat="48.887301" lon="16.83167"><ele>165.25</ele></trkpt>
   <trkpt lat="48.887084" lon="16.831883"><ele>165.25</ele></trkpt>
   <trkpt lat="48.887003" lon="16.831951"><ele>165.75</ele></trkpt>
   <trkpt lat="48.886893" lon="16.832019"><ele>165.5</ele></trkpt>
   <trkpt lat="48.886739" lon="16.832076"><ele>165.5</ele></trkpt>
   <trkpt lat="48.886507" lon="16.832102"><ele>164.75</ele></trkpt>
   <trkpt lat="48.884835" lon="16.832382"><ele>164.25</ele></trkpt>
   <trkpt lat="48.88466" lon="16.832424"><ele>164</ele></trkpt>
   <trkpt lat="48.884575" lon="16.832501"><ele>164</ele></trkpt>
   <trkpt lat="48.884273" lon="16.832901"><ele>164</ele></trkpt>
   <trkpt lat="48.882897" lon="16.83433"><ele>163.25</ele></trkpt>
   <trkpt lat="48.881874" lon="16.835429"><ele>163</ele></trkpt>
   <trkpt lat="48.880423" lon="16.83693"><ele>163</ele></trkpt>
   <trkpt lat="48.879384" lon="16.837984"><ele>163</ele></trkpt>
   <trkpt lat="48.878235" lon="16.839213"><ele>162.75</ele></trkpt>
   <trkpt lat="48.877254" lon="16.840245"><ele>162.75</ele></trkpt>
   <trkpt lat="48.87634" lon="16.841228"><ele>162.75</ele></trkpt>
   <trkpt lat="48.875442" lon="16.84215"><ele>163</ele></trkpt>
   <trkpt lat="48.87496" lon="16.842685"><ele>163</ele></trkpt>
   <trkpt lat="48.874381" lon="16.84328"><ele>163.75</ele></trkpt>
   <trkpt lat="48.873046" lon="16.844636"><ele>162</ele></trkpt>
   <trkpt lat="48.872716" lon="16.845014"><ele>163</ele></trkpt>
   <trkpt lat="48.872368" lon="16.845291"><ele>164.25</ele></trkpt>
   <trkpt lat="48.872303" lon="16.84537"><ele>164.5</ele></trkpt>
   <trkpt lat="48.871448" lon="16.844581"><ele>164.25</ele></trkpt>
   <trkpt lat="48.870528" lon="16.843739"><ele>164.25</ele></trkpt>
   <trkpt lat="48.870122" lon="16.843388"><ele>164.5</ele></trkpt>
   <trkpt lat="48.869184" lon="16.842546"><ele>164.75</ele></trkpt>
   <trkpt lat="48.868441" lon="16.841853"><ele>164.75</ele></trkpt>
   <trkpt lat="48.868614" lon="16.841465"><ele>164.25</ele></trkpt>
   <trkpt lat="48.868671" lon="16.841216"><ele>163.5</ele></trkpt>
   <trkpt lat="48.868712" lon="16.841045"><ele>163.25</ele></trkpt>
   <trkpt lat="48.868731" lon="16.840711"><ele>163.25</ele></trkpt>
   <trkpt lat="48.868723" lon="16.840372"><ele>162.75</ele></trkpt>
   <trkpt lat="48.868712" lon="16.84023"><ele>162.5</ele></trkpt>
   <trkpt lat="48.868682" lon="16.839779"><ele>163</ele></trkpt>
   <trkpt lat="48.868663" lon="16.839323"><ele>163</ele></trkpt>
   <trkpt lat="48.868688" lon="16.838965"><ele>163</ele></trkpt>
   <trkpt lat="48.868756" lon="16.838557"><ele>163</ele></trkpt>
   <trkpt lat="48.868861" lon="16.838144"><ele>163.75</ele></trkpt>
   <trkpt lat="48.869242" lon="16.836773"><ele>164.5</ele></trkpt>
   <trkpt lat="48.869265" lon="16.836691"><ele>164.5</ele></trkpt>
   <trkpt lat="48.869381" lon="16.836273"><ele>164.75</ele></trkpt>
   <trkpt lat="48.869848" lon="16.834607"><ele>164</ele></trkpt>
   <trkpt lat="48.869944" lon="16.834306"><ele>164</ele></trkpt>
   <trkpt lat="48.870034" lon="16.834107"><ele>164</ele></trkpt>
   <trkpt lat="48.870117" lon="16.833983"><ele>164.25</ele></trkpt>
   <trkpt lat="48.870567" lon="16.83354"><ele>164.75</ele></trkpt>
   <trkpt lat="48.870449" lon="16.833256"><ele>164.5</ele></trkpt>
   <trkpt lat="48.869264" lon="16.830367"><ele>165</ele></trkpt>
   <trkpt lat="48.868281" lon="16.827895"><ele>169.75</ele></trkpt>
   <trkpt lat="48.86794" lon="16.827023"><ele>168.5</ele></trkpt>
   <trkpt lat="48.867224" lon="16.825292"><ele>167</ele></trkpt>
   <trkpt lat="48.866942" lon="16.82467"><ele>165.75</ele></trkpt>
   <trkpt lat="48.866871" lon="16.824497"><ele>164.75</ele></trkpt>
   <trkpt lat="48.866466" lon="16.823563"><ele>164</ele></trkpt>
   <trkpt lat="48.866461" lon="16.823439"><ele>164.25</ele></trkpt>
   <trkpt lat="48.86645" lon="16.823359"><ele>164.5</ele></trkpt>
   <trkpt lat="48.866471" lon="16.823273"><ele>164.5</ele></trkpt>
   <trkpt lat="48.866473" lon="16.823206"><ele>164.25</ele></trkpt>
   <trkpt lat="48.866462" lon="16.823144"><ele>164</ele></trkpt>
   <trkpt lat="48.866445" lon="16.8231"><ele>164</ele></trkpt>
   <trkpt lat="48.866423" lon="16.823066"><ele>164</ele></trkpt>
   <trkpt lat="48.866392" lon="16.823037"><ele>163.75</ele></trkpt>
   <trkpt lat="48.866354" lon="16.823028"><ele>163.75</ele></trkpt>
   <trkpt lat="48.866325" lon="16.823031"><ele>163.5</ele></trkpt>
   <trkpt lat="48.866247" lon="16.822917"><ele>163.25</ele></trkpt>
   <trkpt lat="48.866138" lon="16.822758"><ele>164</ele></trkpt>
   <trkpt lat="48.866112" lon="16.822702"><ele>165</ele></trkpt>
   <trkpt lat="48.866081" lon="16.82263"><ele>166.25</ele></trkpt>
   <trkpt lat="48.865915" lon="16.822235"><ele>165.5</ele></trkpt>
   <trkpt lat="48.865885" lon="16.822166"><ele>164.5</ele></trkpt>
   <trkpt lat="48.86577" lon="16.821867"><ele>164</ele></trkpt>
   <trkpt lat="48.86538" lon="16.820937"><ele>164.5</ele></trkpt>
   <trkpt lat="48.865258" lon="16.820688"><ele>165</ele></trkpt>
   <trkpt lat="48.865194" lon="16.820558"><ele>165.25</ele></trkpt>
   <trkpt lat="48.862023" lon="16.815899"><ele>167.25</ele></trkpt>
   <trkpt lat="48.861685" lon="16.815511"><ele>167</ele></trkpt>
   <trkpt lat="48.861128" lon="16.814998"><ele>167</ele></trkpt>
   <trkpt lat="48.860723" lon="16.814645"><ele>167</ele></trkpt>
   <trkpt lat="48.860385" lon="16.814363"><ele>167</ele></trkpt>
   <trkpt lat="48.860179" lon="16.81417"><ele>167</ele></trkpt>
   <trkpt lat="48.860075" lon="16.814087"><ele>167</ele></trkpt>
   <trkpt lat="48.859972" lon="16.814019"><ele>167</ele></trkpt>
   <trkpt lat="48.859931" lon="16.814004"><ele>167</ele></trkpt>
   <trkpt lat="48.859817" lon="16.813961"><ele>167</ele></trkpt>
   <trkpt lat="48.859715" lon="16.813883"><ele>167</ele></trkpt>
   <trkpt lat="48.859615" lon="16.813785"><ele>167</ele></trkpt>
   <trkpt lat="48.859406" lon="16.813559"><ele>167</ele></trkpt>
   <trkpt lat="48.859111" lon="16.813147"><ele>166.75</ele></trkpt>
   <trkpt lat="48.858948" lon="16.812758"><ele>167</ele></trkpt>
   <trkpt lat="48.858819" lon="16.812447"><ele>166.75</ele></trkpt>
   <trkpt lat="48.858777" lon="16.812336"><ele>166.75</ele></trkpt>
   <trkpt lat="48.858565" lon="16.811758"><ele>167.5</ele></trkpt>
   <trkpt lat="48.858528" lon="16.811605"><ele>167.75</ele></trkpt>
   <trkpt lat="48.858517" lon="16.811477"><ele>168</ele></trkpt>
   <trkpt lat="48.858521" lon="16.811337"><ele>168.25</ele></trkpt>
   <trkpt lat="48.858535" lon="16.810338"><ele>169.5</ele></trkpt>
   <trkpt lat="48.858428" lon="16.810191"><ele>169</ele></trkpt>
   <trkpt lat="48.858197" lon="16.809876"><ele>167.5</ele></trkpt>
   <trkpt lat="48.858119" lon="16.809769"><ele>167</ele></trkpt>
   <trkpt lat="48.858002" lon="16.80961"><ele>167</ele></trkpt>
   <trkpt lat="48.857901" lon="16.809422"><ele>167</ele></trkpt>
   <trkpt lat="48.857852" lon="16.809235"><ele>167</ele></trkpt>
   <trkpt lat="48.857536" lon="16.808835"><ele>166.25</ele></trkpt>
   <trkpt lat="48.856455" lon="16.807958"><ele>164</ele></trkpt>
   <trkpt lat="48.856204" lon="16.807776"><ele>164</ele></trkpt>
   <trkpt lat="48.855663" lon="16.807405"><ele>163.25</ele></trkpt>
   <trkpt lat="48.855536" lon="16.807365"><ele>163</ele></trkpt>
   <trkpt lat="48.855341" lon="16.807413"><ele>163</ele></trkpt>
   <trkpt lat="48.854459" lon="16.807589"><ele>163</ele></trkpt>
   <trkpt lat="48.852949" lon="16.80792"><ele>161.5</ele></trkpt>
   <trkpt lat="48.85279" lon="16.807947"><ele>161.75</ele></trkpt>
   <trkpt lat="48.851214" lon="16.808221"><ele>162.5</ele></trkpt>
   <trkpt lat="48.849924" lon="16.808503"><ele>162</ele></trkpt>
   <trkpt lat="48.846986" lon="16.809026"><ele>161.5</ele></trkpt>
   <trkpt lat="48.846364" lon="16.809183"><ele>162</ele></trkpt>
   <trkpt lat="48.846234" lon="16.809194"><ele>162.25</ele></trkpt>
   <trkpt lat="48.846162" lon="16.80915"><ele>162.75</ele></trkpt>
   <trkpt lat="48.846109" lon="16.809066"><ele>162.5</ele></trkpt>
   <trkpt lat="48.846102" lon="16.808909"><ele>162</ele></trkpt>
   <trkpt lat="48.846155" lon="16.808708"><ele>161.5</ele></trkpt>
   <trkpt lat="48.846839" lon="16.806914"><ele>161.5</ele></trkpt>
   <trkpt lat="48.847975" lon="16.80372"><ele>162</ele></trkpt>
   <trkpt lat="48.847922" lon="16.803676"><ele>162</ele></trkpt>
   <trkpt lat="48.847851" lon="16.803622"><ele>161.75</ele></trkpt>
   <trkpt lat="48.847737" lon="16.803537"><ele>161.75</ele></trkpt>
   <trkpt lat="48.847578" lon="16.803529"><ele>161.75</ele></trkpt>
   <trkpt lat="48.847275" lon="16.80357"><ele>161.75</ele></trkpt>
   <trkpt lat="48.846805" lon="16.803537"><ele>161.5</ele></trkpt>
   <trkpt lat="48.846547" lon="16.803489"><ele>161.25</ele></trkpt>
   <trkpt lat="48.846003" lon="16.80331"><ele>161.5</ele></trkpt>
   <trkpt lat="48.845772" lon="16.803226"><ele>161</ele></trkpt>
   <trkpt lat="48.845661" lon="16.803167"><ele>161</ele></trkpt>
   <trkpt lat="48.844192" lon="16.80241"><ele>161</ele></trkpt>
   <trkpt lat="48.843758" lon="16.80215"><ele>161</ele></trkpt>
   <trkpt lat="48.843428" lon="16.801974"><ele>161</ele></trkpt>
   <trkpt lat="48.841855" lon="16.80087"><ele>161</ele></trkpt>
   <trkpt lat="48.841556" lon="16.800621"><ele>161</ele></trkpt>
   <trkpt lat="48.841302" lon="16.800319"><ele>161.5</ele></trkpt>
   <trkpt lat="48.841039" lon="16.799989"><ele>161</ele></trkpt>
   <trkpt lat="48.840743" lon="16.799563"><ele>161.5</ele></trkpt>
   <trkpt lat="48.840282" lon="16.798951"><ele>162</ele></trkpt>
   <trkpt lat="48.840162" lon="16.798772"><ele>162</ele></trkpt>
   <trkpt lat="48.839637" lon="16.797868"><ele>161.25</ele></trkpt>
   <trkpt lat="48.83922" lon="16.797067"><ele>161.75</ele></trkpt>
   <trkpt lat="48.838358" lon="16.795324"><ele>161.75</ele></trkpt>
   <trkpt lat="48.837304" lon="16.793144"><ele>161.75</ele></trkpt>
   <trkpt lat="48.836979" lon="16.792518"><ele>162</ele></trkpt>
   <trkpt lat="48.836702" lon="16.792012"><ele>161.75</ele></trkpt>
   <trkpt lat="48.836377" lon="16.791465"><ele>162</ele></trkpt>
   <trkpt lat="48.835567" lon="16.790241"><ele>161.75</ele></trkpt>
   <trkpt lat="48.835354" lon="16.789898"><ele>162</ele></trkpt>
   <trkpt lat="48.835207" lon="16.789731"><ele>162</ele></trkpt>
   <trkpt lat="48.833456" lon="16.787569"><ele>162</ele></trkpt>
   <trkpt lat="48.832732" lon="16.786652"><ele>162</ele></trkpt>
   <trkpt lat="48.832645" lon="16.786596"><ele>162</ele></trkpt>
   <trkpt lat="48.832544" lon="16.786561"><ele>162</ele></trkpt>
   <trkpt lat="48.832467" lon="16.786463"><ele>162</ele></trkpt>
   <trkpt lat="48.832411" lon="16.786233"><ele>162</ele></trkpt>
   <trkpt lat="48.832381" lon="16.785998"><ele>162</ele></trkpt>
   <trkpt lat="48.832358" lon="16.78567"><ele>161.5</ele></trkpt>
   <trkpt lat="48.832368" lon="16.785445"><ele>161.5</ele></trkpt>
   <trkpt lat="48.832372" lon="16.78508"><ele>162</ele></trkpt>
   <trkpt lat="48.832404" lon="16.784619"><ele>162</ele></trkpt>
   <trkpt lat="48.832476" lon="16.78435"><ele>162</ele></trkpt>
   <trkpt lat="48.832511" lon="16.784101"><ele>162</ele></trkpt>
   <trkpt lat="48.832652" lon="16.783306"><ele>161.5</ele></trkpt>
   <trkpt lat="48.832738" lon="16.783032"><ele>161.75</ele></trkpt>
   <trkpt lat="48.832765" lon="16.782932"><ele>161.75</ele></trkpt>
   <trkpt lat="48.832812" lon="16.782664"><ele>162</ele></trkpt>
   <trkpt lat="48.832795" lon="16.782623"><ele>162</ele></trkpt>
   <trkpt lat="48.832704" lon="16.782731"><ele>161.5</ele></trkpt>
   <trkpt lat="48.832524" lon="16.78288"><ele>161.25</ele></trkpt>
   <trkpt lat="48.832123" lon="16.783191"><ele>161.25</ele></trkpt>
   <trkpt lat="48.831791" lon="16.783465"><ele>161</ele></trkpt>
   <trkpt lat="48.831694" lon="16.783525"><ele>161</ele></trkpt>
   <trkpt lat="48.8316" lon="16.783557"><ele>161</ele></trkpt>
   <trkpt lat="48.831501" lon="16.783577"><ele>161</ele></trkpt>
   <trkpt lat="48.831353" lon="16.783572"><ele>161</ele></trkpt>
   <trkpt lat="48.831239" lon="16.783555"><ele>161.5</ele></trkpt>
   <trkpt lat="48.831206" lon="16.783569"><ele>161.5</ele></trkpt>
   <trkpt lat="48.831187" lon="16.783601"><ele>161.5</ele></trkpt>
   <trkpt lat="48.831177" lon="16.783633"><ele>161.75</ele></trkpt>
   <trkpt lat="48.831161" lon="16.783647"><ele>161.75</ele></trkpt>
   <trkpt lat="48.831151" lon="16.783646"><ele>161.75</ele></trkpt>
   <trkpt lat="48.831094" lon="16.783649"><ele>162</ele></trkpt>
   <trkpt lat="48.831039" lon="16.783657"><ele>162</ele></trkpt>
   <trkpt lat="48.830998" lon="16.783698"><ele>162</ele></trkpt>
   <trkpt lat="48.830947" lon="16.783726"><ele>162</ele></trkpt>
   <trkpt lat="48.830913" lon="16.783753"><ele>162.25</ele></trkpt>
   <trkpt lat="48.830894" lon="16.783803"><ele>162.5</ele></trkpt>
   <trkpt lat="48.830893" lon="16.784707"><ele>162.75</ele></trkpt>
   <trkpt lat="48.830874" lon="16.785256"><ele>162</ele></trkpt>
   <trkpt lat="48.830816" lon="16.785862"><ele>162</ele></trkpt>
   <trkpt lat="48.83064" lon="16.786996"><ele>162.5</ele></trkpt>
   <trkpt lat="48.83041" lon="16.787954"><ele>162.5</ele></trkpt>
   <trkpt lat="48.830208" lon="16.788642"><ele>162</ele></trkpt>
   <trkpt lat="48.830006" lon="16.789206"><ele>162.75</ele></trkpt>
   <trkpt lat="48.829667" lon="16.789967"><ele>162.25</ele></trkpt>
   <trkpt lat="48.829365" lon="16.7905"><ele>162.5</ele></trkpt>
   <trkpt lat="48.828987" lon="16.791071"><ele>162.25</ele></trkpt>
   <trkpt lat="48.828703" lon="16.791465"><ele>162.75</ele></trkpt>
   <trkpt lat="48.828014" lon="16.792257"><ele>161.75</ele></trkpt>
   <trkpt lat="48.827032" lon="16.793405"><ele>162.25</ele></trkpt>
   <trkpt lat="48.826638" lon="16.793938"><ele>161.75</ele></trkpt>
   <trkpt lat="48.826528" lon="16.794103"><ele>161.75</ele></trkpt>
   <trkpt lat="48.826081" lon="16.794912"><ele>162.25</ele></trkpt>
   <trkpt lat="48.825915" lon="16.795304"><ele>162.25</ele></trkpt>
   <trkpt lat="48.825377" lon="16.796674"><ele>162.5</ele></trkpt>
   <trkpt lat="48.825046" lon="16.79757"><ele>162.5</ele></trkpt>
   <trkpt lat="48.82455" lon="16.798876"><ele>161.75</ele></trkpt>
   <trkpt lat="48.824224" lon="16.799594"><ele>162.25</ele></trkpt>
   <trkpt lat="48.824088" lon="16.799859"><ele>161.75</ele></trkpt>
   <trkpt lat="48.823719" lon="16.800486"><ele>162</ele></trkpt>
   <trkpt lat="48.823367" lon="16.80097"><ele>162.25</ele></trkpt>
   <trkpt lat="48.822456" lon="16.802002"><ele>161.75</ele></trkpt>
   <trkpt lat="48.821872" lon="16.80254"><ele>161.75</ele></trkpt>
   <trkpt lat="48.82076" lon="16.80383"><ele>162.25</ele></trkpt>
   <trkpt lat="48.820193" lon="16.804691"><ele>161.5</ele></trkpt>
   <trkpt lat="48.819644" lon="16.805566"><ele>161.25</ele></trkpt>
   <trkpt lat="48.819129" lon="16.806562"><ele>161.5</ele></trkpt>
   <trkpt lat="48.818769" lon="16.807403"><ele>161.25</ele></trkpt>
   <trkpt lat="48.818495" lon="16.808108"><ele>161</ele></trkpt>
   <trkpt lat="48.818232" lon="16.808821"><ele>162.25</ele></trkpt>
   <trkpt lat="48.818163" lon="16.809092"><ele>162.75</ele></trkpt>
   <trkpt lat="48.818079" lon="16.808679"><ele>162.75</ele></trkpt>
   <trkpt lat="48.818" lon="16.808339"><ele>162.75</ele></trkpt>
   <trkpt lat="48.817896" lon="16.807973"><ele>162.75</ele></trkpt>
   <trkpt lat="48.817777" lon="16.807621"><ele>162.75</ele></trkpt>
   <trkpt lat="48.817614" lon="16.807242"><ele>163</ele></trkpt>
   <trkpt lat="48.817569" lon="16.807137"><ele>163</ele></trkpt>
   <trkpt lat="48.817454" lon="16.806889"><ele>164</ele></trkpt>
   <trkpt lat="48.817289" lon="16.80657"><ele>163.25</ele></trkpt>
   <trkpt lat="48.8172" lon="16.806407"><ele>164.5</ele></trkpt>
   <trkpt lat="48.817062" lon="16.806178"><ele>163</ele></trkpt>
   <trkpt lat="48.816967" lon="16.806046"><ele>163.5</ele></trkpt>
   <trkpt lat="48.816692" lon="16.805703"><ele>163.75</ele></trkpt>
   <trkpt lat="48.816614" lon="16.805618"><ele>163.75</ele></trkpt>
   <trkpt lat="48.816308" lon="16.805334"><ele>163.25</ele></trkpt>
   <trkpt lat="48.816159" lon="16.805213"><ele>163.25</ele></trkpt>
   <trkpt lat="48.815856" lon="16.805002"><ele>164.5</ele></trkpt>
   <trkpt lat="48.815406" lon="16.804746"><ele>163.75</ele></trkpt>
   <trkpt lat="48.815119" lon="16.804635"><ele>163.75</ele></trkpt>
   <trkpt lat="48.814958" lon="16.804586"><ele>163.5</ele></trkpt>
   <trkpt lat="48.814748" lon="16.804531"><ele>164.25</ele></trkpt>
   <trkpt lat="48.814637" lon="16.804519"><ele>164</ele></trkpt>
   <trkpt lat="48.814341" lon="16.804489"><ele>163.75</ele></trkpt>
   <trkpt lat="48.814097" lon="16.804474"><ele>162.75</ele></trkpt>
   <trkpt lat="48.813542" lon="16.80449"><ele>163</ele></trkpt>
   <trkpt lat="48.813398" lon="16.804504"><ele>163.5</ele></trkpt>
   <trkpt lat="48.813319" lon="16.804511"><ele>163.5</ele></trkpt>
   <trkpt lat="48.811285" lon="16.804745"><ele>163.5</ele></trkpt>
   <trkpt lat="48.810493" lon="16.804832"><ele>162.75</ele></trkpt>
   <trkpt lat="48.80999" lon="16.804845"><ele>162.25</ele></trkpt>
   <trkpt lat="48.809411" lon="16.804765"><ele>163</ele></trkpt>
   <trkpt lat="48.808584" lon="16.804509"><ele>162.25</ele></trkpt>
   <trkpt lat="48.808094" lon="16.804325"><ele>163</ele></trkpt>
   <trkpt lat="48.807888" lon="16.804251"><ele>162.75</ele></trkpt>
   <trkpt lat="48.807369" lon="16.804065"><ele>163</ele></trkpt>
   <trkpt lat="48.807244" lon="16.804034"><ele>163.25</ele></trkpt>
   <trkpt lat="48.807117" lon="16.804003"><ele>163.25</ele></trkpt>
   <trkpt lat="48.806869" lon="16.804"><ele>163</ele></trkpt>
   <trkpt lat="48.806734" lon="16.80404"><ele>163</ele></trkpt>
   <trkpt lat="48.806645" lon="16.804076"><ele>162.75</ele></trkpt>
   <trkpt lat="48.805529" lon="16.804616"><ele>163</ele></trkpt>
   <trkpt lat="48.805428" lon="16.804666"><ele>163</ele></trkpt>
   <trkpt lat="48.80519" lon="16.804731"><ele>162.75</ele></trkpt>
   <trkpt lat="48.805044" lon="16.804747"><ele>162.75</ele></trkpt>
   <trkpt lat="48.804801" lon="16.804747"><ele>162.75</ele></trkpt>
   <trkpt lat="48.804725" lon="16.804743"><ele>162.75</ele></trkpt>
   <trkpt lat="48.804598" lon="16.804719"><ele>162.75</ele></trkpt>
   <trkpt lat="48.804444" lon="16.80469"><ele>162.75</ele></trkpt>
   <trkpt lat="48.804154" lon="16.804577"><ele>163</ele></trkpt>
   <trkpt lat="48.804046" lon="16.804533"><ele>163</ele></trkpt>
   <trkpt lat="48.803695" lon="16.804361"><ele>162.75</ele></trkpt>
   <trkpt lat="48.803595" lon="16.804303"><ele>162.75</ele></trkpt>
   <trkpt lat="48.803375" lon="16.804182"><ele>162</ele></trkpt>
   <trkpt lat="48.803082" lon="16.804"><ele>164</ele></trkpt>
   <trkpt lat="48.802913" lon="16.803893"><ele>165.5</ele></trkpt>
   <trkpt lat="48.802684" lon="16.803747"><ele>167</ele></trkpt>
   <trkpt lat="48.802669" lon="16.803803"><ele>167</ele></trkpt>
   <trkpt lat="48.802647" lon="16.803887"><ele>167</ele></trkpt>
   <trkpt lat="48.8026" lon="16.804079"><ele>167.25</ele></trkpt>
   <trkpt lat="48.802572" lon="16.8042"><ele>167.5</ele></trkpt>
   <trkpt lat="48.802571" lon="16.804206"><ele>167.5</ele></trkpt>
   <trkpt lat="48.802533" lon="16.804191"><ele>167.75</ele></trkpt>
   <trkpt lat="48.802494" lon="16.804187"><ele>168</ele></trkpt>
   <trkpt lat="48.802455" lon="16.804195"><ele>168</ele></trkpt>
   <trkpt lat="48.802418" lon="16.804215"><ele>168</ele></trkpt>
   <trkpt lat="48.802385" lon="16.804246"><ele>168</ele></trkpt>
   <trkpt lat="48.802356" lon="16.804286"><ele>168</ele></trkpt>
   <trkpt lat="48.802332" lon="16.804334"><ele>168</ele></trkpt>
   <trkpt lat="48.802316" lon="16.804388"><ele>168</ele></trkpt>
   <trkpt lat="48.80223" lon="16.804343"><ele>168</ele></trkpt>
   <trkpt lat="48.802089" lon="16.804258"><ele>168</ele></trkpt>
   <trkpt lat="48.801967" lon="16.804179"><ele>168</ele></trkpt>
   <trkpt lat="48.801928" lon="16.804283"><ele>168</ele></trkpt>
   <trkpt lat="48.801876" lon="16.804373"><ele>168.25</ele></trkpt>
   <trkpt lat="48.801815" lon="16.804448"><ele>168.75</ele></trkpt>
   <trkpt lat="48.801743" lon="16.8045"><ele>169.25</ele></trkpt>
   <trkpt lat="48.801681" lon="16.804524"><ele>169.75</ele></trkpt>
   <trkpt lat="48.801585" lon="16.804546"><ele>170</ele></trkpt>
   <trkpt lat="48.801518" lon="16.804576"><ele>170.25</ele></trkpt>
   <trkpt lat="48.801454" lon="16.804526"><ele>170</ele></trkpt>
   <trkpt lat="48.801365" lon="16.804455"><ele>170</ele></trkpt>
   <trkpt lat="48.801011" lon="16.804234"><ele>171</ele></trkpt>
   <trkpt lat="48.800903" lon="16.804166"><ele>171</ele></trkpt>
   <trkpt lat="48.800716" lon="16.804033"><ele>171</ele></trkpt>
   <trkpt lat="48.800685" lon="16.804007"><ele>171</ele></trkpt>
   <trkpt lat="48.800667" lon="16.804053"><ele>171</ele></trkpt>
   <trkpt lat="48.800644" lon="16.80408"><ele>171</ele></trkpt>
   <trkpt lat="48.800601" lon="16.804102"><ele>171</ele></trkpt>
   <trkpt lat="48.800577" lon="16.804102"><ele>171</ele></trkpt>
   <trkpt lat="48.800293" lon="16.803944"><ele>171</ele></trkpt>
   <trkpt lat="48.800268" lon="16.803929"><ele>171</ele></trkpt>
   <trkpt lat="48.80022" lon="16.803901"><ele>171</ele></trkpt>
   <trkpt lat="48.800134" lon="16.803858"><ele>171</ele></trkpt>
   <trkpt lat="48.799974" lon="16.803765"><ele>171</ele></trkpt>
   <trkpt lat="48.799957" lon="16.803854"><ele>171</ele></trkpt>
   <trkpt lat="48.799931" lon="16.803942"><ele>171.25</ele></trkpt>
   <trkpt lat="48.799908" lon="16.803997"><ele>171.5</ele></trkpt>
   <trkpt lat="48.799869" lon="16.80404"><ele>171.75</ele></trkpt>
   <trkpt lat="48.799829" lon="16.80405"><ele>171.75</ele></trkpt>
   <trkpt lat="48.799774" lon="16.804034"><ele>171.75</ele></trkpt>
   <trkpt lat="48.799676" lon="16.803969"><ele>172</ele></trkpt>
   <trkpt lat="48.799466" lon="16.803786"><ele>172.75</ele></trkpt>
   <trkpt lat="48.799326" lon="16.803665"><ele>173.25</ele></trkpt>
   <trkpt lat="48.799306" lon="16.80371"><ele>173.25</ele></trkpt>
   <trkpt lat="48.799293" lon="16.803742"><ele>173.5</ele></trkpt>
   <trkpt lat="48.799281" lon="16.803767"><ele>173.5</ele></trkpt>
   <trkpt lat="48.799199" lon="16.803957"><ele>173.5</ele></trkpt>
   <trkpt lat="48.799043" lon="16.80442"><ele>173</ele></trkpt>
   <trkpt lat="48.798874" lon="16.805058"><ele>172</ele></trkpt>
   <trkpt lat="48.798694" lon="16.805914"><ele>172</ele></trkpt>
   <trkpt lat="48.798468" lon="16.806978"><ele>171.5</ele></trkpt>
   <trkpt lat="48.798435" lon="16.807133"><ele>171.25</ele></trkpt>
   <trkpt lat="48.798404" lon="16.807286"><ele>171</ele></trkpt>
   <trkpt lat="48.798388" lon="16.807363"><ele>171</ele></trkpt>
   <trkpt lat="48.798327" lon="16.807664"><ele>171</ele></trkpt>
   <trkpt lat="48.798264" lon="16.808209"><ele>171</ele></trkpt>
   <trkpt lat="48.798133" lon="16.809687"><ele>171</ele></trkpt>
   <trkpt lat="48.79809" lon="16.809826"><ele>170.5</ele></trkpt>
   <trkpt lat="48.797864" lon="16.810252"><ele>170.5</ele></trkpt>
   <trkpt lat="48.797902" lon="16.810318"><ele>170.5</ele></trkpt>
   <trkpt lat="48.797927" lon="16.81036"><ele>170.25</ele></trkpt>
   <trkpt lat="48.798483" lon="16.8111"><ele>169.75</ele></trkpt>
   <trkpt lat="48.797678" lon="16.814764"><ele>166.5</ele></trkpt>
   <trkpt lat="48.797639" lon="16.815113"><ele>166.25</ele></trkpt>
   <trkpt lat="48.797653" lon="16.815394"><ele>166</ele></trkpt>
   <trkpt lat="48.797708" lon="16.815862"><ele>165.25</ele></trkpt>
   <trkpt lat="48.797853" lon="16.816388"><ele>163.25</ele></trkpt>
   <trkpt lat="48.797959" lon="16.816693"><ele>162.75</ele></trkpt>
   <trkpt lat="48.798313" lon="16.817496"><ele>161.75</ele></trkpt>
   <trkpt lat="48.798418" lon="16.817779"><ele>160.75</ele></trkpt>
   <trkpt lat="48.798799" lon="16.819612"><ele>160</ele></trkpt>
   <trkpt lat="48.799608" lon="16.823554"><ele>160</ele></trkpt>
   <trkpt lat="48.800492" lon="16.829093"><ele>160</ele></trkpt>
   <trkpt lat="48.800651" lon="16.830132"><ele>160</ele></trkpt>
   <trkpt lat="48.800696" lon="16.830317"><ele>160</ele></trkpt>
   <trkpt lat="48.800784" lon="16.830496"><ele>160.5</ele></trkpt>
   <trkpt lat="48.80128" lon="16.831344"><ele>160</ele></trkpt>
   <trkpt lat="48.802538" lon="16.833606"><ele>160</ele></trkpt>
   <trkpt lat="48.802681" lon="16.83356"><ele>160</ele></trkpt>
   <trkpt lat="48.802835" lon="16.833441"><ele>160</ele></trkpt>
   <trkpt lat="48.803291" lon="16.833311"><ele>160</ele></trkpt>
   <trkpt lat="48.80357" lon="16.833208"><ele>160.5</ele></trkpt>
   <trkpt lat="48.803636" lon="16.833184"><ele>160.25</ele></trkpt>
   <trkpt lat="48.80367" lon="16.833141"><ele>160.25</ele></trkpt>
   <trkpt lat="48.803891" lon="16.832862"><ele>159.75</ele></trkpt>
   <trkpt lat="48.804019" lon="16.832705"><ele>160</ele></trkpt>
   <trkpt lat="48.804355" lon="16.832291"><ele>161</ele></trkpt>
   <trkpt lat="48.804355" lon="16.832287"><ele>161</ele></trkpt>
   <trkpt lat="48.804355" lon="16.832291"><ele>161</ele></trkpt>
   <trkpt lat="48.804019" lon="16.832705"><ele>160</ele></trkpt>
   <trkpt lat="48.803891" lon="16.832862"><ele>159.75</ele></trkpt>
   <trkpt lat="48.80367" lon="16.833141"><ele>160.25</ele></trkpt>
   <trkpt lat="48.803636" lon="16.833184"><ele>160.25</ele></trkpt>
   <trkpt lat="48.80357" lon="16.833208"><ele>160.5</ele></trkpt>
   <trkpt lat="48.803291" lon="16.833311"><ele>160</ele></trkpt>
   <trkpt lat="48.802835" lon="16.833441"><ele>160</ele></trkpt>
   <trkpt lat="48.802681" lon="16.83356"><ele>160</ele></trkpt>
   <trkpt lat="48.802538" lon="16.833606"><ele>160</ele></trkpt>
   <trkpt lat="48.802494" lon="16.833982"><ele>160</ele></trkpt>
   <trkpt lat="48.802514" lon="16.83445"><ele>160</ele></trkpt>
   <trkpt lat="48.802497" lon="16.834829"><ele>160</ele></trkpt>
   <trkpt lat="48.802421" lon="16.835228"><ele>160</ele></trkpt>
   <trkpt lat="48.802398" lon="16.835554"><ele>160</ele></trkpt>
   <trkpt lat="48.802413" lon="16.835842"><ele>160</ele></trkpt>
   <trkpt lat="48.802494" lon="16.836099"><ele>160</ele></trkpt>
   <trkpt lat="48.802697" lon="16.836552"><ele>160</ele></trkpt>
   <trkpt lat="48.802819" lon="16.836807"><ele>160</ele></trkpt>
   <trkpt lat="48.802874" lon="16.83703"><ele>160</ele></trkpt>
   <trkpt lat="48.802893" lon="16.83718"><ele>160</ele></trkpt>
   <trkpt lat="48.80288" lon="16.83734"><ele>159.75</ele></trkpt>
   <trkpt lat="48.802676" lon="16.83826"><ele>160</ele></trkpt>
   <trkpt lat="48.802675" lon="16.838554"><ele>159.5</ele></trkpt>
   <trkpt lat="48.802619" lon="16.839018"><ele>160</ele></trkpt>
   <trkpt lat="48.802554" lon="16.839242"><ele>160</ele></trkpt>
   <trkpt lat="48.80222" lon="16.839831"><ele>160</ele></trkpt>
   <trkpt lat="48.801922" lon="16.840236"><ele>160</ele></trkpt>
   <trkpt lat="48.801784" lon="16.840336"><ele>160</ele></trkpt>
   <trkpt lat="48.801598" lon="16.84041"><ele>160</ele></trkpt>
   <trkpt lat="48.801204" lon="16.84049"><ele>160</ele></trkpt>
   <trkpt lat="48.800923" lon="16.840103"><ele>160</ele></trkpt>
   <trkpt lat="48.800632" lon="16.839577"><ele>159.75</ele></trkpt>
   <trkpt lat="48.800466" lon="16.839294"><ele>159.75</ele></trkpt>
   <trkpt lat="48.800314" lon="16.839144"><ele>160</ele></trkpt>
   <trkpt lat="48.800174" lon="16.839105"><ele>160</ele></trkpt>
   <trkpt lat="48.800039" lon="16.839079"><ele>160</ele></trkpt>
   <trkpt lat="48.799913" lon="16.839123"><ele>160</ele></trkpt>
   <trkpt lat="48.799824" lon="16.839166"><ele>160</ele></trkpt>
   <trkpt lat="48.799673" lon="16.839318"><ele>159.75</ele></trkpt>
   <trkpt lat="48.798096" lon="16.841679"><ele>159</ele></trkpt>
   <trkpt lat="48.797994" lon="16.841886"><ele>159</ele></trkpt>
   <trkpt lat="48.797818" lon="16.842348"><ele>159.5</ele></trkpt>
   <trkpt lat="48.797522" lon="16.843172"><ele>159.25</ele></trkpt>
   <trkpt lat="48.797359" lon="16.84343"><ele>160</ele></trkpt>
   <trkpt lat="48.797137" lon="16.84367"><ele>160</ele></trkpt>
   <trkpt lat="48.796886" lon="16.843924"><ele>159.5</ele></trkpt>
   <trkpt lat="48.796733" lon="16.844115"><ele>159</ele></trkpt>
   <trkpt lat="48.796621" lon="16.844293"><ele>159</ele></trkpt>
   <trkpt lat="48.796358" lon="16.844887"><ele>159.5</ele></trkpt>
   <trkpt lat="48.796135" lon="16.845313"><ele>159.75</ele></trkpt>
   <trkpt lat="48.795688" lon="16.845961"><ele>159.5</ele></trkpt>
   <trkpt lat="48.795509" lon="16.846199"><ele>159.5</ele></trkpt>
   <trkpt lat="48.795052" lon="16.846602"><ele>159.5</ele></trkpt>
   <trkpt lat="48.794751" lon="16.846813"><ele>159</ele></trkpt>
   <trkpt lat="48.794458" lon="16.846967"><ele>159</ele></trkpt>
   <trkpt lat="48.794263" lon="16.84712"><ele>159</ele></trkpt>
   <trkpt lat="48.793897" lon="16.847611"><ele>159</ele></trkpt>
   <trkpt lat="48.793735" lon="16.847729"><ele>159</ele></trkpt>
   <trkpt lat="48.793339" lon="16.847841"><ele>158.75</ele></trkpt>
   <trkpt lat="48.793056" lon="16.847971"><ele>159</ele></trkpt>
   <trkpt lat="48.792838" lon="16.848094"><ele>159</ele></trkpt>
   <trkpt lat="48.792437" lon="16.848109"><ele>159</ele></trkpt>
   <trkpt lat="48.792237" lon="16.848155"><ele>159.75</ele></trkpt>
   <trkpt lat="48.791802" lon="16.848309"><ele>159.25</ele></trkpt>
   <trkpt lat="48.791514" lon="16.848378"><ele>159</ele></trkpt>
   <trkpt lat="48.7913" lon="16.848485"><ele>159</ele></trkpt>
   <trkpt lat="48.790383" lon="16.849083"><ele>159</ele></trkpt>
   <trkpt lat="48.789883" lon="16.849298"><ele>159</ele></trkpt>
   <trkpt lat="48.789771" lon="16.849363"><ele>159</ele></trkpt>
   <trkpt lat="48.78964" lon="16.849474"><ele>159</ele></trkpt>
   <trkpt lat="48.789435" lon="16.850188"><ele>159</ele></trkpt>
   <trkpt lat="48.789331" lon="16.850403"><ele>159</ele></trkpt>
   <trkpt lat="48.788633" lon="16.851453"><ele>159</ele></trkpt>
   <trkpt lat="48.787757" lon="16.852738"><ele>158.75</ele></trkpt>
   <trkpt lat="48.787646" lon="16.852937"><ele>158.5</ele></trkpt>
   <trkpt lat="48.787567" lon="16.853176"><ele>158.75</ele></trkpt>
   <trkpt lat="48.787527" lon="16.853337"><ele>159</ele></trkpt>
   <trkpt lat="48.787512" lon="16.853628"><ele>159.75</ele></trkpt>
   <trkpt lat="48.787516" lon="16.853956"><ele>159.75</ele></trkpt>
   <trkpt lat="48.787519" lon="16.854449"><ele>158.75</ele></trkpt>
   <trkpt lat="48.787471" lon="16.854771"><ele>158.75</ele></trkpt>
   <trkpt lat="48.787401" lon="16.85499"><ele>158.5</ele></trkpt>
   <trkpt lat="48.78727" lon="16.855174"><ele>158.5</ele></trkpt>
   <trkpt lat="48.787211" lon="16.855258"><ele>158.75</ele></trkpt>
   <trkpt lat="48.78703" lon="16.855556"><ele>159</ele></trkpt>
   <trkpt lat="48.786628" lon="16.856616"><ele>158.75</ele></trkpt>
   <trkpt lat="48.786314" lon="16.857632"><ele>158.5</ele></trkpt>
   <trkpt lat="48.786018" lon="16.858537"><ele>159</ele></trkpt>
   <trkpt lat="48.785902" lon="16.858775"><ele>159</ele></trkpt>
   <trkpt lat="48.785778" lon="16.85899"><ele>159</ele></trkpt>
   <trkpt lat="48.785622" lon="16.859147"><ele>159</ele></trkpt>
   <trkpt lat="48.785344" lon="16.859377"><ele>158</ele></trkpt>
   <trkpt lat="48.784533" lon="16.859864"><ele>158.5</ele></trkpt>
   <trkpt lat="48.783587" lon="16.860336"><ele>158.75</ele></trkpt>
   <trkpt lat="48.783363" lon="16.860474"><ele>158</ele></trkpt>
   <trkpt lat="48.783158" lon="16.860637"><ele>158</ele></trkpt>
   <trkpt lat="48.782986" lon="16.860869"><ele>158</ele></trkpt>
   <trkpt lat="48.782713" lon="16.861326"><ele>158.5</ele></trkpt>
   <trkpt lat="48.782599" lon="16.861464"><ele>158.25</ele></trkpt>
   <trkpt lat="48.782359" lon="16.861667"><ele>158</ele></trkpt>
   <trkpt lat="48.782031" lon="16.861909"><ele>158.75</ele></trkpt>
   <trkpt lat="48.781705" lon="16.862016"><ele>159</ele></trkpt>
   <trkpt lat="48.781237" lon="16.862116"><ele>158.25</ele></trkpt>
   <trkpt lat="48.78078" lon="16.862215"><ele>158.75</ele></trkpt>
   <trkpt lat="48.780641" lon="16.862277"><ele>158.75</ele></trkpt>
   <trkpt lat="48.780421" lon="16.86243"><ele>158.75</ele></trkpt>
   <trkpt lat="48.780244" lon="16.862645"><ele>158.25</ele></trkpt>
   <trkpt lat="48.78014" lon="16.862783"><ele>158</ele></trkpt>
   <trkpt lat="48.779984" lon="16.863155"><ele>158.25</ele></trkpt>
   <trkpt lat="48.779702" lon="16.864186"><ele>158</ele></trkpt>
   <trkpt lat="48.779569" lon="16.864486"><ele>158</ele></trkpt>
   <trkpt lat="48.77941" lon="16.864647"><ele>158</ele></trkpt>
   <trkpt lat="48.779271" lon="16.864712"><ele>158</ele></trkpt>
   <trkpt lat="48.779126" lon="16.864706"><ele>158</ele></trkpt>
   <trkpt lat="48.778877" lon="16.864632"><ele>158</ele></trkpt>
   <trkpt lat="48.778644" lon="16.864578"><ele>158</ele></trkpt>
   <trkpt lat="48.778424" lon="16.864605"><ele>158</ele></trkpt>
   <trkpt lat="48.778278" lon="16.864712"><ele>158</ele></trkpt>
   <trkpt lat="48.778017" lon="16.864972"><ele>158</ele></trkpt>
   <trkpt lat="48.77778" lon="16.865069"><ele>158</ele></trkpt>
   <trkpt lat="48.777578" lon="16.865084"><ele>158</ele></trkpt>
   <trkpt lat="48.777428" lon="16.865027"><ele>158</ele></trkpt>
   <trkpt lat="48.777241" lon="16.864912"><ele>158</ele></trkpt>
   <trkpt lat="48.776979" lon="16.864559"><ele>158</ele></trkpt>
   <trkpt lat="48.776764" lon="16.864371"><ele>158</ele></trkpt>
   <trkpt lat="48.776534" lon="16.864275"><ele>158</ele></trkpt>
   <trkpt lat="48.776223" lon="16.864202"><ele>158</ele></trkpt>
   <trkpt lat="48.775702" lon="16.864125"><ele>158</ele></trkpt>
   <trkpt lat="48.775601" lon="16.864152"><ele>158</ele></trkpt>
   <trkpt lat="48.775429" lon="16.864256"><ele>158</ele></trkpt>
   <trkpt lat="48.775262" lon="16.864448"><ele>158</ele></trkpt>
   <trkpt lat="48.774894" lon="16.864849"><ele>158</ele></trkpt>
   <trkpt lat="48.774264" lon="16.865264"><ele>157.75</ele></trkpt>
   <trkpt lat="48.774171" lon="16.865343"><ele>158</ele></trkpt>
   <trkpt lat="48.774093" lon="16.86542"><ele>157.75</ele></trkpt>
   <trkpt lat="48.774028" lon="16.865498"><ele>157.75</ele></trkpt>
   <trkpt lat="48.773565" lon="16.866196"><ele>158</ele></trkpt>
   <trkpt lat="48.772654" lon="16.867526"><ele>159</ele></trkpt>
   <trkpt lat="48.772586" lon="16.867599"><ele>159</ele></trkpt>
   <trkpt lat="48.772499" lon="16.867673"><ele>159</ele></trkpt>
   <trkpt lat="48.772421" lon="16.867705"><ele>159</ele></trkpt>
   <trkpt lat="48.77234" lon="16.867714"><ele>159</ele></trkpt>
   <trkpt lat="48.772272" lon="16.867708"><ele>159</ele></trkpt>
   <trkpt lat="48.772197" lon="16.867686"><ele>159</ele></trkpt>
   <trkpt lat="48.772032" lon="16.867626"><ele>159</ele></trkpt>
   <trkpt lat="48.771734" lon="16.867447"><ele>159</ele></trkpt>
   <trkpt lat="48.771482" lon="16.867318"><ele>159</ele></trkpt>
   <trkpt lat="48.771293" lon="16.86725"><ele>159.25</ele></trkpt>
   <trkpt lat="48.770695" lon="16.867408"><ele>159.25</ele></trkpt>
   <trkpt lat="48.770513" lon="16.867573"><ele>159.5</ele></trkpt>
   <trkpt lat="48.770334" lon="16.867642"><ele>159.5</ele></trkpt>
   <trkpt lat="48.770215" lon="16.867658"><ele>159.25</ele></trkpt>
   <trkpt lat="48.770063" lon="16.867635"><ele>158.5</ele></trkpt>
   <trkpt lat="48.769924" lon="16.8676"><ele>158.25</ele></trkpt>
   <trkpt lat="48.769738" lon="16.867527"><ele>158</ele></trkpt>
   <trkpt lat="48.76966" lon="16.867496"><ele>158</ele></trkpt>
   <trkpt lat="48.769436" lon="16.867497"><ele>158</ele></trkpt>
   <trkpt lat="48.769014" lon="16.86762"><ele>159</ele></trkpt>
   <trkpt lat="48.768751" lon="16.867727"><ele>159</ele></trkpt>
   <trkpt lat="48.768238" lon="16.867899"><ele>159</ele></trkpt>
   <trkpt lat="48.76793" lon="16.868087"><ele>159</ele></trkpt>
   <trkpt lat="48.767585" lon="16.868333"><ele>159.5</ele></trkpt>
   <trkpt lat="48.767382" lon="16.868498"><ele>159</ele></trkpt>
   <trkpt lat="48.767045" lon="16.869069"><ele>158.5</ele></trkpt>
   <trkpt lat="48.76684" lon="16.869377"><ele>158.25</ele></trkpt>
   <trkpt lat="48.766686" lon="16.869485"><ele>158</ele></trkpt>
   <trkpt lat="48.765609" lon="16.869999"><ele>158.75</ele></trkpt>
   <trkpt lat="48.765061" lon="16.870285"><ele>158.75</ele></trkpt>
   <trkpt lat="48.764884" lon="16.870347"><ele>159</ele></trkpt>
   <trkpt lat="48.764752" lon="16.870407"><ele>159</ele></trkpt>
   <trkpt lat="48.764559" lon="16.870424"><ele>159</ele></trkpt>
   <trkpt lat="48.764305" lon="16.870359"><ele>158.25</ele></trkpt>
   <trkpt lat="48.764058" lon="16.870245"><ele>158</ele></trkpt>
   <trkpt lat="48.763868" lon="16.870202"><ele>158</ele></trkpt>
   <trkpt lat="48.763764" lon="16.870213"><ele>158</ele></trkpt>
   <trkpt lat="48.763327" lon="16.870418"><ele>159.5</ele></trkpt>
   <trkpt lat="48.76315" lon="16.870528"><ele>159.5</ele></trkpt>
   <trkpt lat="48.763096" lon="16.870577"><ele>159.75</ele></trkpt>
   <trkpt lat="48.763043" lon="16.870641"><ele>160</ele></trkpt>
   <trkpt lat="48.762933" lon="16.870899"><ele>159.5</ele></trkpt>
   <trkpt lat="48.762871" lon="16.871088"><ele>158.25</ele></trkpt>
   <trkpt lat="48.762697" lon="16.871595"><ele>159</ele></trkpt>
   <trkpt lat="48.762529" lon="16.872121"><ele>158</ele></trkpt>
   <trkpt lat="48.762373" lon="16.872795"><ele>158</ele></trkpt>
   <trkpt lat="48.762219" lon="16.873194"><ele>158</ele></trkpt>
   <trkpt lat="48.762026" lon="16.873436"><ele>158.25</ele></trkpt>
   <trkpt lat="48.761978" lon="16.873456"><ele>158.25</ele></trkpt>
   <trkpt lat="48.761892" lon="16.873464"><ele>158.25</ele></trkpt>
   <trkpt lat="48.76173" lon="16.873454"><ele>158.25</ele></trkpt>
   <trkpt lat="48.761632" lon="16.873439"><ele>158.25</ele></trkpt>
   <trkpt lat="48.761589" lon="16.873478"><ele>158</ele></trkpt>
   <trkpt lat="48.761521" lon="16.873589"><ele>158.25</ele></trkpt>
   <trkpt lat="48.761146" lon="16.874188"><ele>159</ele></trkpt>
   <trkpt lat="48.761044" lon="16.874341"><ele>159</ele></trkpt>
   <trkpt lat="48.760859" lon="16.874568"><ele>159</ele></trkpt>
   <trkpt lat="48.760799" lon="16.87464"><ele>159</ele></trkpt>
   <trkpt lat="48.760798" lon="16.874718"><ele>158.75</ele></trkpt>
   <trkpt lat="48.76079" lon="16.874753"><ele>159</ele></trkpt>
   <trkpt lat="48.760623" lon="16.875031"><ele>159</ele></trkpt>
   <trkpt lat="48.760454" lon="16.875425"><ele>160.5</ele></trkpt>
   <trkpt lat="48.760404" lon="16.875599"><ele>161</ele></trkpt>
   <trkpt lat="48.760386" lon="16.875733"><ele>162</ele></trkpt>
   <trkpt lat="48.760385" lon="16.875897"><ele>162.5</ele></trkpt>
   <trkpt lat="48.760382" lon="16.875964"><ele>162.5</ele></trkpt>
   <trkpt lat="48.760374" lon="16.876002"><ele>162.25</ele></trkpt>
   <trkpt lat="48.760355" lon="16.876029"><ele>162.25</ele></trkpt>
   <trkpt lat="48.760254" lon="16.876092"><ele>161.75</ele></trkpt>
   <trkpt lat="48.76025" lon="16.876095"><ele>161.75</ele></trkpt>
   <trkpt lat="48.760252" lon="16.876192"><ele>161.5</ele></trkpt>
   <trkpt lat="48.760236" lon="16.876736"><ele>160.5</ele></trkpt>
   <trkpt lat="48.760372" lon="16.877109"><ele>159</ele></trkpt>
   <trkpt lat="48.760387" lon="16.87715"><ele>158.75</ele></trkpt>
   <trkpt lat="48.760446" lon="16.877343"><ele>158.25</ele></trkpt>
   <trkpt lat="48.760475" lon="16.877475"><ele>158.5</ele></trkpt>
   <trkpt lat="48.760404" lon="16.877865"><ele>159.5</ele></trkpt>
   <trkpt lat="48.760367" lon="16.877988"><ele>159</ele></trkpt>
   <trkpt lat="48.760302" lon="16.878131"><ele>159</ele></trkpt>
   <trkpt lat="48.760215" lon="16.878286"><ele>158</ele></trkpt>
   <trkpt lat="48.760148" lon="16.878406"><ele>158</ele></trkpt>
   <trkpt lat="48.760144" lon="16.878519"><ele>158.25</ele></trkpt>
   <trkpt lat="48.760095" lon="16.878832"><ele>159.25</ele></trkpt>
   <trkpt lat="48.759996" lon="16.878922"><ele>159.75</ele></trkpt>
   <trkpt lat="48.75982" lon="16.87908"><ele>159</ele></trkpt>
   <trkpt lat="48.759737" lon="16.879155"><ele>159.75</ele></trkpt>
   <trkpt lat="48.759697" lon="16.879211"><ele>159.75</ele></trkpt>
   <trkpt lat="48.759668" lon="16.879263"><ele>159.5</ele></trkpt>
   <trkpt lat="48.75964" lon="16.879337"><ele>159.5</ele></trkpt>
   <trkpt lat="48.75955" lon="16.879679"><ele>159.5</ele></trkpt>
   <trkpt lat="48.759454" lon="16.88002"><ele>160</ele></trkpt>
   <trkpt lat="48.759434" lon="16.880096"><ele>160</ele></trkpt>
   <trkpt lat="48.759408" lon="16.880199"><ele>160</ele></trkpt>
   <trkpt lat="48.759341" lon="16.880149"><ele>160</ele></trkpt>
   <trkpt lat="48.759315" lon="16.880236"><ele>160</ele></trkpt>
   <trkpt lat="48.75929" lon="16.880218"><ele>160</ele></trkpt>
   <trkpt lat="48.759236" lon="16.880173"><ele>160</ele></trkpt>
   <trkpt lat="48.759179" lon="16.880133"><ele>159.75</ele></trkpt>
   <trkpt lat="48.759111" lon="16.880166"><ele>160</ele></trkpt>
   <trkpt lat="48.759133" lon="16.880304"><ele>160</ele></trkpt>
   <trkpt lat="48.759175" lon="16.88043"><ele>160</ele></trkpt>
   <trkpt lat="48.759212" lon="16.880682"><ele>160</ele></trkpt>
   <trkpt lat="48.759234" lon="16.880903"><ele>160</ele></trkpt>
   <trkpt lat="48.759237" lon="16.880929"><ele>160</ele></trkpt>
   <trkpt lat="48.759253" lon="16.881203"><ele>160</ele></trkpt>
   <trkpt lat="48.759248" lon="16.881402"><ele>159.75</ele></trkpt>
   <trkpt lat="48.759228" lon="16.881592"><ele>159.25</ele></trkpt>
   <trkpt lat="48.759191" lon="16.881754"><ele>159.25</ele></trkpt>
   <trkpt lat="48.759135" lon="16.881967"><ele>160</ele></trkpt>
   <trkpt lat="48.759067" lon="16.882059"><ele>160</ele></trkpt>
   <trkpt lat="48.758955" lon="16.882267"><ele>160</ele></trkpt>
   <trkpt lat="48.75841" lon="16.883267"><ele>159.25</ele></trkpt>
   <trkpt lat="48.758355" lon="16.883368"><ele>159</ele></trkpt>
   <trkpt lat="48.758213" lon="16.883636"><ele>159</ele></trkpt>
   <trkpt lat="48.758158" lon="16.883753"><ele>159</ele></trkpt>
   <trkpt lat="48.758066" lon="16.883984"><ele>158.75</ele></trkpt>
   <trkpt lat="48.757971" lon="16.884286"><ele>159</ele></trkpt>
   <trkpt lat="48.757899" lon="16.884629"><ele>159.5</ele></trkpt>
   <trkpt lat="48.757883" lon="16.88474"><ele>159.75</ele></trkpt>
   <trkpt lat="48.757866" lon="16.88487"><ele>159.5</ele></trkpt>
   <trkpt lat="48.757854" lon="16.884965"><ele>159.5</ele></trkpt>
   <trkpt lat="48.757803" lon="16.885477"><ele>159.5</ele></trkpt>
   <trkpt lat="48.757769" lon="16.885818"><ele>159.5</ele></trkpt>
   <trkpt lat="48.757742" lon="16.886022"><ele>159.5</ele></trkpt>
   <trkpt lat="48.757734" lon="16.886069"><ele>159.75</ele></trkpt>
   <trkpt lat="48.757716" lon="16.886149"><ele>159.75</ele></trkpt>
   <trkpt lat="48.75768" lon="16.886239"><ele>159.5</ele></trkpt>
   <trkpt lat="48.757516" lon="16.886467"><ele>159</ele></trkpt>
   <trkpt lat="48.757483" lon="16.886511"><ele>159</ele></trkpt>
   <trkpt lat="48.757143" lon="16.887013"><ele>159</ele></trkpt>
   <trkpt lat="48.756765" lon="16.887644"><ele>158.5</ele></trkpt>
   <trkpt lat="48.756563" lon="16.888019"><ele>158.25</ele></trkpt>
   <trkpt lat="48.756328" lon="16.88851"><ele>158</ele></trkpt>
   <trkpt lat="48.755966" lon="16.889327"><ele>158</ele></trkpt>
   <trkpt lat="48.755874" lon="16.88954"><ele>158</ele></trkpt>
   <trkpt lat="48.755834" lon="16.889618"><ele>157.75</ele></trkpt>
   <trkpt lat="48.755752" lon="16.889732"><ele>158</ele></trkpt>
   <trkpt lat="48.755695" lon="16.889785"><ele>158</ele></trkpt>
   <trkpt lat="48.755565" lon="16.889856"><ele>157.75</ele></trkpt>
   <trkpt lat="48.754651" lon="16.890265"><ele>158.25</ele></trkpt>
   <trkpt lat="48.754664" lon="16.890325"><ele>158</ele></trkpt>
   <trkpt lat="48.754697" lon="16.890465"><ele>158</ele></trkpt>
   <trkpt lat="48.754743" lon="16.890685"><ele>157.25</ele></trkpt>
   <trkpt lat="48.754786" lon="16.890777"><ele>157</ele></trkpt>
   <trkpt lat="48.754849" lon="16.890906"><ele>157</ele></trkpt>
   <trkpt lat="48.754897" lon="16.890966"><ele>157.5</ele></trkpt>
   <trkpt lat="48.754937" lon="16.891017"><ele>157.5</ele></trkpt>
   <trkpt lat="48.754993" lon="16.891087"><ele>157.75</ele></trkpt>
   <trkpt lat="48.755128" lon="16.891212"><ele>158</ele></trkpt>
   <trkpt lat="48.7551" lon="16.891271"><ele>158</ele></trkpt>
   <trkpt lat="48.754775" lon="16.891957"><ele>158</ele></trkpt>
   <trkpt lat="48.754733" lon="16.892047"><ele>157.75</ele></trkpt>
   <trkpt lat="48.754691" lon="16.89214"><ele>158</ele></trkpt>
   <trkpt lat="48.754668" lon="16.892194"><ele>158</ele></trkpt>
   <trkpt lat="48.754571" lon="16.892372"><ele>158.75</ele></trkpt>
  </trkseg>
 </trk>
</gpx>