<?xml version="1.0" encoding="UTF-8"?>
<!-- track-length = 44643 filtered ascend = 74 plain-ascend = -19 cost=49365 energy=0.2kwh time=2h 8m 5s -->
<gpx
 xmlns="http://www.topografix.com/GPX/1/1"
 xmlns:xsi="http://www.w3.org/2001/XMLSchema-instance"
 xsi:schemaLocation="http://www.topografix.com/GPX/1/1 http://www.topografix.com/GPX/1/1/gpx.xsd"
 version="1.1"
 creator="bikerouter.de 2026.30">
 <wpt lat="49.299291" lon="17.393345"><name>Kroměříž</name></wpt>
 <wpt lat="49.429553" lon="17.289557"><name>Tovačov Castle</name></wpt>
 <wpt lat="49.355913" lon="17.365276"><name>Chropyně Castle</name></wpt>
 <trk>
  <name>Olomouc - Kroměříž - 44,6 km, elev. gain 74 m</name>
  <link href="https://bikerouter.de/#map=11/49.4465/17.3213/standard&amp;lonlats=17.253293,49.59401;17.250405,49.593521;17.250898,49.590364;17.242913,49.524688;17.289557,49.42955;17.361765,49.358523;17.393345,49.299295&amp;pois=17.393345,49.299291,Krom%C4%9B%C5%99%C3%AD%C5%BE;17.289557,49.429553,Tova%C4%8Dov+Castle;17.365276,49.355913,Chropyn%C4%9B+Castle&amp;profile=trekking">
   <text>bikerouter.de</text>
  </link>
  <trkseg>
   <trkpt lat="49.594004" lon="17.253291"><ele>226.5</ele></trkpt>
   <trkpt lat="49.594005" lon="17.253288"><ele>226.5</ele></trkpt>
   <trkpt lat="49.594069" lon="17.253013"><ele>223</ele></trkpt>
   <trkpt lat="49.594083" lon="17.252951"><ele>222.75</ele></trkpt>
   <trkpt lat="49.59409" lon="17.25287"><ele>222.25</ele></trkpt>
   <trkpt lat="49.59412" lon="17.25276"><ele>221.75</ele></trkpt>
   <trkpt lat="49.594141" lon="17.252716"><ele>221.75</ele></trkpt>
   <trkpt lat="49.594152" lon="17.252693"><ele>221.5</ele></trkpt>
   <trkpt lat="49.594033" lon="17.252558"><ele>221</ele></trkpt>
   <trkpt lat="49.594014" lon="17.252536"><ele>221</ele></trkpt>
   <trkpt lat="49.593898" lon="17.252334"><ele>220.25</ele></trkpt>
   <trkpt lat="49.593812" lon="17.252128"><ele>219.75</ele></trkpt>
   <trkpt lat="49.594015" lon="17.251996"><ele>219</ele></trkpt>
   <trkpt lat="49.594234" lon="17.251881"><ele>219</ele></trkpt>
   <trkpt lat="49.594284" lon="17.251838"><ele>219</ele></trkpt>
   <trkpt lat="49.594302" lon="17.251799"><ele>219</ele></trkpt>
   <trkpt lat="49.594315" lon="17.251745"><ele>219</ele></trkpt>
   <trkpt lat="49.594324" lon="17.251609"><ele>218.75</ele></trkpt>
   <trkpt lat="49.594303" lon="17.251252"><ele>218</ele></trkpt>
   <trkpt lat="49.594281" lon="17.251024"><ele>218</ele></trkpt>
   <trkpt lat="49.594259" lon="17.250864"><ele>218</ele></trkpt>
   <trkpt lat="49.594203" lon="17.250498"><ele>217</ele></trkpt>
   <trkpt lat="49.594154" lon="17.250289"><ele>217</ele></trkpt>
   <trkpt lat="49.594098" lon="17.250186"><ele>217</ele></trkpt>
   <trkpt lat="49.594064" lon="17.250149"><ele>217</ele></trkpt>
   <trkpt lat="49.594031" lon="17.250128"><ele>217</ele></trkpt>
   <trkpt lat="49.593984" lon="17.250122"><ele>217.25</ele></trkpt>
   <trkpt lat="49.593937" lon="17.250137"><ele>217.25</ele></trkpt>
   <trkpt lat="49.593906" lon="17.250162"><ele>217.5</ele></trkpt>
   <trkpt lat="49.593861" lon="17.250198"><ele>217.5</ele></trkpt>
   <trkpt lat="49.593719" lon="17.250346"><ele>217.75</ele></trkpt>
   <trkpt lat="49.593668" lon="17.250248"><ele>217.75</ele></trkpt>
   <trkpt lat="49.59352" lon="17.250402"><ele>217.25</ele></trkpt>
   <trkpt lat="49.593451" lon="17.250475"><ele>217.25</ele></trkpt>
   <trkpt lat="49.593502" lon="17.250589"><ele>217</ele></trkpt>
   <trkpt lat="49.593203" lon="17.250902"><ele>217</ele></trkpt>
   <trkpt lat="49.593186" lon="17.250947"><ele>217</ele></trkpt>
   <trkpt lat="49.593179" lon="17.251005"><ele>217</ele></trkpt>
   <trkpt lat="49.593128" lon="17.251001"><ele>217</ele></trkpt>
   <trkpt lat="49.593072" lon="17.250979"><ele>217</ele></trkpt>
   <trkpt lat="49.593009" lon="17.25094"><ele>216.75</ele></trkpt>
   <trkpt lat="49.592982" lon="17.250919"><ele>216.75</ele></trkpt>
   <trkpt lat="49.592657" lon="17.250665"><ele>216</ele></trkpt>
   <trkpt lat="49.592422" lon="17.250455"><ele>215.25</ele></trkpt>
   <trkpt lat="49.592209" lon="17.250243"><ele>214.75</ele></trkpt>
   <trkpt lat="49.592118" lon="17.250133"><ele>214.75</ele></trkpt>
   <trkpt lat="49.592083" lon="17.250178"><ele>214.5</ele></trkpt>
   <trkpt lat="49.591634" lon="17.250751"><ele>213</ele></trkpt>
   <trkpt lat="49.591616" lon="17.250812"><ele>213</ele></trkpt>
   <trkpt lat="49.591547" lon="17.250819"><ele>213</ele></trkpt>
   <trkpt lat="49.59147" lon="17.25085"><ele>213</ele></trkpt>
   <trkpt lat="49.591298" lon="17.250978"><ele>213.25</ele></trkpt>
   <trkpt lat="49.591159" lon="17.251115"><ele>213</ele></trkpt>
   <trkpt lat="49.591009" lon="17.251287"><ele>213</ele></trkpt>
   <trkpt lat="49.591005" lon="17.251295"><ele>213</ele></trkpt>
   <trkpt lat="49.590931" lon="17.251416"><ele>213</ele></trkpt>
   <trkpt lat="49.59086" lon="17.251556"><ele>213</ele></trkpt>
   <trkpt lat="49.590855" lon="17.251576"><ele>213</ele></trkpt>
   <trkpt lat="49.590849" lon="17.251622"><ele>213</ele></trkpt>
   <trkpt lat="49.590767" lon="17.251575"><ele>213</ele></trkpt>
   <trkpt lat="49.59072" lon="17.251522"><ele>213</ele></trkpt>
   <trkpt lat="49.59069" lon="17.251475"><ele>213</ele></trkpt>
   <trkpt lat="49.590676" lon="17.251453"><ele>213</ele></trkpt>
   <trkpt lat="49.590631" lon="17.25138"><ele>213</ele></trkpt>
   <trkpt lat="49.590608" lon="17.25134"><ele>213</ele></trkpt>
   <trkpt lat="49.590591" lon="17.251312"><ele>213</ele></trkpt>
   <trkpt lat="49.590568" lon="17.251273"><ele>213.25</ele></trkpt>
   <trkpt lat="49.590524" lon="17.251194"><ele>213.5</ele></trkpt>
   <trkpt lat="49.590455" lon="17.251072"><ele>214</ele></trkpt>
   <trkpt lat="49.590362" lon="17.250899"><ele>214</ele></trkpt>
   <trkpt lat="49.590207" lon="17.250606"><ele>214</ele></trkpt>
   <trkpt lat="49.590169" lon="17.250535"><ele>214</ele></trkpt>
   <trkpt lat="49.589995" lon="17.250206"><ele>214</ele></trkpt>
   <trkpt lat="49.589828" lon="17.24989"><ele>214.25</ele></trkpt>
   <trkpt lat="49.589668" lon="17.250127"><ele>214.25</ele></trkpt>
   <trkpt lat="49.589578" lon="17.250131"><ele>214.75</ele></trkpt>
   <trkpt lat="49.5894" lon="17.250171"><ele>215.25</ele></trkpt>
   <trkpt lat="49.589393" lon="17.250158"><ele>215.5</ele></trkpt>
   <trkpt lat="49.589272" lon="17.249954"><ele>215.75</ele></trkpt>
   <trkpt lat="49.589246" lon="17.249865"><ele>215.5</ele></trkpt>
   <trkpt lat="49.589064" lon="17.24965"><ele>214.5</ele></trkpt>
   <trkpt lat="49.589021" lon="17.249575"><ele>214.25</ele></trkpt>
   <trkpt lat="49.588914" lon="17.249343"><ele>214</ele></trkpt>
   <trkpt lat="49.588857" lon="17.249263"><ele>213.75</ele></trkpt>
   <trkpt lat="49.588818" lon="17.249229"><ele>213.5</ele></trkpt>
   <trkpt lat="49.588595" lon="17.249079"><ele>212.75</ele></trkpt>
   <trkpt lat="49.588491" lon="17.249029"><ele>212.5</ele></trkpt>
   <trkpt lat="49.588448" lon="17.249"><ele>212.25</ele></trkpt>
   <trkpt lat="49.588285" lon="17.248857"><ele>211.75</ele></trkpt>
   <trkpt lat="49.588027" lon="17.248811"><ele>212</ele></trkpt>
   <trkpt lat="49.587634" lon="17.248787"><ele>212</ele></trkpt>
   <trkpt lat="49.587542" lon="17.248793"><ele>212</ele></trkpt>
   <trkpt lat="49.587439" lon="17.248816"><ele>212</ele></trkpt>
   <trkpt lat="49.587352" lon="17.248796"><ele>212</ele></trkpt>
   <trkpt lat="49.587127" lon="17.248816"><ele>212</ele></trkpt>
   <trkpt lat="49.587012" lon="17.248802"><ele>211.75</ele></trkpt>
   <trkpt lat="49.586489" lon="17.248869"><ele>212</ele></trkpt>
   <trkpt lat="49.586084" lon="17.248931"><ele>212</ele></trkpt>
   <trkpt lat="49.586028" lon="17.248939"><ele>212</ele></trkpt>
   <trkpt lat="49.585991" lon="17.248945"><ele>212</ele></trkpt>
   <trkpt lat="49.58586" lon="17.248974"><ele>212</ele></trkpt>
   <trkpt lat="49.585801" lon="17.24898"><ele>212</ele></trkpt>
   <trkpt lat="49.585784" lon="17.248965"><ele>212</ele></trkpt>
   <trkpt lat="49.585767" lon="17.248969"><ele>212</ele></trkpt>
   <trkpt lat="49.585707" lon="17.248982"><ele>212</ele></trkpt>
   <trkpt lat="49.585455" lon="17.249031"><ele>212</ele></trkpt>
   <trkpt lat="49.585371" lon="17.249047"><ele>212</ele></trkpt>
   <trkpt lat="49.585338" lon="17.249053"><ele>212</ele></trkpt>
   <trkpt lat="49.585174" lon="17.24909"><ele>212</ele></trkpt>
   <trkpt lat="49.585148" lon="17.249094"><ele>212</ele></trkpt>
   <trkpt lat="49.585143" lon="17.24905"><ele>212</ele></trkpt>
   <trkpt lat="49.585127" lon="17.248991"><ele>212</ele></trkpt>
   <trkpt lat="49.585119" lon="17.24895"><ele>212</ele></trkpt>
   <trkpt lat="49.585081" lon="17.2485"><ele>212</ele></trkpt>
   <trkpt lat="49.58505" lon="17.248129"><ele>211.75</ele></trkpt>
   <trkpt lat="49.585044" lon="17.248113"><ele>212</ele></trkpt>
   <trkpt lat="49.585034" lon="17.248107"><ele>212</ele></trkpt>
   <trkpt lat="49.584974" lon="17.248093"><ele>211.75</ele></trkpt>
   <trkpt lat="49.584891" lon="17.248105"><ele>211.5</ele></trkpt>
   <trkpt lat="49.584282" lon="17.248213"><ele>211</ele></trkpt>
   <trkpt lat="49.582984" lon="17.248329"><ele>211.25</ele></trkpt>
   <trkpt lat="49.582931" lon="17.248334"><ele>211.25</ele></trkpt>
   <trkpt lat="49.582868" lon="17.24834"><ele>211.5</ele></trkpt>
   <trkpt lat="49.582632" lon="17.248363"><ele>211.25</ele></trkpt>
   <trkpt lat="49.582566" lon="17.24837"><ele>211</ele></trkpt>
   <trkpt lat="49.582423" lon="17.248382"><ele>211.25</ele></trkpt>
   <trkpt lat="49.582387" lon="17.248392"><ele>211.25</ele></trkpt>
   <trkpt lat="49.582364" lon="17.248407"><ele>211.25</ele></trkpt>
   <trkpt lat="49.582343" lon="17.248445"><ele>211.5</ele></trkpt>
   <trkpt lat="49.582168" lon="17.24921"><ele>211</ele></trkpt>
   <trkpt lat="49.58215" lon="17.249233"><ele>211</ele></trkpt>
   <trkpt lat="49.582088" lon="17.249279"><ele>211</ele></trkpt>
   <trkpt lat="49.581875" lon="17.249175"><ele>211</ele></trkpt>
   <trkpt lat="49.581768" lon="17.249103"><ele>211</ele></trkpt>
   <trkpt lat="49.581738" lon="17.24906"><ele>210.75</ele></trkpt>
   <trkpt lat="49.581707" lon="17.248995"><ele>211</ele></trkpt>
   <trkpt lat="49.581694" lon="17.248982"><ele>211</ele></trkpt>
   <trkpt lat="49.581682" lon="17.248982"><ele>211</ele></trkpt>
   <trkpt lat="49.581663" lon="17.248997"><ele>211</ele></trkpt>
   <trkpt lat="49.581645" lon="17.249008"><ele>211</ele></trkpt>
   <trkpt lat="49.581623" lon="17.249022"><ele>211</ele></trkpt>
   <trkpt lat="49.581593" lon="17.249011"><ele>211</ele></trkpt>
   <trkpt lat="49.581568" lon="17.248999"><ele>211</ele></trkpt>
   <trkpt lat="49.581524" lon="17.248979"><ele>211.25</ele></trkpt>
   <trkpt lat="49.581491" lon="17.248963"><ele>211.25</ele></trkpt>
   <trkpt lat="49.581475" lon="17.248956"><ele>211.5</ele></trkpt>
   <trkpt lat="49.581411" lon="17.248926"><ele>211.75</ele></trkpt>
   <trkpt lat="49.58137" lon="17.248908"><ele>211.75</ele></trkpt>
   <trkpt lat="49.581335" lon="17.248893"><ele>211.75</ele></trkpt>
   <trkpt lat="49.581324" lon="17.248895"><ele>211.75</ele></trkpt>
   <trkpt lat="49.581317" lon="17.248882"><ele>212</ele></trkpt>
   <trkpt lat="49.581301" lon="17.248851"><ele>212</ele></trkpt>
   <trkpt lat="49.581284" lon="17.248818"><ele>212</ele></trkpt>
   <trkpt lat="49.581272" lon="17.248794"><ele>212</ele></trkpt>
   <trkpt lat="49.581254" lon="17.248755"><ele>212</ele></trkpt>
   <trkpt lat="49.581214" lon="17.24879"><ele>212</ele></trkpt>
   <trkpt lat="49.581154" lon="17.24884"><ele>212</ele></trkpt>
   <trkpt lat="49.581117" lon="17.248856"><ele>211.75</ele></trkpt>
   <trkpt lat="49.581074" lon="17.248853"><ele>211.75</ele></trkpt>
   <trkpt lat="49.580838" lon="17.24881"><ele>211</ele></trkpt>
   <trkpt lat="49.580292" lon="17.248739"><ele>211</ele></trkpt>
   <trkpt lat="49.580046" lon="17.248652"><ele>211</ele></trkpt>
   <trkpt lat="49.579988" lon="17.248661"><ele>210.75</ele></trkpt>
   <trkpt lat="49.579911" lon="17.248713"><ele>210.5</ele></trkpt>
   <trkpt lat="49.579866" lon="17.248721"><ele>210.5</ele></trkpt>
   <trkpt lat="49.579692" lon="17.248699"><ele>210</ele></trkpt>
   <trkpt lat="49.579643" lon="17.248678"><ele>210</ele></trkpt>
   <trkpt lat="49.579611" lon="17.248656"><ele>210</ele></trkpt>
   <trkpt lat="49.579568" lon="17.248605"><ele>210</ele></trkpt>
   <trkpt lat="49.579549" lon="17.248575"><ele>210</ele></trkpt>
   <trkpt lat="49.579518" lon="17.248569"><ele>210</ele></trkpt>
   <trkpt lat="49.579494" lon="17.248566"><ele>210</ele></trkpt>
   <trkpt lat="49.579464" lon="17.248601"><ele>210</ele></trkpt>
   <trkpt lat="49.579373" lon="17.248639"><ele>210</ele></trkpt>
   <trkpt lat="49.579327" lon="17.248639"><ele>210</ele></trkpt>
   <trkpt lat="49.578051" lon="17.248478"><ele>210</ele></trkpt>
   <trkpt lat="49.578018" lon="17.248468"><ele>210</ele></trkpt>
   <trkpt lat="49.577993" lon="17.248445"><ele>210</ele></trkpt>
   <trkpt lat="49.577966" lon="17.248379"><ele>210</ele></trkpt>
   <trkpt lat="49.577958" lon="17.248378"><ele>210</ele></trkpt>
   <trkpt lat="49.577922" lon="17.248376"><ele>210</ele></trkpt>
   <trkpt lat="49.577898" lon="17.248374"><ele>210</ele></trkpt>
   <trkpt lat="49.577882" lon="17.248372"><ele>210</ele></trkpt>
   <trkpt lat="49.577817" lon="17.248428"><ele>210.25</ele></trkpt>
   <trkpt lat="49.577757" lon="17.248452"><ele>210.25</ele></trkpt>
   <trkpt lat="49.577481" lon="17.248418"><ele>210.25</ele></trkpt>
   <trkpt lat="49.577088" lon="17.248365"><ele>210.5</ele></trkpt>
   <trkpt lat="49.576943" lon="17.248329"><ele>210.75</ele></trkpt>
   <trkpt lat="49.576927" lon="17.248326"><ele>210.75</ele></trkpt>
   <trkpt lat="49.576882" lon="17.248313"><ele>210.75</ele></trkpt>
   <trkpt lat="49.576834" lon="17.248232"><ele>210.5</ele></trkpt>
   <trkpt lat="49.576803" lon="17.248217"><ele>210.25</ele></trkpt>
   <trkpt lat="49.576774" lon="17.248226"><ele>210.25</ele></trkpt>
   <trkpt lat="49.57675" lon="17.248233"><ele>210.25</ele></trkpt>
   <trkpt lat="49.576717" lon="17.248243"><ele>210</ele></trkpt>
   <trkpt lat="49.576682" lon="17.248254"><ele>210</ele></trkpt>
   <trkpt lat="49.576656" lon="17.248262"><ele>210</ele></trkpt>
   <trkpt lat="49.576638" lon="17.248267"><ele>210</ele></trkpt>
   <trkpt lat="49.576621" lon="17.248255"><ele>210</ele></trkpt>
   <trkpt lat="49.576606" lon="17.248244"><ele>210</ele></trkpt>
   <trkpt lat="49.576586" lon="17.24823"><ele>210</ele></trkpt>
   <trkpt lat="49.576488" lon="17.24813"><ele>210.25</ele></trkpt>
   <trkpt lat="49.576465" lon="17.248111"><ele>210.5</ele></trkpt>
   <trkpt lat="49.576445" lon="17.248115"><ele>210.5</ele></trkpt>
   <trkpt lat="49.576433" lon="17.24813"><ele>210.5</ele></trkpt>
   <trkpt lat="49.576425" lon="17.248162"><ele>210.5</ele></trkpt>
   <trkpt lat="49.576422" lon="17.248172"><ele>210.5</ele></trkpt>
   <trkpt lat="49.576417" lon="17.248198"><ele>210.25</ele></trkpt>
   <trkpt lat="49.576408" lon="17.248242"><ele>210.25</ele></trkpt>
   <trkpt lat="49.576404" lon="17.248267"><ele>210</ele></trkpt>
   <trkpt lat="49.576403" lon="17.248275"><ele>210</ele></trkpt>
   <trkpt lat="49.5764" lon="17.248293"><ele>210</ele></trkpt>
   <trkpt lat="49.576258" lon="17.248257"><ele>210</ele></trkpt>
   <trkpt lat="49.575409" lon="17.24816"><ele>210</ele></trkpt>
   <trkpt lat="49.575244" lon="17.248114"><ele>210</ele></trkpt>
   <trkpt lat="49.574842" lon="17.24807"><ele>210</ele></trkpt>
   <trkpt lat="49.574517" lon="17.248032"><ele>210</ele></trkpt>
   <trkpt lat="49.574383" lon="17.247996"><ele>210</ele></trkpt>
   <trkpt lat="49.573723" lon="17.247936"><ele>209.5</ele></trkpt>
   <trkpt lat="49.57368" lon="17.247918"><ele>209.5</ele></trkpt>
   <trkpt lat="49.573661" lon="17.24792"><ele>209.5</ele></trkpt>
   <trkpt lat="49.573646" lon="17.247944"><ele>209.5</ele></trkpt>
   <trkpt lat="49.573641" lon="17.247974"><ele>209.5</ele></trkpt>
   <trkpt lat="49.573639" lon="17.247996"><ele>209.75</ele></trkpt>
   <trkpt lat="49.573636" lon="17.248059"><ele>210</ele></trkpt>
   <trkpt lat="49.573632" lon="17.248126"><ele>210</ele></trkpt>
   <trkpt lat="49.57363" lon="17.248167"><ele>210</ele></trkpt>
   <trkpt lat="49.573523" lon="17.248139"><ele>210</ele></trkpt>
   <trkpt lat="49.573338" lon="17.248118"><ele>210</ele></trkpt>
   <trkpt lat="49.57312" lon="17.248093"><ele>210</ele></trkpt>
   <trkpt lat="49.572819" lon="17.248059"><ele>209.75</ele></trkpt>
   <trkpt lat="49.572728" lon="17.248048"><ele>209.75</ele></trkpt>
   <trkpt lat="49.572652" lon="17.248039"><ele>209.75</ele></trkpt>
   <trkpt lat="49.572453" lon="17.248016"><ele>209.75</ele></trkpt>
   <trkpt lat="49.572311" lon="17.248001"><ele>209.75</ele></trkpt>
   <trkpt lat="49.572144" lon="17.247983"><ele>210</ele></trkpt>
   <trkpt lat="49.571427" lon="17.247899"><ele>210.25</ele></trkpt>
   <trkpt lat="49.571008" lon="17.247853"><ele>210.25</ele></trkpt>
   <trkpt lat="49.57044" lon="17.247776"><ele>210.5</ele></trkpt>
   <trkpt lat="49.570399" lon="17.247788"><ele>210.25</ele></trkpt>
   <trkpt lat="49.570385" lon="17.247818"><ele>210.25</ele></trkpt>
   <trkpt lat="49.570375" lon="17.247861"><ele>210</ele></trkpt>
   <trkpt lat="49.570337" lon="17.24817"><ele>209.25</ele></trkpt>
   <trkpt lat="49.570322" lon="17.248274"><ele>209</ele></trkpt>
   <trkpt lat="49.570307" lon="17.248302"><ele>209</ele></trkpt>
   <trkpt lat="49.570289" lon="17.248309"><ele>209</ele></trkpt>
   <trkpt lat="49.570251" lon="17.24832"><ele>209</ele></trkpt>
   <trkpt lat="49.57024" lon="17.248323"><ele>209</ele></trkpt>
   <trkpt lat="49.570235" lon="17.248324"><ele>209</ele></trkpt>
   <trkpt lat="49.570199" lon="17.248334"><ele>209</ele></trkpt>
   <trkpt lat="49.570185" lon="17.248338"><ele>209</ele></trkpt>
   <trkpt lat="49.570189" lon="17.248364"><ele>209</ele></trkpt>
   <trkpt lat="49.570202" lon="17.248429"><ele>209</ele></trkpt>
   <trkpt lat="49.570234" lon="17.248692"><ele>209</ele></trkpt>
   <trkpt lat="49.570242" lon="17.248854"><ele>209</ele></trkpt>
   <trkpt lat="49.570248" lon="17.248954"><ele>208.75</ele></trkpt>
   <trkpt lat="49.570199" lon="17.248935"><ele>209</ele></trkpt>
   <trkpt lat="49.57015" lon="17.248915"><ele>209</ele></trkpt>
   <trkpt lat="49.56977" lon="17.248711"><ele>209</ele></trkpt>
   <trkpt lat="49.569147" lon="17.248335"><ele>209.75</ele></trkpt>
   <trkpt lat="49.568977" lon="17.248232"><ele>209.5</ele></trkpt>
   <trkpt lat="49.568859" lon="17.248161"><ele>209.5</ele></trkpt>
   <trkpt lat="49.568792" lon="17.248121"><ele>209.75</ele></trkpt>
   <trkpt lat="49.568765" lon="17.248106"><ele>209.75</ele></trkpt>
   <trkpt lat="49.56874" lon="17.24809"><ele>209.75</ele></trkpt>
   <trkpt lat="49.568715" lon="17.248075"><ele>209.75</ele></trkpt>
   <trkpt lat="49.568689" lon="17.24806"><ele>209.75</ele></trkpt>
   <trkpt lat="49.568663" lon="17.248044"><ele>209.75</ele></trkpt>
   <trkpt lat="49.568638" lon="17.248029"><ele>209.75</ele></trkpt>
   <trkpt lat="49.568543" lon="17.247972"><ele>209.75</ele></trkpt>
   <trkpt lat="49.56837" lon="17.247879"><ele>209.5</ele></trkpt>
   <trkpt lat="49.568252" lon="17.247831"><ele>209.5</ele></trkpt>
   <trkpt lat="49.568204" lon="17.247822"><ele>209.25</ele></trkpt>
   <trkpt lat="49.568138" lon="17.247825"><ele>209</ele></trkpt>
   <trkpt lat="49.568107" lon="17.247835"><ele>209</ele></trkpt>
   <trkpt lat="49.568011" lon="17.247911"><ele>209</ele></trkpt>
   <trkpt lat="49.567991" lon="17.247938"><ele>209</ele></trkpt>
   <trkpt lat="49.567965" lon="17.247997"><ele>209</ele></trkpt>
   <trkpt lat="49.567956" lon="17.248064"><ele>209</ele></trkpt>
   <trkpt lat="49.567961" lon="17.248113"><ele>209</ele></trkpt>
   <trkpt lat="49.567804" lon="17.248211"><ele>209</ele></trkpt>
   <trkpt lat="49.567573" lon="17.248404"><ele>208.75</ele></trkpt>
   <trkpt lat="49.567269" lon="17.248697"><ele>208.5</ele></trkpt>
   <trkpt lat="49.567158" lon="17.248811"><ele>208.25</ele></trkpt>
   <trkpt lat="49.567098" lon="17.248884"><ele>208.25</ele></trkpt>
   <trkpt lat="49.567017" lon="17.249021"><ele>208.5</ele></trkpt>
   <trkpt lat="49.566985" lon="17.249101"><ele>208.75</ele></trkpt>
   <trkpt lat="49.566898" lon="17.249361"><ele>208.25</ele></trkpt>
   <trkpt lat="49.566819" lon="17.249653"><ele>208.25</ele></trkpt>
   <trkpt lat="49.566704" lon="17.250062"><ele>209</ele></trkpt>
   <trkpt lat="49.56668" lon="17.250129"><ele>208.75</ele></trkpt>
   <trkpt lat="49.566657" lon="17.250172"><ele>209</ele></trkpt>
   <trkpt lat="49.566582" lon="17.250221"><ele>209</ele></trkpt>
   <trkpt lat="49.566266" lon="17.250371"><ele>209</ele></trkpt>
   <trkpt lat="49.566022" lon="17.25046"><ele>209</ele></trkpt>
   <trkpt lat="49.56588" lon="17.250501"><ele>209.5</ele></trkpt>
   <trkpt lat="49.565844" lon="17.250507"><ele>209.75</ele></trkpt>
   <trkpt lat="49.565708" lon="17.250557"><ele>210</ele></trkpt>
   <trkpt lat="49.565535" lon="17.250624"><ele>209.5</ele></trkpt>
   <trkpt lat="49.565083" lon="17.250741"><ele>209</ele></trkpt>
   <trkpt lat="49.564692" lon="17.250859"><ele>208.75</ele></trkpt>
   <trkpt lat="49.564579" lon="17.25087"><ele>209</ele></trkpt>
   <trkpt lat="49.564474" lon="17.25093"><ele>209</ele></trkpt>
   <trkpt lat="49.563468" lon="17.251252"><ele>208.75</ele></trkpt>
   <trkpt lat="49.563356" lon="17.251299"><ele>208.75</ele></trkpt>
   <trkpt lat="49.563114" lon="17.251432"><ele>208</ele></trkpt>
   <trkpt lat="49.562942" lon="17.251476"><ele>208</ele></trkpt>
   <trkpt lat="49.562677" lon="17.251524"><ele>208</ele></trkpt>
   <trkpt lat="49.562466" lon="17.251586"><ele>208</ele></trkpt>
   <trkpt lat="49.561901" lon="17.251793"><ele>208</ele></trkpt>
   <trkpt lat="49.561752" lon="17.251842"><ele>208.25</ele></trkpt>
   <trkpt lat="49.561554" lon="17.251893"><ele>208</ele></trkpt>
   <trkpt lat="49.5612" lon="17.251963"><ele>208.5</ele></trkpt>
   <trkpt lat="49.561052" lon="17.251977"><ele>209</ele></trkpt>
   <trkpt lat="49.560993" lon="17.251972"><ele>209</ele></trkpt>
   <trkpt lat="49.560936" lon="17.25196"><ele>209</ele></trkpt>
   <trkpt lat="49.560924" lon="17.251956"><ele>209</ele></trkpt>
   <trkpt lat="49.560905" lon="17.25195"><ele>209</ele></trkpt>
   <trkpt lat="49.560879" lon="17.25194"><ele>208.75</ele></trkpt>
   <trkpt lat="49.560754" lon="17.251873"><ele>208.75</ele></trkpt>
   <trkpt lat="49.560645" lon="17.251785"><ele>208.75</ele></trkpt>
   <trkpt lat="49.559836" lon="17.250883"><ele>208.25</ele></trkpt>
   <trkpt lat="49.559811" lon="17.250856"><ele>208.25</ele></trkpt>
   <trkpt lat="49.559786" lon="17.250831"><ele>208</ele></trkpt>
   <trkpt lat="49.559744" lon="17.250785"><ele>208</ele></trkpt>
   <trkpt lat="49.558807" lon="17.25001"><ele>208.5</ele></trkpt>
   <trkpt lat="49.558392" lon="17.249667"><ele>208.5</ele></trkpt>
   <trkpt lat="49.558356" lon="17.249637"><ele>208.5</ele></trkpt>
   <trkpt lat="49.55833" lon="17.249615"><ele>208.5</ele></trkpt>
   <trkpt lat="49.558264" lon="17.24956"><ele>208.25</ele></trkpt>
   <trkpt lat="49.557974" lon="17.249317"><ele>208.75</ele></trkpt>
   <trkpt lat="49.55789" lon="17.249256"><ele>208.75</ele></trkpt>
   <trkpt lat="49.557843" lon="17.249224"><ele>208.75</ele></trkpt>
   <trkpt lat="49.557775" lon="17.249194"><ele>208.75</ele></trkpt>
   <trkpt lat="49.557687" lon="17.249186"><ele>208.75</ele></trkpt>
   <trkpt lat="49.557628" lon="17.249184"><ele>208.75</ele></trkpt>
   <trkpt lat="49.557581" lon="17.249184"><ele>208.75</ele></trkpt>
   <trkpt lat="49.557447" lon="17.24919"><ele>209</ele></trkpt>
   <trkpt lat="49.557185" lon="17.249124"><ele>209</ele></trkpt>
   <trkpt lat="49.557136" lon="17.249113"><ele>209</ele></trkpt>
   <trkpt lat="49.55694" lon="17.249065"><ele>209.25</ele></trkpt>
   <trkpt lat="49.5569" lon="17.249041"><ele>209.25</ele></trkpt>
   <trkpt lat="49.55686" lon="17.249001"><ele>209.5</ele></trkpt>
   <trkpt lat="49.556677" lon="17.248882"><ele>210</ele></trkpt>
   <trkpt lat="49.556337" lon="17.248665"><ele>209.75</ele></trkpt>
   <trkpt lat="49.556253" lon="17.248628"><ele>209.75</ele></trkpt>
   <trkpt lat="49.556085" lon="17.248584"><ele>209.75</ele></trkpt>
   <trkpt lat="49.556" lon="17.248556"><ele>210</ele></trkpt>
   <trkpt lat="49.555918" lon="17.248517"><ele>210</ele></trkpt>
   <trkpt lat="49.555845" lon="17.248469"><ele>210</ele></trkpt>
   <trkpt lat="49.555768" lon="17.248408"><ele>210</ele></trkpt>
   <trkpt lat="49.55559" lon="17.248229"><ele>210.75</ele></trkpt>
   <trkpt lat="49.555556" lon="17.248178"><ele>210.75</ele></trkpt>
   <trkpt lat="49.555509" lon="17.248079"><ele>211</ele></trkpt>
   <trkpt lat="49.555522" lon="17.248059"><ele>211</ele></trkpt>
   <trkpt lat="49.555535" lon="17.248005"><ele>211.25</ele></trkpt>
   <trkpt lat="49.555526" lon="17.24795"><ele>211.25</ele></trkpt>
   <trkpt lat="49.555512" lon="17.247925"><ele>211.5</ele></trkpt>
   <trkpt lat="49.555472" lon="17.247901"><ele>211.75</ele></trkpt>
   <trkpt lat="49.555451" lon="17.247906"><ele>211.75</ele></trkpt>
   <trkpt lat="49.555417" lon="17.247946"><ele>211.75</ele></trkpt>
   <trkpt lat="49.555408" lon="17.247977"><ele>211.75</ele></trkpt>
   <trkpt lat="49.555413" lon="17.248042"><ele>211.5</ele></trkpt>
   <trkpt lat="49.555371" lon="17.24807"><ele>211.5</ele></trkpt>
   <trkpt lat="49.555317" lon="17.248108"><ele>211.75</ele></trkpt>
   <trkpt lat="49.555267" lon="17.248147"><ele>212</ele></trkpt>
   <trkpt lat="49.555254" lon="17.248156"><ele>212</ele></trkpt>
   <trkpt lat="49.555237" lon="17.248168"><ele>212</ele></trkpt>
   <trkpt lat="49.555209" lon="17.248187"><ele>212.25</ele></trkpt>
   <trkpt lat="49.555039" lon="17.248298"><ele>212.75</ele></trkpt>
   <trkpt lat="49.554895" lon="17.248377"><ele>213</ele></trkpt>
   <trkpt lat="49.554396" lon="17.248575"><ele>212</ele></trkpt>
   <trkpt lat="49.554317" lon="17.248614"><ele>211.75</ele></trkpt>
   <trkpt lat="49.554062" lon="17.248764"><ele>212</ele></trkpt>
   <trkpt lat="49.553865" lon="17.248903"><ele>211.75</ele></trkpt>
   <trkpt lat="49.553726" lon="17.249032"><ele>211.25</ele></trkpt>
   <trkpt lat="49.553097" lon="17.249714"><ele>210</ele></trkpt>
   <trkpt lat="49.553053" lon="17.249775"><ele>209.75</ele></trkpt>
   <trkpt lat="49.553038" lon="17.249839"><ele>209.5</ele></trkpt>
   <trkpt lat="49.553001" lon="17.249839"><ele>209.5</ele></trkpt>
   <trkpt lat="49.552949" lon="17.249858"><ele>209.5</ele></trkpt>
   <trkpt lat="49.552874" lon="17.249912"><ele>209.25</ele></trkpt>
   <trkpt lat="49.552787" lon="17.249974"><ele>209</ele></trkpt>
   <trkpt lat="49.552336" lon="17.25024"><ele>208</ele></trkpt>
   <trkpt lat="49.552223" lon="17.250306"><ele>208</ele></trkpt>
   <trkpt lat="49.552156" lon="17.250343"><ele>208</ele></trkpt>
   <trkpt lat="49.551392" lon="17.250797"><ele>208</ele></trkpt>
   <trkpt lat="49.550245" lon="17.251448"><ele>208</ele></trkpt>
   <trkpt lat="49.550205" lon="17.251462"><ele>208</ele></trkpt>
   <trkpt lat="49.550173" lon="17.251462"><ele>208</ele></trkpt>
   <trkpt lat="49.550151" lon="17.251452"><ele>208</ele></trkpt>
   <trkpt lat="49.550093" lon="17.251389"><ele>208</ele></trkpt>
   <trkpt lat="49.550072" lon="17.251344"><ele>207.75</ele></trkpt>
   <trkpt lat="49.549979" lon="17.251054"><ele>207</ele></trkpt>
   <trkpt lat="49.549895" lon="17.250816"><ele>207</ele></trkpt>
   <trkpt lat="49.549855" lon="17.250735"><ele>207.25</ele></trkpt>
   <trkpt lat="49.549817" lon="17.250678"><ele>207.5</ele></trkpt>
   <trkpt lat="49.549764" lon="17.250626"><ele>207.5</ele></trkpt>
   <trkpt lat="49.549712" lon="17.250597"><ele>207.75</ele></trkpt>
   <trkpt lat="49.549622" lon="17.250575"><ele>207.75</ele></trkpt>
   <trkpt lat="49.549522" lon="17.250592"><ele>207.75</ele></trkpt>
   <trkpt lat="49.549472" lon="17.250616"><ele>207.75</ele></trkpt>
   <trkpt lat="49.549171" lon="17.250814"><ele>207.75</ele></trkpt>
   <trkpt lat="49.548781" lon="17.251052"><ele>207</ele></trkpt>
   <trkpt lat="49.548636" lon="17.251143"><ele>207</ele></trkpt>
   <trkpt lat="49.548277" lon="17.251328"><ele>207</ele></trkpt>
   <trkpt lat="49.547614" lon="17.251698"><ele>207.5</ele></trkpt>
   <trkpt lat="49.547582" lon="17.251709"><ele>207.5</ele></trkpt>
   <trkpt lat="49.547496" lon="17.251707"><ele>207.75</ele></trkpt>
   <trkpt lat="49.547444" lon="17.251687"><ele>207.5</ele></trkpt>
   <trkpt lat="49.547344" lon="17.251622"><ele>207.25</ele></trkpt>
   <trkpt lat="49.547175" lon="17.251434"><ele>207</ele></trkpt>
   <trkpt lat="49.547071" lon="17.251332"><ele>207</ele></trkpt>
   <trkpt lat="49.546753" lon="17.251072"><ele>207</ele></trkpt>
   <trkpt lat="49.546642" lon="17.250999"><ele>207</ele></trkpt>
   <trkpt lat="49.546457" lon="17.250929"><ele>207</ele></trkpt>
   <trkpt lat="49.54638" lon="17.250887"><ele>207</ele></trkpt>
   <trkpt lat="49.546245" lon="17.250756"><ele>207</ele></trkpt>
   <trkpt lat="49.546075" lon="17.250576"><ele>207</ele></trkpt>
   <trkpt lat="49.546025" lon="17.250518"><ele>207</ele></trkpt>
   <trkpt lat="49.545932" lon="17.250387"><ele>207</ele></trkpt>
   <trkpt lat="49.545905" lon="17.250365"><ele>207</ele></trkpt>
   <trkpt lat="49.545881" lon="17.250356"><ele>207</ele></trkpt>
   <trkpt lat="49.545845" lon="17.250366"><ele>207</ele></trkpt>
   <trkpt lat="49.545815" lon="17.250401"><ele>207</ele></trkpt>
   <trkpt lat="49.545747" lon="17.250501"><ele>207</ele></trkpt>
   <trkpt lat="49.545716" lon="17.250524"><ele>207</ele></trkpt>
   <trkpt lat="49.545675" lon="17.250536"><ele>207</ele></trkpt>
   <trkpt lat="49.545572" lon="17.250519"><ele>207</ele></trkpt>
   <trkpt lat="49.545398" lon="17.250523"><ele>207.25</ele></trkpt>
   <trkpt lat="49.544842" lon="17.250673"><ele>207</ele></trkpt>
   <trkpt lat="49.544683" lon="17.250726"><ele>207</ele></trkpt>
   <trkpt lat="49.544517" lon="17.250848"><ele>207</ele></trkpt>
   <trkpt lat="49.544386" lon="17.250959"><ele>207</ele></trkpt>
   <trkpt lat="49.544277" lon="17.251073"><ele>207</ele></trkpt>
   <trkpt lat="49.543894" lon="17.251541"><ele>207</ele></trkpt>
   <trkpt lat="49.543375" lon="17.252121"><ele>207</ele></trkpt>
   <trkpt lat="49.543073" lon="17.252482"><ele>207</ele></trkpt>
   <trkpt lat="49.542945" lon="17.252658"><ele>207</ele></trkpt>
   <trkpt lat="49.542642" lon="17.25305"><ele>207</ele></trkpt>
   <trkpt lat="49.542333" lon="17.253502"><ele>207</ele></trkpt>
   <trkpt lat="49.542057" lon="17.253877"><ele>207</ele></trkpt>
   <trkpt lat="49.541909" lon="17.254116"><ele>207</ele></trkpt>
   <trkpt lat="49.541276" lon="17.254966"><ele>207.25</ele></trkpt>
   <trkpt lat="49.541237" lon="17.255017"><ele>207.25</ele></trkpt>
   <trkpt lat="49.540942" lon="17.255403"><ele>207.25</ele></trkpt>
   <trkpt lat="49.540877" lon="17.255497"><ele>207.5</ele></trkpt>
   <trkpt lat="49.54084" lon="17.255589"><ele>207.75</ele></trkpt>
   <trkpt lat="49.540748" lon="17.255557"><ele>208</ele></trkpt>
   <trkpt lat="49.54066" lon="17.255549"><ele>207.75</ele></trkpt>
   <trkpt lat="49.540619" lon="17.255554"><ele>207.75</ele></trkpt>
   <trkpt lat="49.540541" lon="17.255581"><ele>208</ele></trkpt>
   <trkpt lat="49.540428" lon="17.255639"><ele>208.25</ele></trkpt>
   <trkpt lat="49.540347" lon="17.25565"><ele>208.75</ele></trkpt>
   <trkpt lat="49.540312" lon="17.255635"><ele>208.75</ele></trkpt>
   <trkpt lat="49.540276" lon="17.255587"><ele>209</ele></trkpt>
   <trkpt lat="49.54025" lon="17.255543"><ele>209</ele></trkpt>
   <trkpt lat="49.540166" lon="17.255345"><ele>209.25</ele></trkpt>
   <trkpt lat="49.539855" lon="17.254584"><ele>209.5</ele></trkpt>
   <trkpt lat="49.539826" lon="17.254488"><ele>209.75</ele></trkpt>
   <trkpt lat="49.539794" lon="17.254186"><ele>210</ele></trkpt>
   <trkpt lat="49.539784" lon="17.253832"><ele>211</ele></trkpt>
   <trkpt lat="49.53978" lon="17.253451"><ele>211.5</ele></trkpt>
   <trkpt lat="49.539737" lon="17.252391"><ele>214</ele></trkpt>
   <trkpt lat="49.539605" lon="17.252389"><ele>214.25</ele></trkpt>
   <trkpt lat="49.539373" lon="17.252419"><ele>214.5</ele></trkpt>
   <trkpt lat="49.539294" lon="17.252437"><ele>214.25</ele></trkpt>
   <trkpt lat="49.539184" lon="17.252476"><ele>214</ele></trkpt>
   <trkpt lat="49.53909" lon="17.252527"><ele>214</ele></trkpt>
   <trkpt lat="49.537686" lon="17.253441"><ele>214.5</ele></trkpt>
   <trkpt lat="49.537494" lon="17.253558"><ele>215</ele></trkpt>
   <trkpt lat="49.537276" lon="17.253644"><ele>215</ele></trkpt>
   <trkpt lat="49.537083" lon="17.253695"><ele>215.5</ele></trkpt>
   <trkpt lat="49.536919" lon="17.253733"><ele>216</ele></trkpt>
   <trkpt lat="49.536697" lon="17.253762"><ele>216</ele></trkpt>
   <trkpt lat="49.53653" lon="17.253746"><ele>216</ele></trkpt>
   <trkpt lat="49.53645" lon="17.253718"><ele>215.75</ele></trkpt>
   <trkpt lat="49.536084" lon="17.253516"><ele>216</ele></trkpt>
   <trkpt lat="49.536007" lon="17.253495"><ele>216</ele></trkpt>
   <trkpt lat="49.535977" lon="17.253504"><ele>216</ele></trkpt>
   <trkpt lat="49.535941" lon="17.253536"><ele>216</ele></trkpt>
   <trkpt lat="49.535873" lon="17.253474"><ele>216.25</ele></trkpt>
   <trkpt lat="49.535713" lon="17.253333"><ele>216.5</ele></trkpt>
   <trkpt lat="49.535428" lon="17.253121"><ele>216.5</ele></trkpt>
   <trkpt lat="49.535118" lon="17.252925"><ele>216.5</ele></trkpt>
   <trkpt lat="49.534446" lon="17.25254"><ele>216.75</ele></trkpt>
   <trkpt lat="49.534081" lon="17.252327"><ele>217</ele></trkpt>
   <trkpt lat="49.533851" lon="17.252218"><ele>217</ele></trkpt>
   <trkpt lat="49.533742" lon="17.252183"><ele>217</ele></trkpt>
   <trkpt lat="49.533512" lon="17.252135"><ele>217</ele></trkpt>
   <trkpt lat="49.533511" lon="17.252023"><ele>217.25</ele></trkpt>
   <trkpt lat="49.533508" lon="17.251712"><ele>217.25</ele></trkpt>
   <trkpt lat="49.533481" lon="17.251277"><ele>219</ele></trkpt>
   <trkpt lat="49.533501" lon="17.250933"><ele>220</ele></trkpt>
   <trkpt lat="49.533536" lon="17.250687"><ele>220.5</ele></trkpt>
   <trkpt lat="49.533558" lon="17.250571"><ele>220.5</ele></trkpt>
   <trkpt lat="49.533574" lon="17.250441"><ele>220.75</ele></trkpt>
   <trkpt lat="49.533579" lon="17.250305"><ele>221.25</ele></trkpt>
   <trkpt lat="49.533569" lon="17.249951"><ele>222.75</ele></trkpt>
   <trkpt lat="49.533557" lon="17.249348"><ele>225</ele></trkpt>
   <trkpt lat="49.533559" lon="17.248935"><ele>227.25</ele></trkpt>
   <trkpt lat="49.533569" lon="17.248493"><ele>228.75</ele></trkpt>
   <trkpt lat="49.533624" lon="17.247423"><ele>233</ele></trkpt>
   <trkpt lat="49.533642" lon="17.247247"><ele>233</ele></trkpt>
   <trkpt lat="49.533662" lon="17.247138"><ele>233.25</ele></trkpt>
   <trkpt lat="49.533713" lon="17.247035"><ele>233.75</ele></trkpt>
   <trkpt lat="49.533685" lon="17.246987"><ele>233.75</ele></trkpt>
   <trkpt lat="49.533664" lon="17.246902"><ele>234</ele></trkpt>
   <trkpt lat="49.533657" lon="17.246798"><ele>234</ele></trkpt>
   <trkpt lat="49.533659" lon="17.246688"><ele>234</ele></trkpt>
   <trkpt lat="49.53373" lon="17.246016"><ele>232.75</ele></trkpt>
   <trkpt lat="49.53375" lon="17.245706"><ele>232.5</ele></trkpt>
   <trkpt lat="49.533751" lon="17.245029"><ele>232.5</ele></trkpt>
   <trkpt lat="49.533736" lon="17.244668"><ele>233</ele></trkpt>
   <trkpt lat="49.533726" lon="17.244277"><ele>234</ele></trkpt>
   <trkpt lat="49.533727" lon="17.244018"><ele>234.5</ele></trkpt>
   <trkpt lat="49.533715" lon="17.243692"><ele>235.25</ele></trkpt>
   <trkpt lat="49.533709" lon="17.243618"><ele>235.5</ele></trkpt>
   <trkpt lat="49.533695" lon="17.243542"><ele>235.5</ele></trkpt>
   <trkpt lat="49.533677" lon="17.243486"><ele>235.75</ele></trkpt>
   <trkpt lat="49.533654" lon="17.243441"><ele>235.75</ele></trkpt>
   <trkpt lat="49.533602" lon="17.243388"><ele>235.75</ele></trkpt>
   <trkpt lat="49.533554" lon="17.24337"><ele>235.75</ele></trkpt>
   <trkpt lat="49.533505" lon="17.243364"><ele>235.75</ele></trkpt>
   <trkpt lat="49.532569" lon="17.24327"><ele>236</ele></trkpt>
   <trkpt lat="49.532324" lon="17.243281"><ele>236.5</ele></trkpt>
   <trkpt lat="49.532213" lon="17.243309"><ele>236.75</ele></trkpt>
   <trkpt lat="49.531973" lon="17.243419"><ele>236</ele></trkpt>
   <trkpt lat="49.531037" lon="17.243891"><ele>234.5</ele></trkpt>
   <trkpt lat="49.530816" lon="17.244023"><ele>234.25</ele></trkpt>
   <trkpt lat="49.530703" lon="17.24408"><ele>234.5</ele></trkpt>
   <trkpt lat="49.530527" lon="17.244159"><ele>234.75</ele></trkpt>
   <trkpt lat="49.530461" lon="17.244179"><ele>234.5</ele></trkpt>
   <trkpt lat="49.530344" lon="17.244208"><ele>234</ele></trkpt>
   <trkpt lat="49.530189" lon="17.244224"><ele>233.5</ele></trkpt>
   <trkpt lat="49.529233" lon="17.24428"><ele>231</ele></trkpt>
   <trkpt lat="49.529064" lon="17.244304"><ele>231</ele></trkpt>
   <trkpt lat="49.529011" lon="17.244313"><ele>231.25</ele></trkpt>
   <trkpt lat="49.528876" lon="17.244337"><ele>231.5</ele></trkpt>
   <trkpt lat="49.528551" lon="17.244395"><ele>231</ele></trkpt>
   <trkpt lat="49.527706" lon="17.244547"><ele>230.25</ele></trkpt>
   <trkpt lat="49.526728" lon="17.244726"><ele>230</ele></trkpt>
   <trkpt lat="49.525136" lon="17.245023"><ele>228</ele></trkpt>
   <trkpt lat="49.524932" lon="17.244351"><ele>227.25</ele></trkpt>
   <trkpt lat="49.524802" lon="17.243819"><ele>227</ele></trkpt>
   <trkpt lat="49.524753" lon="17.243559"><ele>227</ele></trkpt>
   <trkpt lat="49.524727" lon="17.243375"><ele>227</ele></trkpt>
   <trkpt lat="49.524721" lon="17.24309"><ele>227</ele></trkpt>
   <trkpt lat="49.524685" lon="17.242913"><ele>227</ele></trkpt>
   <trkpt lat="49.524686" lon="17.24291"><ele>227</ele></trkpt>
   <trkpt lat="49.524685" lon="17.242913"><ele>227</ele></trkpt>
   <trkpt lat="49.524632" lon="17.243009"><ele>227</ele></trkpt>
   <trkpt lat="49.524592" lon="17.243087"><ele>227</ele></trkpt>
   <trkpt lat="49.524561" lon="17.243146"><ele>227</ele></trkpt>
   <trkpt lat="49.524475" lon="17.243299"><ele>227</ele></trkpt>
   <trkpt lat="49.524456" lon="17.243338"><ele>227</ele></trkpt>
   <trkpt lat="49.523305" lon="17.2455"><ele>230</ele></trkpt>
   <trkpt lat="49.523276" lon="17.245558"><ele>230</ele></trkpt>
   <trkpt lat="49.523242" lon="17.245533"><ele>230</ele></trkpt>
   <trkpt lat="49.523184" lon="17.245531"><ele>230</ele></trkpt>
   <trkpt lat="49.5205" lon="17.246257"><ele>235</ele></trkpt>
   <trkpt lat="49.517735" lon="17.246972"><ele>233</ele></trkpt>
   <trkpt lat="49.517704" lon="17.24698"><ele>233</ele></trkpt>
   <trkpt lat="49.517777" lon="17.247724"><ele>232</ele></trkpt>
   <trkpt lat="49.517828" lon="17.248359"><ele>230.75</ele></trkpt>
   <trkpt lat="49.517884" lon="17.249267"><ele>230</ele></trkpt>
   <trkpt lat="49.517892" lon="17.249651"><ele>230</ele></trkpt>
   <trkpt lat="49.517915" lon="17.250056"><ele>229</ele></trkpt>
   <trkpt lat="49.518012" lon="17.251401"><ele>225.25</ele></trkpt>
   <trkpt lat="49.518039" lon="17.251701"><ele>224.75</ele></trkpt>
   <trkpt lat="49.518075" lon="17.252022"><ele>224</ele></trkpt>
   <trkpt lat="49.518121" lon="17.252285"><ele>223.5</ele></trkpt>
   <trkpt lat="49.51813" lon="17.252333"><ele>223.25</ele></trkpt>
   <trkpt lat="49.518178" lon="17.252464"><ele>223</ele></trkpt>
   <trkpt lat="49.51824" lon="17.252609"><ele>222.5</ele></trkpt>
   <trkpt lat="49.518104" lon="17.252762"><ele>222</ele></trkpt>
   <trkpt lat="49.517787" lon="17.253026"><ele>222.75</ele></trkpt>
   <trkpt lat="49.517715" lon="17.253085"><ele>223.25</ele></trkpt>
   <trkpt lat="49.517636" lon="17.253147"><ele>223.75</ele></trkpt>
   <trkpt lat="49.517581" lon="17.253178"><ele>223.75</ele></trkpt>
   <trkpt lat="49.51753" lon="17.253195"><ele>224</ele></trkpt>
   <trkpt lat="49.517466" lon="17.2532"><ele>223.75</ele></trkpt>
   <trkpt lat="49.517375" lon="17.253178"><ele>223.75</ele></trkpt>
   <trkpt lat="49.517264" lon="17.253126"><ele>223.75</ele></trkpt>
   <trkpt lat="49.517238" lon="17.253185"><ele>223.5</ele></trkpt>
   <trkpt lat="49.517173" lon="17.253304"><ele>223.25</ele></trkpt>
   <trkpt lat="49.517167" lon="17.25341"><ele>223</ele></trkpt>
   <trkpt lat="49.517148" lon="17.253485"><ele>223</ele></trkpt>
   <trkpt lat="49.517132" lon="17.25352"><ele>223</ele></trkpt>
   <trkpt lat="49.517111" lon="17.253547"><ele>223.25</ele></trkpt>
   <trkpt lat="49.517039" lon="17.253598"><ele>223.75</ele></trkpt>
   <trkpt lat="49.516861" lon="17.253674"><ele>224.25</ele></trkpt>
   <trkpt lat="49.516831" lon="17.253688"><ele>224.25</ele></trkpt>
   <trkpt lat="49.516639" lon="17.25378"><ele>224.25</ele></trkpt>
   <trkpt lat="49.51637" lon="17.253926"><ele>224.5</ele></trkpt>
   <trkpt lat="49.5159" lon="17.254272"><ele>223</ele></trkpt>
   <trkpt lat="49.514244" lon="17.25556"><ele>219.75</ele></trkpt>
   <trkpt lat="49.513618" lon="17.256063"><ele>215.25</ele></trkpt>
   <trkpt lat="49.513498" lon="17.256143"><ele>214.25</ele></trkpt>
   <trkpt lat="49.513393" lon="17.256199"><ele>213.5</ele></trkpt>
   <trkpt lat="49.512593" lon="17.256799"><ele>208.25</ele></trkpt>
   <trkpt lat="49.512503" lon="17.256856"><ele>208.25</ele></trkpt>
   <trkpt lat="49.512427" lon="17.256893"><ele>208.25</ele></trkpt>
   <trkpt lat="49.512293" lon="17.25693"><ele>208.75</ele></trkpt>
   <trkpt lat="49.512194" lon="17.25694"><ele>209</ele></trkpt>
   <trkpt lat="49.512189" lon="17.257017"><ele>208.75</ele></trkpt>
   <trkpt lat="49.512149" lon="17.257022"><ele>209</ele></trkpt>
   <trkpt lat="49.512113" lon="17.257027"><ele>209</ele></trkpt>
   <trkpt lat="49.511802" lon="17.257149"><ele>211</ele></trkpt>
   <trkpt lat="49.511051" lon="17.257444"><ele>213.25</ele></trkpt>
   <trkpt lat="49.510846" lon="17.25754"><ele>213.75</ele></trkpt>
   <trkpt lat="49.510157" lon="17.257889"><ele>217.5</ele></trkpt>
   <trkpt lat="49.509713" lon="17.258085"><ele>220.75</ele></trkpt>
   <trkpt lat="49.509706" lon="17.258264"><ele>220.25</ele></trkpt>
   <trkpt lat="49.509679" lon="17.25841"><ele>220.25</ele></trkpt>
   <trkpt lat="49.509651" lon="17.258487"><ele>220.25</ele></trkpt>
   <trkpt lat="49.509512" lon="17.258796"><ele>220</ele></trkpt>
   <trkpt lat="49.509474" lon="17.258896"><ele>219.75</ele></trkpt>
   <trkpt lat="49.509454" lon="17.258962"><ele>219.5</ele></trkpt>
   <trkpt lat="49.509443" lon="17.259035"><ele>219.25</ele></trkpt>
   <trkpt lat="49.509401" lon="17.259033"><ele>219.75</ele></trkpt>
   <trkpt lat="49.5092" lon="17.259015"><ele>221.25</ele></trkpt>
   <trkpt lat="49.509069" lon="17.259038"><ele>222.25</ele></trkpt>
   <trkpt lat="49.508497" lon="17.259296"><ele>224.75</ele></trkpt>
   <trkpt lat="49.508382" lon="17.25935"><ele>225</ele></trkpt>
   <trkpt lat="49.508322" lon="17.259344"><ele>225.25</ele></trkpt>
   <trkpt lat="49.508218" lon="17.259307"><ele>226</ele></trkpt>
   <trkpt lat="49.508152" lon="17.259269"><ele>226.5</ele></trkpt>
   <trkpt lat="49.508025" lon="17.259173"><ele>228</ele></trkpt>
   <trkpt lat="49.507989" lon="17.259156"><ele>228.25</ele></trkpt>
   <trkpt lat="49.507323" lon="17.258892"><ele>233.5</ele></trkpt>
   <trkpt lat="49.507231" lon="17.258876"><ele>234</ele></trkpt>
   <trkpt lat="49.506669" lon="17.258879"><ele>237</ele></trkpt>
   <trkpt lat="49.505917" lon="17.258952"><ele>241</ele></trkpt>
   <trkpt lat="49.505114" lon="17.259116"><ele>242.5</ele></trkpt>
   <trkpt lat="49.504917" lon="17.259166"><ele>243.25</ele></trkpt>
   <trkpt lat="49.504858" lon="17.259207"><ele>243</ele></trkpt>
   <trkpt lat="49.504842" lon="17.259235"><ele>243</ele></trkpt>
   <trkpt lat="49.504704" lon="17.259756"><ele>242.75</ele></trkpt>
   <trkpt lat="49.504692" lon="17.259837"><ele>242.5</ele></trkpt>
   <trkpt lat="49.504688" lon="17.259999"><ele>242</ele></trkpt>
   <trkpt lat="49.50467" lon="17.260102"><ele>241.5</ele></trkpt>
   <trkpt lat="49.504639" lon="17.26018"><ele>241.5</ele></trkpt>
   <trkpt lat="49.50459" lon="17.260245"><ele>241.5</ele></trkpt>
   <trkpt lat="49.504464" lon="17.260337"><ele>241.5</ele></trkpt>
   <trkpt lat="49.504406" lon="17.260393"><ele>241.5</ele></trkpt>
   <trkpt lat="49.504084" lon="17.260858"><ele>241</ele></trkpt>
   <trkpt lat="49.503957" lon="17.26101"><ele>241</ele></trkpt>
   <trkpt lat="49.503793" lon="17.261158"><ele>241.25</ele></trkpt>
   <trkpt lat="49.503468" lon="17.261425"><ele>241.25</ele></trkpt>
   <trkpt lat="49.503276" lon="17.261546"><ele>241.25</ele></trkpt>
   <trkpt lat="49.503004" lon="17.261693"><ele>240.5</ele></trkpt>
   <trkpt lat="49.502919" lon="17.261731"><ele>240.25</ele></trkpt>
   <trkpt lat="49.502882" lon="17.261738"><ele>240.25</ele></trkpt>
   <trkpt lat="49.502714" lon="17.26172"><ele>240.5</ele></trkpt>
   <trkpt lat="49.502683" lon="17.261727"><ele>240.5</ele></trkpt>
   <trkpt lat="49.502351" lon="17.26193"><ele>241</ele></trkpt>
   <trkpt lat="49.502256" lon="17.261975"><ele>240.25</ele></trkpt>
   <trkpt lat="49.502016" lon="17.262021"><ele>239</ele></trkpt>
   <trkpt lat="49.501959" lon="17.262017"><ele>238.75</ele></trkpt>
   <trkpt lat="49.501888" lon="17.261982"><ele>239</ele></trkpt>
   <trkpt lat="49.501858" lon="17.26195"><ele>239.5</ele></trkpt>
   <trkpt lat="49.501837" lon="17.261899"><ele>239.5</ele></trkpt>
   <trkpt lat="49.5018" lon="17.261761"><ele>239.75</ele></trkpt>
   <trkpt lat="49.501765" lon="17.261675"><ele>239.75</ele></trkpt>
   <trkpt lat="49.501724" lon="17.261633"><ele>240</ele></trkpt>
   <trkpt lat="49.501698" lon="17.261617"><ele>240</ele></trkpt>
   <trkpt lat="49.501622" lon="17.261598"><ele>239.75</ele></trkpt>
   <trkpt lat="49.50155" lon="17.261612"><ele>239.5</ele></trkpt>
   <trkpt lat="49.501203" lon="17.261849"><ele>239</ele></trkpt>
   <trkpt lat="49.500808" lon="17.262403"><ele>237.75</ele></trkpt>
   <trkpt lat="49.499939" lon="17.263647"><ele>235.75</ele></trkpt>
   <trkpt lat="49.499741" lon="17.263908"><ele>235</ele></trkpt>
   <trkpt lat="49.499679" lon="17.263965"><ele>235</ele></trkpt>
   <trkpt lat="49.499576" lon="17.264033"><ele>235</ele></trkpt>
   <trkpt lat="49.499503" lon="17.264197"><ele>234.75</ele></trkpt>
   <trkpt lat="49.498982" lon="17.26516"><ele>232.25</ele></trkpt>
   <trkpt lat="49.498765" lon="17.265536"><ele>231.75</ele></trkpt>
   <trkpt lat="49.498125" lon="17.266561"><ele>227.75</ele></trkpt>
   <trkpt lat="49.497968" lon="17.266818"><ele>227.75</ele></trkpt>
   <trkpt lat="49.497934" lon="17.266864"><ele>227.75</ele></trkpt>
   <trkpt lat="49.49769" lon="17.267227"><ele>226.25</ele></trkpt>
   <trkpt lat="49.497539" lon="17.267483"><ele>225</ele></trkpt>
   <trkpt lat="49.497411" lon="17.26772"><ele>224.5</ele></trkpt>
   <trkpt lat="49.497121" lon="17.268332"><ele>223</ele></trkpt>
   <trkpt lat="49.497062" lon="17.268462"><ele>222.5</ele></trkpt>
   <trkpt lat="49.49701" lon="17.268596"><ele>221.75</ele></trkpt>
   <trkpt lat="49.496966" lon="17.268725"><ele>221</ele></trkpt>
   <trkpt lat="49.496796" lon="17.269223"><ele>218.75</ele></trkpt>
   <trkpt lat="49.496762" lon="17.2693"><ele>218.75</ele></trkpt>
   <trkpt lat="49.496673" lon="17.269465"><ele>218.75</ele></trkpt>
   <trkpt lat="49.496593" lon="17.269603"><ele>218.75</ele></trkpt>
   <trkpt lat="49.496543" lon="17.269674"><ele>218.75</ele></trkpt>
   <trkpt lat="49.496476" lon="17.269749"><ele>218.5</ele></trkpt>
   <trkpt lat="49.496418" lon="17.269801"><ele>218.5</ele></trkpt>
   <trkpt lat="49.496382" lon="17.269825"><ele>218.5</ele></trkpt>
   <trkpt lat="49.496279" lon="17.269853"><ele>219.25</ele></trkpt>
   <trkpt lat="49.496073" lon="17.269811"><ele>220.75</ele></trkpt>
   <trkpt lat="49.496009" lon="17.269812"><ele>221.25</ele></trkpt>
   <trkpt lat="49.495967" lon="17.269837"><ele>221.25</ele></trkpt>
   <trkpt lat="49.495897" lon="17.269919"><ele>221.25</ele></trkpt>
   <trkpt lat="49.49581" lon="17.26996"><ele>221.5</ele></trkpt>
   <trkpt lat="49.495831" lon="17.270345"><ele>219.75</ele></trkpt>
   <trkpt lat="49.495874" lon="17.270763"><ele>217</ele></trkpt>
   <trkpt lat="49.495873" lon="17.27085"><ele>216.75</ele></trkpt>
   <trkpt lat="49.495857" lon="17.270958"><ele>216.5</ele></trkpt>
   <trkpt lat="49.495828" lon="17.271051"><ele>216.25</ele></trkpt>
   <trkpt lat="49.495769" lon="17.271154"><ele>216</ele></trkpt>
   <trkpt lat="49.495512" lon="17.27153"><ele>214</ele></trkpt>
   <trkpt lat="49.49537" lon="17.27171"><ele>213.25</ele></trkpt>
   <trkpt lat="49.495142" lon="17.271948"><ele>212.25</ele></trkpt>
   <trkpt lat="49.495064" lon="17.27202"><ele>212</ele></trkpt>
   <trkpt lat="49.494693" lon="17.272303"><ele>212.75</ele></trkpt>
   <trkpt lat="49.494432" lon="17.272503"><ele>213</ele></trkpt>
   <trkpt lat="49.494177" lon="17.272685"><ele>213.25</ele></trkpt>
   <trkpt lat="49.494044" lon="17.272736"><ele>213</ele></trkpt>
   <trkpt lat="49.493979" lon="17.27275"><ele>213</ele></trkpt>
   <trkpt lat="49.493838" lon="17.27275"><ele>213.25</ele></trkpt>
   <trkpt lat="49.493677" lon="17.272723"><ele>214</ele></trkpt>
   <trkpt lat="49.493224" lon="17.272594"><ele>215.25</ele></trkpt>
   <trkpt lat="49.493037" lon="17.272556"><ele>215.75</ele></trkpt>
   <trkpt lat="49.492975" lon="17.272544"><ele>215.75</ele></trkpt>
   <trkpt lat="49.49295" lon="17.27261"><ele>215.25</ele></trkpt>
   <trkpt lat="49.492907" lon="17.272648"><ele>215</ele></trkpt>
   <trkpt lat="49.492487" lon="17.272785"><ele>213.75</ele></trkpt>
   <trkpt lat="49.492353" lon="17.272845"><ele>213</ele></trkpt>
   <trkpt lat="49.492045" lon="17.273045"><ele>212</ele></trkpt>
   <trkpt lat="49.491556" lon="17.273338"><ele>211.25</ele></trkpt>
   <trkpt lat="49.491377" lon="17.273427"><ele>211</ele></trkpt>
   <trkpt lat="49.491296" lon="17.273451"><ele>210.75</ele></trkpt>
   <trkpt lat="49.49106" lon="17.273486"><ele>211</ele></trkpt>
   <trkpt lat="49.490867" lon="17.273501"><ele>211.5</ele></trkpt>
   <trkpt lat="49.489991" lon="17.273529"><ele>213.25</ele></trkpt>
   <trkpt lat="49.489923" lon="17.273538"><ele>213.25</ele></trkpt>
   <trkpt lat="49.489847" lon="17.27356"><ele>213.5</ele></trkpt>
   <trkpt lat="49.489796" lon="17.273604"><ele>213.5</ele></trkpt>
   <trkpt lat="49.489749" lon="17.273695"><ele>213.5</ele></trkpt>
   <trkpt lat="49.489711" lon="17.273767"><ele>213.5</ele></trkpt>
   <trkpt lat="49.489659" lon="17.273829"><ele>213.75</ele></trkpt>
   <trkpt lat="49.489137" lon="17.27417"><ele>213</ele></trkpt>
   <trkpt lat="49.489059" lon="17.27422"><ele>213</ele></trkpt>
   <trkpt lat="49.488281" lon="17.274722"><ele>209.75</ele></trkpt>
   <trkpt lat="49.488163" lon="17.274787"><ele>208.75</ele></trkpt>
   <trkpt lat="49.487979" lon="17.274878"><ele>208.25</ele></trkpt>
   <trkpt lat="49.487081" lon="17.275278"><ele>206.75</ele></trkpt>
   <trkpt lat="49.486969" lon="17.275328"><ele>206.5</ele></trkpt>
   <trkpt lat="49.486181" lon="17.275673"><ele>204.5</ele></trkpt>
   <trkpt lat="49.486107" lon="17.275705"><ele>204.25</ele></trkpt>
   <trkpt lat="49.485749" lon="17.275861"><ele>204</ele></trkpt>
   <trkpt lat="49.485663" lon="17.275899"><ele>204</ele></trkpt>
   <trkpt lat="49.485623" lon="17.275917"><ele>204</ele></trkpt>
   <trkpt lat="49.485596" lon="17.275929"><ele>204</ele></trkpt>
   <trkpt lat="49.485416" lon="17.276009"><ele>204</ele></trkpt>
   <trkpt lat="49.485206" lon="17.276101"><ele>204</ele></trkpt>
   <trkpt lat="49.485075" lon="17.276159"><ele>204</ele></trkpt>
   <trkpt lat="49.484956" lon="17.276237"><ele>204</ele></trkpt>
   <trkpt lat="49.484821" lon="17.276365"><ele>204</ele></trkpt>
   <trkpt lat="49.484696" lon="17.276496"><ele>204</ele></trkpt>
   <trkpt lat="49.484365" lon="17.276842"><ele>205.75</ele></trkpt>
   <trkpt lat="49.484331" lon="17.276878"><ele>205.75</ele></trkpt>
   <trkpt lat="49.484054" lon="17.27717"><ele>207.75</ele></trkpt>
   <trkpt lat="49.483997" lon="17.277222"><ele>208</ele></trkpt>
   <trkpt lat="49.48391" lon="17.277297"><ele>208.5</ele></trkpt>
   <trkpt lat="49.483801" lon="17.277372"><ele>208.75</ele></trkpt>
   <trkpt lat="49.483654" lon="17.277415"><ele>209</ele></trkpt>
   <trkpt lat="49.483631" lon="17.277419"><ele>209</ele></trkpt>
   <trkpt lat="49.483066" lon="17.277552"><ele>210</ele></trkpt>
   <trkpt lat="49.482718" lon="17.277633"><ele>210.75</ele></trkpt>
   <trkpt lat="49.48266" lon="17.27765"><ele>210.75</ele></trkpt>
   <trkpt lat="49.482525" lon="17.277721"><ele>210.25</ele></trkpt>
   <trkpt lat="49.482486" lon="17.277583"><ele>210.5</ele></trkpt>
   <trkpt lat="49.482382" lon="17.277639"><ele>210.25</ele></trkpt>
   <trkpt lat="49.482337" lon="17.277659"><ele>210.25</ele></trkpt>
   <trkpt lat="49.482225" lon="17.277704"><ele>210.25</ele></trkpt>
   <trkpt lat="49.482046" lon="17.277768"><ele>210</ele></trkpt>
   <trkpt lat="49.481854" lon="17.277836"><ele>209.5</ele></trkpt>
   <trkpt lat="49.481843" lon="17.27784"><ele>209.5</ele></trkpt>
   <trkpt lat="49.481702" lon="17.277894"><ele>209</ele></trkpt>
   <trkpt lat="49.481665" lon="17.277911"><ele>208.75</ele></trkpt>
   <trkpt lat="49.481533" lon="17.277989"><ele>208.5</ele></trkpt>
   <trkpt lat="49.481377" lon="17.278091"><ele>207.75</ele></trkpt>
   <trkpt lat="49.481348" lon="17.278109"><ele>207.75</ele></trkpt>
   <trkpt lat="49.481278" lon="17.278152"><ele>207.75</ele></trkpt>
   <trkpt lat="49.481179" lon="17.278214"><ele>207.5</ele></trkpt>
   <trkpt lat="49.481154" lon="17.27823"><ele>207.25</ele></trkpt>
   <trkpt lat="49.481144" lon="17.278236"><ele>207.25</ele></trkpt>
   <trkpt lat="49.481015" lon="17.278318"><ele>207</ele></trkpt>
   <trkpt lat="49.480899" lon="17.278392"><ele>206.75</ele></trkpt>
   <trkpt lat="49.480697" lon="17.278519"><ele>206.75</ele></trkpt>
   <trkpt lat="49.480553" lon="17.278611"><ele>207</ele></trkpt>
   <trkpt lat="49.480433" lon="17.27868"><ele>206.5</ele></trkpt>
   <trkpt lat="49.480349" lon="17.278712"><ele>206.5</ele></trkpt>
   <trkpt lat="49.480169" lon="17.278754"><ele>206.25</ele></trkpt>
   <trkpt lat="49.480019" lon="17.278772"><ele>206.25</ele></trkpt>
   <trkpt lat="49.479954" lon="17.27877"><ele>206.25</ele></trkpt>
   <trkpt lat="49.479643" lon="17.27875"><ele>205.5</ele></trkpt>
   <trkpt lat="49.479588" lon="17.278745"><ele>205.5</ele></trkpt>
   <trkpt lat="49.479589" lon="17.278689"><ele>205.75</ele></trkpt>
   <trkpt lat="49.479556" lon="17.278686"><ele>205.75</ele></trkpt>
   <trkpt lat="49.479159" lon="17.278644"><ele>205.75</ele></trkpt>
   <trkpt lat="49.478986" lon="17.278646"><ele>205.5</ele></trkpt>
   <trkpt lat="49.47891" lon="17.278655"><ele>205.5</ele></trkpt>
   <trkpt lat="49.47878" lon="17.27869"><ele>205.75</ele></trkpt>
   <trkpt lat="49.478654" lon="17.278755"><ele>206</ele></trkpt>
   <trkpt lat="49.478534" lon="17.278839"><ele>206.25</ele></trkpt>
   <trkpt lat="49.477712" lon="17.279482"><ele>205.75</ele></trkpt>
   <trkpt lat="49.477462" lon="17.279618"><ele>206</ele></trkpt>
   <trkpt lat="49.475407" lon="17.281119"><ele>205</ele></trkpt>
   <trkpt lat="49.474877" lon="17.281509"><ele>205</ele></trkpt>
   <trkpt lat="49.474689" lon="17.281662"><ele>205</ele></trkpt>
   <trkpt lat="49.474458" lon="17.281868"><ele>205</ele></trkpt>
   <trkpt lat="49.474266" lon="17.282032"><ele>205</ele></trkpt>
   <trkpt lat="49.474028" lon="17.282201"><ele>205</ele></trkpt>
   <trkpt lat="49.47392" lon="17.282292"><ele>205</ele></trkpt>
   <trkpt lat="49.473905" lon="17.282312"><ele>205</ele></trkpt>
   <trkpt lat="49.473885" lon="17.282369"><ele>205</ele></trkpt>
   <trkpt lat="49.47389" lon="17.282456"><ele>205</ele></trkpt>
   <trkpt lat="49.473608" lon="17.282682"><ele>205</ele></trkpt>
   <trkpt lat="49.473209" lon="17.283102"><ele>205</ele></trkpt>
   <trkpt lat="49.473114" lon="17.283182"><ele>205</ele></trkpt>
   <trkpt lat="49.472456" lon="17.283686"><ele>205</ele></trkpt>
   <trkpt lat="49.471778" lon="17.284153"><ele>205</ele></trkpt>
   <trkpt lat="49.471312" lon="17.284489"><ele>205</ele></trkpt>
   <trkpt lat="49.47109" lon="17.284653"><ele>205</ele></trkpt>
   <trkpt lat="49.471048" lon="17.284692"><ele>205</ele></trkpt>
   <trkpt lat="49.471014" lon="17.284736"><ele>204.75</ele></trkpt>
   <trkpt lat="49.470906" lon="17.284819"><ele>204.5</ele></trkpt>
   <trkpt lat="49.470216" lon="17.285168"><ele>203.25</ele></trkpt>
   <trkpt lat="49.470085" lon="17.285247"><ele>203</ele></trkpt>
   <trkpt lat="49.469986" lon="17.285335"><ele>203</ele></trkpt>
   <trkpt lat="49.469942" lon="17.285402"><ele>203</ele></trkpt>
   <trkpt lat="49.469903" lon="17.285483"><ele>203</ele></trkpt>
   <trkpt lat="49.46981" lon="17.28572"><ele>203</ele></trkpt>
   <trkpt lat="49.469377" lon="17.286834"><ele>202</ele></trkpt>
   <trkpt lat="49.46933" lon="17.286952"><ele>202</ele></trkpt>
   <trkpt lat="49.469287" lon="17.287039"><ele>202</ele></trkpt>
   <trkpt lat="49.469182" lon="17.287207"><ele>202.75</ele></trkpt>
   <trkpt lat="49.468988" lon="17.287468"><ele>203</ele></trkpt>
   <trkpt lat="49.468885" lon="17.287623"><ele>203</ele></trkpt>
   <trkpt lat="49.468808" lon="17.287725"><ele>203</ele></trkpt>
   <trkpt lat="49.468761" lon="17.287773"><ele>203</ele></trkpt>
   <trkpt lat="49.468701" lon="17.287824"><ele>202.75</ele></trkpt>
   <trkpt lat="49.468644" lon="17.287858"><ele>202.75</ele></trkpt>
   <trkpt lat="49.4683" lon="17.288037"><ele>203</ele></trkpt>
   <trkpt lat="49.467844" lon="17.288196"><ele>203</ele></trkpt>
   <trkpt lat="49.467765" lon="17.288214"><ele>203</ele></trkpt>
   <trkpt lat="49.467688" lon="17.288222"><ele>203</ele></trkpt>
   <trkpt lat="49.467594" lon="17.288214"><ele>203</ele></trkpt>
   <trkpt lat="49.466981" lon="17.288106"><ele>202.75</ele></trkpt>
   <trkpt lat="49.466816" lon="17.288097"><ele>203</ele></trkpt>
   <trkpt lat="49.466626" lon="17.288112"><ele>203.5</ele></trkpt>
   <trkpt lat="49.466527" lon="17.288142"><ele>203.5</ele></trkpt>
   <trkpt lat="49.46644" lon="17.288191"><ele>203.25</ele></trkpt>
   <trkpt lat="49.466276" lon="17.288322"><ele>203.25</ele></trkpt>
   <trkpt lat="49.466205" lon="17.288401"><ele>203.25</ele></trkpt>
   <trkpt lat="49.466066" lon="17.288599"><ele>203.25</ele></trkpt>
   <trkpt lat="49.465818" lon="17.289001"><ele>203</ele></trkpt>
   <trkpt lat="49.465424" lon="17.289686"><ele>201.5</ele></trkpt>
   <trkpt lat="49.465337" lon="17.289818"><ele>201.25</ele></trkpt>
   <trkpt lat="49.465273" lon="17.289887"><ele>201.5</ele></trkpt>
   <trkpt lat="49.46521" lon="17.28993"><ele>201.5</ele></trkpt>
   <trkpt lat="49.465121" lon="17.289965"><ele>201.25</ele></trkpt>
   <trkpt lat="49.463786" lon="17.29038"><ele>202</ele></trkpt>
   <trkpt lat="49.463723" lon="17.2904"><ele>202.25</ele></trkpt>
   <trkpt lat="49.463632" lon="17.290422"><ele>202.25</ele></trkpt>
   <trkpt lat="49.463559" lon="17.290429"><ele>202.25</ele></trkpt>
   <trkpt lat="49.463462" lon="17.290432"><ele>201.75</ele></trkpt>
   <trkpt lat="49.463189" lon="17.290418"><ele>201.25</ele></trkpt>
   <trkpt lat="49.462839" lon="17.290437"><ele>201.75</ele></trkpt>
   <trkpt lat="49.46273" lon="17.290435"><ele>201.75</ele></trkpt>
   <trkpt lat="49.46249" lon="17.290409"><ele>202.5</ele></trkpt>
   <trkpt lat="49.462416" lon="17.290388"><ele>202.25</ele></trkpt>
   <trkpt lat="49.462354" lon="17.290353"><ele>202</ele></trkpt>
   <trkpt lat="49.462298" lon="17.290299"><ele>201.75</ele></trkpt>
   <trkpt lat="49.462238" lon="17.290226"><ele>201.5</ele></trkpt>
   <trkpt lat="49.461759" lon="17.289582"><ele>202</ele></trkpt>
   <trkpt lat="49.461544" lon="17.289322"><ele>201.75</ele></trkpt>
   <trkpt lat="49.46146" lon="17.289235"><ele>201.25</ele></trkpt>
   <trkpt lat="49.461384" lon="17.289176"><ele>201</ele></trkpt>
   <trkpt lat="49.461317" lon="17.289138"><ele>201</ele></trkpt>
   <trkpt lat="49.461016" lon="17.28901"><ele>201.25</ele></trkpt>
   <trkpt lat="49.460639" lon="17.288873"><ele>201.5</ele></trkpt>
   <trkpt lat="49.460544" lon="17.28885"><ele>202</ele></trkpt>
   <trkpt lat="49.460461" lon="17.288839"><ele>202</ele></trkpt>
   <trkpt lat="49.460389" lon="17.288841"><ele>202</ele></trkpt>
   <trkpt lat="49.4603" lon="17.288859"><ele>202</ele></trkpt>
   <trkpt lat="49.46023" lon="17.288895"><ele>201.75</ele></trkpt>
   <trkpt lat="49.460156" lon="17.288948"><ele>201.75</ele></trkpt>
   <trkpt lat="49.459959" lon="17.289112"><ele>202.25</ele></trkpt>
   <trkpt lat="49.459916" lon="17.289158"><ele>202.5</ele></trkpt>
   <trkpt lat="49.459842" lon="17.289364"><ele>202.25</ele></trkpt>
   <trkpt lat="49.459795" lon="17.289458"><ele>202.25</ele></trkpt>
   <trkpt lat="49.459752" lon="17.289524"><ele>202</ele></trkpt>
   <trkpt lat="49.459639" lon="17.289669"><ele>201.75</ele></trkpt>
   <trkpt lat="49.459529" lon="17.289837"><ele>201.75</ele></trkpt>
   <trkpt lat="49.459484" lon="17.28993"><ele>201.25</ele></trkpt>
   <trkpt lat="49.459347" lon="17.290278"><ele>201.5</ele></trkpt>
   <trkpt lat="49.459196" lon="17.290631"><ele>201.5</ele></trkpt>
   <trkpt lat="49.458962" lon="17.291237"><ele>199.75</ele></trkpt>
   <trkpt lat="49.458848" lon="17.291478"><ele>200.25</ele></trkpt>
   <trkpt lat="49.458669" lon="17.29192"><ele>200</ele></trkpt>
   <trkpt lat="49.458624" lon="17.292048"><ele>200.25</ele></trkpt>
   <trkpt lat="49.457895" lon="17.293844"><ele>200</ele></trkpt>
   <trkpt lat="49.457194" lon="17.295531"><ele>200</ele></trkpt>
   <trkpt lat="49.457069" lon="17.295834"><ele>200.5</ele></trkpt>
   <trkpt lat="49.456993" lon="17.296035"><ele>200</ele></trkpt>
   <trkpt lat="49.45692" lon="17.296201"><ele>200</ele></trkpt>
   <trkpt lat="49.456491" lon="17.297274"><ele>200</ele></trkpt>
   <trkpt lat="49.455316" lon="17.300103"><ele>200.25</ele></trkpt>
   <trkpt lat="49.455248" lon="17.300165"><ele>200.5</ele></trkpt>
   <trkpt lat="49.455197" lon="17.30017"><ele>200.5</ele></trkpt>
   <trkpt lat="49.455139" lon="17.300128"><ele>200.25</ele></trkpt>
   <trkpt lat="49.45497" lon="17.30005"><ele>200</ele></trkpt>
   <trkpt lat="49.454877" lon="17.299986"><ele>200.25</ele></trkpt>
   <trkpt lat="49.453876" lon="17.299053"><ele>200</ele></trkpt>
   <trkpt lat="49.453731" lon="17.298954"><ele>200</ele></trkpt>
   <trkpt lat="49.453538" lon="17.298886"><ele>200.25</ele></trkpt>
   <trkpt lat="49.453215" lon="17.298892"><ele>200.75</ele></trkpt>
   <trkpt lat="49.452974" lon="17.298945"><ele>200.75</ele></trkpt>
   <trkpt lat="49.452787" lon="17.298905"><ele>200.75</ele></trkpt>
   <trkpt lat="49.452287" lon="17.298603"><ele>200.5</ele></trkpt>
   <trkpt lat="49.451614" lon="17.29825"><ele>200.5</ele></trkpt>
   <trkpt lat="49.451549" lon="17.298179"><ele>200.25</ele></trkpt>
   <trkpt lat="49.451466" lon="17.298008"><ele>200.5</ele></trkpt>
   <trkpt lat="49.451372" lon="17.297847"><ele>200</ele></trkpt>
   <trkpt lat="49.450448" lon="17.296996"><ele>200.25</ele></trkpt>
   <trkpt lat="49.447742" lon="17.294676"><ele>200</ele></trkpt>
   <trkpt lat="49.446221" lon="17.293267"><ele>200</ele></trkpt>
   <trkpt lat="49.443912" lon="17.291061"><ele>200</ele></trkpt>
   <trkpt lat="49.44353" lon="17.290741"><ele>200</ele></trkpt>
   <trkpt lat="49.443462" lon="17.290781"><ele>200</ele></trkpt>
   <trkpt lat="49.44344" lon="17.290673"><ele>200</ele></trkpt>
   <trkpt lat="49.443326" lon="17.290613"><ele>200</ele></trkpt>
   <trkpt lat="49.443246" lon="17.290573"><ele>200</ele></trkpt>
   <trkpt lat="49.442361" lon="17.29012"><ele>200.25</ele></trkpt>
   <trkpt lat="49.441102" lon="17.28873"><ele>200</ele></trkpt>
   <trkpt lat="49.439405" lon="17.28682"><ele>200</ele></trkpt>
   <trkpt lat="49.438245" lon="17.285494"><ele>200.5</ele></trkpt>
   <trkpt lat="49.437873" lon="17.285099"><ele>202.25</ele></trkpt>
   <trkpt lat="49.437745" lon="17.284983"><ele>203</ele></trkpt>
   <trkpt lat="49.437153" lon="17.284467"><ele>203.75</ele></trkpt>
   <trkpt lat="49.437103" lon="17.284402"><ele>204</ele></trkpt>
   <trkpt lat="49.437079" lon="17.284349"><ele>204</ele></trkpt>
   <trkpt lat="49.437017" lon="17.284401"><ele>204</ele></trkpt>
   <trkpt lat="49.436602" lon="17.284742"><ele>203.75</ele></trkpt>
   <trkpt lat="49.436142" lon="17.285141"><ele>203</ele></trkpt>
   <trkpt lat="49.435962" lon="17.285306"><ele>203</ele></trkpt>
   <trkpt lat="49.435762" lon="17.285519"><ele>203</ele></trkpt>
   <trkpt lat="49.435601" lon="17.285699"><ele>203</ele></trkpt>
   <trkpt lat="49.435534" lon="17.285774"><ele>202.75</ele></trkpt>
   <trkpt lat="49.435431" lon="17.285888"><ele>203</ele></trkpt>
   <trkpt lat="49.435339" lon="17.285963"><ele>203</ele></trkpt>
   <trkpt lat="49.435296" lon="17.285988"><ele>202.75</ele></trkpt>
   <trkpt lat="49.435191" lon="17.286031"><ele>203</ele></trkpt>
   <trkpt lat="49.43437" lon="17.286317"><ele>203</ele></trkpt>
   <trkpt lat="49.433728" lon="17.286548"><ele>202.75</ele></trkpt>
   <trkpt lat="49.433615" lon="17.28661"><ele>202.75</ele></trkpt>
   <trkpt lat="49.4331" lon="17.286971"><ele>203</ele></trkpt>
   <trkpt lat="49.432949" lon="17.287133"><ele>203</ele></trkpt>
   <trkpt lat="49.432807" lon="17.287335"><ele>203</ele></trkpt>
   <trkpt lat="49.432577" lon="17.287655"><ele>203</ele></trkpt>
   <trkpt lat="49.432461" lon="17.28776"><ele>203</ele></trkpt>
   <trkpt lat="49.43228" lon="17.287904"><ele>203</ele></trkpt>
   <trkpt lat="49.431991" lon="17.288124"><ele>203</ele></trkpt>
   <trkpt lat="49.431868" lon="17.288197"><ele>203</ele></trkpt>
   <trkpt lat="49.431745" lon="17.28825"><ele>203</ele></trkpt>
   <trkpt lat="49.431499" lon="17.288342"><ele>203</ele></trkpt>
   <trkpt lat="49.431427" lon="17.288371"><ele>203</ele></trkpt>
   <trkpt lat="49.431202" lon="17.288453"><ele>203.5</ele></trkpt>
   <trkpt lat="49.431118" lon="17.28847"><ele>203.75</ele></trkpt>
   <trkpt lat="49.430765" lon="17.288592"><ele>203.75</ele></trkpt>
   <trkpt lat="49.430686" lon="17.288619"><ele>203.75</ele></trkpt>
   <trkpt lat="49.430258" lon="17.288768"><ele>204.25</ele></trkpt>
   <trkpt lat="49.430198" lon="17.288803"><ele>204</ele></trkpt>
   <trkpt lat="49.430159" lon="17.288837"><ele>204</ele></trkpt>
   <trkpt lat="49.43008" lon="17.288915"><ele>204</ele></trkpt>
   <trkpt lat="49.42955" lon="17.289558"><ele>204.75</ele></trkpt>
   <trkpt lat="49.429547" lon="17.289563"><ele>204.75</ele></trkpt>
   <trkpt lat="49.429428" lon="17.289658"><ele>204.75</ele></trkpt>
   <trkpt lat="49.429307" lon="17.289732"><ele>203.75</ele></trkpt>
   <trkpt lat="49.429266" lon="17.289737"><ele>203.25</ele></trkpt>
   <trkpt lat="49.429239" lon="17.28974"><ele>203</ele></trkpt>
   <trkpt lat="49.429091" lon="17.289681"><ele>203.25</ele></trkpt>
   <trkpt lat="49.429025" lon="17.289671"><ele>203.5</ele></trkpt>
   <trkpt lat="49.428925" lon="17.289696"><ele>203.75</ele></trkpt>
   <trkpt lat="49.428828" lon="17.289755"><ele>203.5</ele></trkpt>
   <trkpt lat="49.428166" lon="17.290355"><ele>203.75</ele></trkpt>
   <trkpt lat="49.428058" lon="17.290463"><ele>204.25</ele></trkpt>
   <trkpt lat="49.427664" lon="17.290687"><ele>202.5</ele></trkpt>
   <trkpt lat="49.42752" lon="17.290821"><ele>201</ele></trkpt>
   <trkpt lat="49.427231" lon="17.291059"><ele>200</ele></trkpt>
   <trkpt lat="49.427068" lon="17.291131"><ele>200</ele></trkpt>
   <trkpt lat="49.426934" lon="17.291169"><ele>200</ele></trkpt>
   <trkpt lat="49.426865" lon="17.291185"><ele>200</ele></trkpt>
   <trkpt lat="49.426787" lon="17.2912"><ele>200</ele></trkpt>
   <trkpt lat="49.426718" lon="17.291212"><ele>200</ele></trkpt>
   <trkpt lat="49.426637" lon="17.291228"><ele>200</ele></trkpt>
   <trkpt lat="49.426561" lon="17.291243"><ele>200</ele></trkpt>
   <trkpt lat="49.426449" lon="17.291253"><ele>200</ele></trkpt>
   <trkpt lat="49.426359" lon="17.291243"><ele>199.75</ele></trkpt>
   <trkpt lat="49.42631" lon="17.291229"><ele>199.5</ele></trkpt>
   <trkpt lat="49.426297" lon="17.291306"><ele>199.5</ele></trkpt>
   <trkpt lat="49.426213" lon="17.291282"><ele>199.25</ele></trkpt>
   <trkpt lat="49.424268" lon="17.291157"><ele>198.25</ele></trkpt>
   <trkpt lat="49.424004" lon="17.291134"><ele>198.75</ele></trkpt>
   <trkpt lat="49.423584" lon="17.291082"><ele>198.75</ele></trkpt>
   <trkpt lat="49.423462" lon="17.291057"><ele>198.5</ele></trkpt>
   <trkpt lat="49.423077" lon="17.290948"><ele>198.25</ele></trkpt>
   <trkpt lat="49.422688" lon="17.290811"><ele>198.75</ele></trkpt>
   <trkpt lat="49.421577" lon="17.290374"><ele>198.25</ele></trkpt>
   <trkpt lat="49.421429" lon="17.290306"><ele>198.75</ele></trkpt>
   <trkpt lat="49.421289" lon="17.290228"><ele>198.5</ele></trkpt>
   <trkpt lat="49.420845" lon="17.289905"><ele>199.75</ele></trkpt>
   <trkpt lat="49.420288" lon="17.289377"><ele>199</ele></trkpt>
   <trkpt lat="49.420161" lon="17.289252"><ele>199</ele></trkpt>
   <trkpt lat="49.419491" lon="17.288558"><ele>199.75</ele></trkpt>
   <trkpt lat="49.419228" lon="17.288179"><ele>199</ele></trkpt>
   <trkpt lat="49.41907" lon="17.287888"><ele>199</ele></trkpt>
   <trkpt lat="49.418756" lon="17.287073"><ele>199.25</ele></trkpt>
   <trkpt lat="49.418679" lon="17.286768"><ele>199</ele></trkpt>
   <trkpt lat="49.418631" lon="17.286535"><ele>198.75</ele></trkpt>
   <trkpt lat="49.418627" lon="17.286489"><ele>198.75</ele></trkpt>
   <trkpt lat="49.418597" lon="17.286096"><ele>199.75</ele></trkpt>
   <trkpt lat="49.418587" lon="17.285987"><ele>199.25</ele></trkpt>
   <trkpt lat="49.418567" lon="17.285882"><ele>199</ele></trkpt>
   <trkpt lat="49.4181" lon="17.284563"><ele>199.75</ele></trkpt>
   <trkpt lat="49.417729" lon="17.283503"><ele>201</ele></trkpt>
   <trkpt lat="49.417654" lon="17.283122"><ele>201.75</ele></trkpt>
   <trkpt lat="49.417581" lon="17.283006"><ele>202</ele></trkpt>
   <trkpt lat="49.417492" lon="17.282858"><ele>201.75</ele></trkpt>
   <trkpt lat="49.417352" lon="17.282783"><ele>201.75</ele></trkpt>
   <trkpt lat="49.417236" lon="17.282742"><ele>201.75</ele></trkpt>
   <trkpt lat="49.416979" lon="17.282685"><ele>201.75</ele></trkpt>
   <trkpt lat="49.415885" lon="17.282552"><ele>201.25</ele></trkpt>
   <trkpt lat="49.415744" lon="17.282555"><ele>201.5</ele></trkpt>
   <trkpt lat="49.415608" lon="17.282598"><ele>201.5</ele></trkpt>
   <trkpt lat="49.415302" lon="17.282765"><ele>201.75</ele></trkpt>
   <trkpt lat="49.414932" lon="17.282932"><ele>201</ele></trkpt>
   <trkpt lat="49.414068" lon="17.283152"><ele>200.75</ele></trkpt>
   <trkpt lat="49.413762" lon="17.283222"><ele>201.5</ele></trkpt>
   <trkpt lat="49.413455" lon="17.283273"><ele>202</ele></trkpt>
   <trkpt lat="49.413223" lon="17.283305"><ele>202.25</ele></trkpt>
   <trkpt lat="49.410666" lon="17.283531"><ele>203.75</ele></trkpt>
   <trkpt lat="49.410355" lon="17.283539"><ele>204</ele></trkpt>
   <trkpt lat="49.409906" lon="17.283478"><ele>203.75</ele></trkpt>
   <trkpt lat="49.409392" lon="17.283493"><ele>203</ele></trkpt>
   <trkpt lat="49.409064" lon="17.283515"><ele>203</ele></trkpt>
   <trkpt lat="49.408735" lon="17.283562"><ele>203</ele></trkpt>
   <trkpt lat="49.408449" lon="17.283648"><ele>202</ele></trkpt>
   <trkpt lat="49.408276" lon="17.283732"><ele>202</ele></trkpt>
   <trkpt lat="49.40816" lon="17.283788"><ele>202</ele></trkpt>
   <trkpt lat="49.407806" lon="17.283985"><ele>201.75</ele></trkpt>
   <trkpt lat="49.407456" lon="17.284199"><ele>202</ele></trkpt>
   <trkpt lat="49.404909" lon="17.286076"><ele>202</ele></trkpt>
   <trkpt lat="49.404384" lon="17.286443"><ele>202</ele></trkpt>
   <trkpt lat="49.403969" lon="17.286698"><ele>202.25</ele></trkpt>
   <trkpt lat="49.403697" lon="17.286845"><ele>202</ele></trkpt>
   <trkpt lat="49.403479" lon="17.28695"><ele>202.5</ele></trkpt>
   <trkpt lat="49.403135" lon="17.287075"><ele>202</ele></trkpt>
   <trkpt lat="49.401951" lon="17.287508"><ele>202.75</ele></trkpt>
   <trkpt lat="49.401108" lon="17.287765"><ele>200.75</ele></trkpt>
   <trkpt lat="49.400809" lon="17.287864"><ele>200.75</ele></trkpt>
   <trkpt lat="49.400604" lon="17.287916"><ele>200.5</ele></trkpt>
   <trkpt lat="49.400079" lon="17.287986"><ele>200</ele></trkpt>
   <trkpt lat="49.399544" lon="17.288134"><ele>200</ele></trkpt>
   <trkpt lat="49.399447" lon="17.288227"><ele>200</ele></trkpt>
   <trkpt lat="49.398769" lon="17.288909"><ele>199</ele></trkpt>
   <trkpt lat="49.398704" lon="17.288972"><ele>199</ele></trkpt>
   <trkpt lat="49.398616" lon="17.289056"><ele>199</ele></trkpt>
   <trkpt lat="49.398344" lon="17.289329"><ele>199</ele></trkpt>
   <trkpt lat="49.398182" lon="17.28957"><ele>199.75</ele></trkpt>
   <trkpt lat="49.397685" lon="17.290783"><ele>199</ele></trkpt>
   <trkpt lat="49.397454" lon="17.291401"><ele>199</ele></trkpt>
   <trkpt lat="49.397234" lon="17.291723"><ele>198.75</ele></trkpt>
   <trkpt lat="49.397196" lon="17.291779"><ele>198.5</ele></trkpt>
   <trkpt lat="49.397074" lon="17.292081"><ele>198.25</ele></trkpt>
   <trkpt lat="49.396933" lon="17.292613"><ele>197</ele></trkpt>
   <trkpt lat="49.396785" lon="17.292795"><ele>196.75</ele></trkpt>
   <trkpt lat="49.39672" lon="17.292853"><ele>196.75</ele></trkpt>
   <trkpt lat="49.396662" lon="17.292865"><ele>196.75</ele></trkpt>
   <trkpt lat="49.39667" lon="17.292976"><ele>196.75</ele></trkpt>
   <trkpt lat="49.396663" lon="17.293059"><ele>196.75</ele></trkpt>
   <trkpt lat="49.39664" lon="17.293167"><ele>196.5</ele></trkpt>
   <trkpt lat="49.396632" lon="17.293256"><ele>196.25</ele></trkpt>
   <trkpt lat="49.396637" lon="17.293437"><ele>196</ele></trkpt>
   <trkpt lat="49.396658" lon="17.293598"><ele>196</ele></trkpt>
   <trkpt lat="49.396691" lon="17.293784"><ele>196</ele></trkpt>
   <trkpt lat="49.39674" lon="17.294032"><ele>195.5</ele></trkpt>
   <trkpt lat="49.396754" lon="17.294112"><ele>195.25</ele></trkpt>
   <trkpt lat="49.396804" lon="17.294416"><ele>195.75</ele></trkpt>
   <trkpt lat="49.396863" lon="17.294748"><ele>196</ele></trkpt>
   <trkpt lat="49.397477" lon="17.29843"><ele>195.5</ele></trkpt>
   <trkpt lat="49.397364" lon="17.298468"><ele>195.5</ele></trkpt>
   <trkpt lat="49.396226" lon="17.298833"><ele>195.75</ele></trkpt>
   <trkpt lat="49.396168" lon="17.298854"><ele>195.75</ele></trkpt>
   <trkpt lat="49.396087" lon="17.298913"><ele>195.75</ele></trkpt>
   <trkpt lat="49.396043" lon="17.298987"><ele>195.75</ele></trkpt>
   <trkpt lat="49.396022" lon="17.299041"><ele>195.75</ele></trkpt>
   <trkpt lat="49.395973" lon="17.299208"><ele>195.25</ele></trkpt>
   <trkpt lat="49.395157" lon="17.302496"><ele>195</ele></trkpt>
   <trkpt lat="49.3951" lon="17.302772"><ele>195</ele></trkpt>
   <trkpt lat="49.395088" lon="17.302894"><ele>195.25</ele></trkpt>
   <trkpt lat="49.395085" lon="17.302944"><ele>195.5</ele></trkpt>
   <trkpt lat="49.39509" lon="17.303036"><ele>195.75</ele></trkpt>
   <trkpt lat="49.395103" lon="17.303113"><ele>195.75</ele></trkpt>
   <trkpt lat="49.395118" lon="17.303191"><ele>195.5</ele></trkpt>
   <trkpt lat="49.395146" lon="17.303275"><ele>195.5</ele></trkpt>
   <trkpt lat="49.395385" lon="17.303764"><ele>195.75</ele></trkpt>
   <trkpt lat="49.395442" lon="17.303936"><ele>195.75</ele></trkpt>
   <trkpt lat="49.395467" lon="17.304111"><ele>195.5</ele></trkpt>
   <trkpt lat="49.395472" lon="17.304199"><ele>195.5</ele></trkpt>
   <trkpt lat="49.395451" lon="17.304393"><ele>195.75</ele></trkpt>
   <trkpt lat="49.395404" lon="17.304548"><ele>196</ele></trkpt>
   <trkpt lat="49.395035" lon="17.305714"><ele>197.75</ele></trkpt>
   <trkpt lat="49.395017" lon="17.305794"><ele>198.5</ele></trkpt>
   <trkpt lat="49.395013" lon="17.305905"><ele>198.25</ele></trkpt>
   <trkpt lat="49.395026" lon="17.306"><ele>197.5</ele></trkpt>
   <trkpt lat="49.39506" lon="17.306142"><ele>196.5</ele></trkpt>
   <trkpt lat="49.395208" lon="17.306725"><ele>196</ele></trkpt>
   <trkpt lat="49.395252" lon="17.306872"><ele>196</ele></trkpt>
   <trkpt lat="49.395277" lon="17.306934"><ele>196</ele></trkpt>
   <trkpt lat="49.395313" lon="17.307"><ele>196</ele></trkpt>
   <trkpt lat="49.395398" lon="17.307119"><ele>196</ele></trkpt>
   <trkpt lat="49.395452" lon="17.307179"><ele>196</ele></trkpt>
   <trkpt lat="49.395904" lon="17.307583"><ele>195.75</ele></trkpt>
   <trkpt lat="49.395984" lon="17.307667"><ele>195.75</ele></trkpt>
   <trkpt lat="49.396069" lon="17.307788"><ele>196</ele></trkpt>
   <trkpt lat="49.396096" lon="17.307837"><ele>196</ele></trkpt>
   <trkpt lat="49.396113" lon="17.307893"><ele>195.75</ele></trkpt>
   <trkpt lat="49.39612" lon="17.307954"><ele>195.75</ele></trkpt>
   <trkpt lat="49.396056" lon="17.308914"><ele>194.75</ele></trkpt>
   <trkpt lat="49.396054" lon="17.309054"><ele>194.75</ele></trkpt>
   <trkpt lat="49.396059" lon="17.30913"><ele>194.75</ele></trkpt>
   <trkpt lat="49.396067" lon="17.309188"><ele>194.75</ele></trkpt>
   <trkpt lat="49.396127" lon="17.309462"><ele>194.75</ele></trkpt>
   <trkpt lat="49.39636" lon="17.310345"><ele>195</ele></trkpt>
   <trkpt lat="49.396394" lon="17.310531"><ele>195.75</ele></trkpt>
   <trkpt lat="49.396398" lon="17.310615"><ele>196</ele></trkpt>
   <trkpt lat="49.396391" lon="17.310714"><ele>196</ele></trkpt>
   <trkpt lat="49.396373" lon="17.310823"><ele>195.75</ele></trkpt>
   <trkpt lat="49.396352" lon="17.310897"><ele>196</ele></trkpt>
   <trkpt lat="49.396104" lon="17.311492"><ele>196</ele></trkpt>
   <trkpt lat="49.396064" lon="17.311572"><ele>196</ele></trkpt>
   <trkpt lat="49.395987" lon="17.311692"><ele>196</ele></trkpt>
   <trkpt lat="49.395484" lon="17.312353"><ele>196.25</ele></trkpt>
   <trkpt lat="49.395432" lon="17.312451"><ele>196.25</ele></trkpt>
   <trkpt lat="49.395394" lon="17.312533"><ele>196.5</ele></trkpt>
   <trkpt lat="49.395368" lon="17.31262"><ele>196.5</ele></trkpt>
   <trkpt lat="49.395353" lon="17.312709"><ele>196.5</ele></trkpt>
   <trkpt lat="49.395346" lon="17.312813"><ele>196.75</ele></trkpt>
   <trkpt lat="49.39535" lon="17.31291"><ele>196.5</ele></trkpt>
   <trkpt lat="49.395362" lon="17.312992"><ele>196.5</ele></trkpt>
   <trkpt lat="49.395385" lon="17.313068"><ele>196.5</ele></trkpt>
   <trkpt lat="49.395425" lon="17.313143"><ele>196.5</ele></trkpt>
   <trkpt lat="49.395695" lon="17.313556"><ele>196.75</ele></trkpt>
   <trkpt lat="49.395738" lon="17.313644"><ele>196.75</ele></trkpt>
   <trkpt lat="49.395766" lon="17.313749"><ele>197</ele></trkpt>
   <trkpt lat="49.395761" lon="17.313864"><ele>196.75</ele></trkpt>
   <trkpt lat="49.395746" lon="17.31392"><ele>196.75</ele></trkpt>
   <trkpt lat="49.395727" lon="17.313963"><ele>196.75</ele></trkpt>
   <trkpt lat="49.395666" lon="17.314045"><ele>196.75</ele></trkpt>
   <trkpt lat="49.395482" lon="17.314221"><ele>197.75</ele></trkpt>
   <trkpt lat="49.395291" lon="17.314378"><ele>197.75</ele></trkpt>
   <trkpt lat="49.395185" lon="17.314436"><ele>197.5</ele></trkpt>
   <trkpt lat="49.394783" lon="17.314573"><ele>197.25</ele></trkpt>
   <trkpt lat="49.394654" lon="17.314598"><ele>197.25</ele></trkpt>
   <trkpt lat="49.394667" lon="17.314717"><ele>197.75</ele></trkpt>
   <trkpt lat="49.3947" lon="17.315021"><ele>197</ele></trkpt>
   <trkpt lat="49.394743" lon="17.315388"><ele>196.5</ele></trkpt>
   <trkpt lat="49.395418" lon="17.321542"><ele>196</ele></trkpt>
   <trkpt lat="49.395698" lon="17.324013"><ele>196</ele></trkpt>
   <trkpt lat="49.395957" lon="17.326348"><ele>196</ele></trkpt>
   <trkpt lat="49.396015" lon="17.326885"><ele>196</ele></trkpt>
   <trkpt lat="49.3963" lon="17.329499"><ele>196</ele></trkpt>
   <trkpt lat="49.396532" lon="17.331632"><ele>196</ele></trkpt>
   <trkpt lat="49.396575" lon="17.332054"><ele>195.75</ele></trkpt>
   <trkpt lat="49.396341" lon="17.332058"><ele>195.5</ele></trkpt>
   <trkpt lat="49.393149" lon="17.332142"><ele>196</ele></trkpt>
   <trkpt lat="49.390579" lon="17.332278"><ele>195</ele></trkpt>
   <trkpt lat="49.389504" lon="17.332337"><ele>195</ele></trkpt>
   <trkpt lat="49.388106" lon="17.33235"><ele>195</ele></trkpt>
   <trkpt lat="49.38718" lon="17.332403"><ele>195</ele></trkpt>
   <trkpt lat="49.385829" lon="17.332403"><ele>195</ele></trkpt>
   <trkpt lat="49.384325" lon="17.33239"><ele>195</ele></trkpt>
   <trkpt lat="49.384003" lon="17.332462"><ele>195</ele></trkpt>
   <trkpt lat="49.383836" lon="17.332547"><ele>195</ele></trkpt>
   <trkpt lat="49.383635" lon="17.332855"><ele>195.5</ele></trkpt>
   <trkpt lat="49.382998" lon="17.334538"><ele>195</ele></trkpt>
   <trkpt lat="49.382267" lon="17.33626"><ele>195</ele></trkpt>
   <trkpt lat="49.381847" lon="17.337336"><ele>194.5</ele></trkpt>
   <trkpt lat="49.381781" lon="17.337673"><ele>194.25</ele></trkpt>
   <trkpt lat="49.381501" lon="17.339829"><ele>193.75</ele></trkpt>
   <trkpt lat="49.381468" lon="17.340319"><ele>194</ele></trkpt>
   <trkpt lat="49.381484" lon="17.340614"><ele>194</ele></trkpt>
   <trkpt lat="49.381781" lon="17.342357"><ele>194</ele></trkpt>
   <trkpt lat="49.381954" lon="17.343036"><ele>194</ele></trkpt>
   <trkpt lat="49.382116" lon="17.343268"><ele>194</ele></trkpt>
   <trkpt lat="49.382484" lon="17.343703"><ele>193.75</ele></trkpt>
   <trkpt lat="49.38269" lon="17.34399"><ele>194.25</ele></trkpt>
   <trkpt lat="49.382756" lon="17.344188"><ele>194.75</ele></trkpt>
   <trkpt lat="49.382778" lon="17.344341"><ele>194.75</ele></trkpt>
   <trkpt lat="49.382775" lon="17.344496"><ele>194.75</ele></trkpt>
   <trkpt lat="49.382759" lon="17.344759"><ele>194.75</ele></trkpt>
   <trkpt lat="49.382725" lon="17.345056"><ele>194.75</ele></trkpt>
   <trkpt lat="49.382715" lon="17.345137"><ele>194.75</ele></trkpt>
   <trkpt lat="49.382616" lon="17.346482"><ele>194.75</ele></trkpt>
   <trkpt lat="49.382449" lon="17.34898"><ele>195</ele></trkpt>
   <trkpt lat="49.382378" lon="17.35"><ele>195.75</ele></trkpt>
   <trkpt lat="49.38233" lon="17.350756"><ele>196</ele></trkpt>
   <trkpt lat="49.382278" lon="17.351592"><ele>196</ele></trkpt>
   <trkpt lat="49.38227" lon="17.351722"><ele>196</ele></trkpt>
   <trkpt lat="49.382387" lon="17.351728"><ele>196</ele></trkpt>
   <trkpt lat="49.382713" lon="17.352397"><ele>196</ele></trkpt>
   <trkpt lat="49.382693" lon="17.352477"><ele>196</ele></trkpt>
   <trkpt lat="49.382587" lon="17.352838"><ele>196</ele></trkpt>
   <trkpt lat="49.382566" lon="17.352943"><ele>196</ele></trkpt>
   <trkpt lat="49.382316" lon="17.352862"><ele>196</ele></trkpt>
   <trkpt lat="49.382157" lon="17.352821"><ele>196</ele></trkpt>
   <trkpt lat="49.382" lon="17.352798"><ele>196</ele></trkpt>
   <trkpt lat="49.381907" lon="17.352791"><ele>196</ele></trkpt>
   <trkpt lat="49.381763" lon="17.352795"><ele>196</ele></trkpt>
   <trkpt lat="49.381422" lon="17.352828"><ele>195.75</ele></trkpt>
   <trkpt lat="49.380949" lon="17.352859"><ele>196</ele></trkpt>
   <trkpt lat="49.38078" lon="17.352874"><ele>195.75</ele></trkpt>
   <trkpt lat="49.380383" lon="17.352972"><ele>195.25</ele></trkpt>
   <trkpt lat="49.380068" lon="17.35314"><ele>195</ele></trkpt>
   <trkpt lat="49.379677" lon="17.353355"><ele>194</ele></trkpt>
   <trkpt lat="49.379607" lon="17.353394"><ele>194</ele></trkpt>
   <trkpt lat="49.379565" lon="17.353416"><ele>194</ele></trkpt>
   <trkpt lat="49.378617" lon="17.353882"><ele>194.75</ele></trkpt>
   <trkpt lat="49.37775" lon="17.354138"><ele>195</ele></trkpt>
   <trkpt lat="49.376257" lon="17.354461"><ele>195</ele></trkpt>
   <trkpt lat="49.375777" lon="17.354577"><ele>195</ele></trkpt>
   <trkpt lat="49.374888" lon="17.354775"><ele>195.25</ele></trkpt>
   <trkpt lat="49.373797" lon="17.354827"><ele>196.25</ele></trkpt>
   <trkpt lat="49.372522" lon="17.355001"><ele>196</ele></trkpt>
   <trkpt lat="49.370518" lon="17.355195"><ele>196</ele></trkpt>
   <trkpt lat="49.370208" lon="17.355232"><ele>196</ele></trkpt>
   <trkpt lat="49.369981" lon="17.355292"><ele>196</ele></trkpt>
   <trkpt lat="49.369712" lon="17.355478"><ele>195.75</ele></trkpt>
   <trkpt lat="49.36876" lon="17.356572"><ele>194.75</ele></trkpt>
   <trkpt lat="49.368513" lon="17.356771"><ele>195</ele></trkpt>
   <trkpt lat="49.367564" lon="17.357376"><ele>195.5</ele></trkpt>
   <trkpt lat="49.367371" lon="17.357499"><ele>195.75</ele></trkpt>
   <trkpt lat="49.36712" lon="17.357668"><ele>196</ele></trkpt>
   <trkpt lat="49.367" lon="17.357764"><ele>196</ele></trkpt>
   <trkpt lat="49.366856" lon="17.357888"><ele>196</ele></trkpt>
   <trkpt lat="49.366039" lon="17.358593"><ele>196</ele></trkpt>
   <trkpt lat="49.366021" lon="17.358609"><ele>196</ele></trkpt>
   <trkpt lat="49.364776" lon="17.359685"><ele>196</ele></trkpt>
   <trkpt lat="49.364652" lon="17.359791"><ele>195.75</ele></trkpt>
   <trkpt lat="49.364476" lon="17.35989"><ele>195.5</ele></trkpt>
   <trkpt lat="49.364381" lon="17.359926"><ele>195.5</ele></trkpt>
   <trkpt lat="49.363975" lon="17.360047"><ele>195.25</ele></trkpt>
   <trkpt lat="49.363828" lon="17.360087"><ele>195.25</ele></trkpt>
   <trkpt lat="49.362312" lon="17.360502"><ele>194.5</ele></trkpt>
   <trkpt lat="49.361983" lon="17.360584"><ele>194.25</ele></trkpt>
   <trkpt lat="49.361694" lon="17.360713"><ele>194</ele></trkpt>
   <trkpt lat="49.360948" lon="17.361334"><ele>194</ele></trkpt>
   <trkpt lat="49.360851" lon="17.361358"><ele>193.75</ele></trkpt>
   <trkpt lat="49.360682" lon="17.361393"><ele>194</ele></trkpt>
   <trkpt lat="49.360546" lon="17.361364"><ele>193.75</ele></trkpt>
   <trkpt lat="49.360362" lon="17.361288"><ele>193.5</ele></trkpt>
   <trkpt lat="49.359681" lon="17.361025"><ele>194</ele></trkpt>
   <trkpt lat="49.359051" lon="17.360782"><ele>194.75</ele></trkpt>
   <trkpt lat="49.359" lon="17.361031"><ele>195.25</ele></trkpt>
   <trkpt lat="49.358976" lon="17.361073"><ele>195.25</ele></trkpt>
   <trkpt lat="49.358901" lon="17.361203"><ele>195.25</ele></trkpt>
   <trkpt lat="49.358773" lon="17.361371"><ele>195.5</ele></trkpt>
   <trkpt lat="49.358521" lon="17.361762"><ele>196</ele></trkpt>
   <trkpt lat="49.35832" lon="17.362077"><ele>196</ele></trkpt>
   <trkpt lat="49.35776" lon="17.363059"><ele>196</ele></trkpt>
   <trkpt lat="49.357687" lon="17.362929"><ele>196</ele></trkpt>
   <trkpt lat="49.35758" lon="17.36277"><ele>196</ele></trkpt>
   <trkpt lat="49.357528" lon="17.362706"><ele>196</ele></trkpt>
   <trkpt lat="49.357484" lon="17.362797"><ele>196</ele></trkpt>
   <trkpt lat="49.357054" lon="17.363649"><ele>196</ele></trkpt>
   <trkpt lat="49.356559" lon="17.364629"><ele>196</ele></trkpt>
   <trkpt lat="49.356462" lon="17.36487"><ele>196</ele></trkpt>
   <trkpt lat="49.356442" lon="17.364925"><ele>196</ele></trkpt>
   <trkpt lat="49.356399" lon="17.36488"><ele>195.75</ele></trkpt>
   <trkpt lat="49.356333" lon="17.364812"><ele>196</ele></trkpt>
   <trkpt lat="49.356206" lon="17.364681"><ele>196.5</ele></trkpt>
   <trkpt lat="49.355914" lon="17.36528"><ele>196.25</ele></trkpt>
   <trkpt lat="49.355731" lon="17.36567"><ele>195.25</ele></trkpt>
   <trkpt lat="49.355597" lon="17.365922"><ele>194.75</ele></trkpt>
   <trkpt lat="49.355567" lon="17.365982"><ele>194.75</ele></trkpt>
   <trkpt lat="49.355478" lon="17.366059"><ele>195</ele></trkpt>
   <trkpt lat="49.355298" lon="17.36619"><ele>194.5</ele></trkpt>
   <trkpt lat="49.355156" lon="17.366311"><ele>194</ele></trkpt>
   <trkpt lat="49.354991" lon="17.366434"><ele>193.75</ele></trkpt>
   <trkpt lat="49.354923" lon="17.366451"><ele>193.75</ele></trkpt>
   <trkpt lat="49.354829" lon="17.366437"><ele>193.75</ele></trkpt>
   <trkpt lat="49.354698" lon="17.366387"><ele>194</ele></trkpt>
   <trkpt lat="49.354568" lon="17.36629"><ele>194</ele></trkpt>
   <trkpt lat="49.354467" lon="17.366107"><ele>194</ele></trkpt>
   <trkpt lat="49.354349" lon="17.365809"><ele>193.5</ele></trkpt>
   <trkpt lat="49.354325" lon="17.36576"><ele>193.25</ele></trkpt>
   <trkpt lat="49.354027" lon="17.365995"><ele>193</ele></trkpt>
   <trkpt lat="49.353235" lon="17.366479"><ele>193</ele></trkpt>
   <trkpt lat="49.352963" lon="17.366677"><ele>193</ele></trkpt>
   <trkpt lat="49.352747" lon="17.366858"><ele>193</ele></trkpt>
   <trkpt lat="49.352614" lon="17.367002"><ele>193</ele></trkpt>
   <trkpt lat="49.352511" lon="17.367162"><ele>192.75</ele></trkpt>
   <trkpt lat="49.352369" lon="17.367406"><ele>193</ele></trkpt>
   <trkpt lat="49.352206" lon="17.367767"><ele>193</ele></trkpt>
   <trkpt lat="49.352039" lon="17.368261"><ele>193</ele></trkpt>
   <trkpt lat="49.351989" lon="17.368424"><ele>193</ele></trkpt>
   <trkpt lat="49.351902" lon="17.368707"><ele>192.75</ele></trkpt>
   <trkpt lat="49.351788" lon="17.369192"><ele>192.25</ele></trkpt>
   <trkpt lat="49.351504" lon="17.370955"><ele>192.5</ele></trkpt>
   <trkpt lat="49.351334" lon="17.371874"><ele>193</ele></trkpt>
   <trkpt lat="49.351286" lon="17.372209"><ele>193</ele></trkpt>
   <trkpt lat="49.351277" lon="17.372445"><ele>193</ele></trkpt>
   <trkpt lat="49.351286" lon="17.373128"><ele>193</ele></trkpt>
   <trkpt lat="49.351302" lon="17.373258"><ele>193.5</ele></trkpt>
   <trkpt lat="49.351034" lon="17.373354"><ele>193</ele></trkpt>
   <trkpt lat="49.350648" lon="17.373452"><ele>193.25</ele></trkpt>
   <trkpt lat="49.350406" lon="17.373477"><ele>193.5</ele></trkpt>
   <trkpt lat="49.350129" lon="17.373534"><ele>193.5</ele></trkpt>
   <trkpt lat="49.349933" lon="17.373574"><ele>193.5</ele></trkpt>
   <trkpt lat="49.349659" lon="17.37363"><ele>193</ele></trkpt>
   <trkpt lat="49.349429" lon="17.373677"><ele>193</ele></trkpt>
   <trkpt lat="49.349201" lon="17.373781"><ele>193.25</ele></trkpt>
   <trkpt lat="49.348867" lon="17.373933"><ele>193</ele></trkpt>
   <trkpt lat="49.348408" lon="17.373986"><ele>193</ele></trkpt>
   <trkpt lat="49.347832" lon="17.374065"><ele>192.75</ele></trkpt>
   <trkpt lat="49.347756" lon="17.374096"><ele>192.5</ele></trkpt>
   <trkpt lat="49.347693" lon="17.37416"><ele>192.5</ele></trkpt>
   <trkpt lat="49.347648" lon="17.374247"><ele>192.5</ele></trkpt>
   <trkpt lat="49.347349" lon="17.375157"><ele>192.25</ele></trkpt>
   <trkpt lat="49.347314" lon="17.375301"><ele>192.25</ele></trkpt>
   <trkpt lat="49.347179" lon="17.375299"><ele>191.75</ele></trkpt>
   <trkpt lat="49.347042" lon="17.375336"><ele>191.25</ele></trkpt>
   <trkpt lat="49.346587" lon="17.375547"><ele>191.75</ele></trkpt>
   <trkpt lat="49.346466" lon="17.375622"><ele>192</ele></trkpt>
   <trkpt lat="49.346176" lon="17.375841"><ele>191.75</ele></trkpt>
   <trkpt lat="49.345712" lon="17.376286"><ele>192</ele></trkpt>
   <trkpt lat="49.345345" lon="17.376664"><ele>192</ele></trkpt>
   <trkpt lat="49.345028" lon="17.376982"><ele>191.75</ele></trkpt>
   <trkpt lat="49.344596" lon="17.377446"><ele>192</ele></trkpt>
   <trkpt lat="49.34407" lon="17.377988"><ele>191.5</ele></trkpt>
   <trkpt lat="49.343621" lon="17.378453"><ele>191.25</ele></trkpt>
   <trkpt lat="49.343389" lon="17.378698"><ele>191.25</ele></trkpt>
   <trkpt lat="49.343039" lon="17.379065"><ele>192</ele></trkpt>
   <trkpt lat="49.342852" lon="17.379278"><ele>191.75</ele></trkpt>
   <trkpt lat="49.342712" lon="17.379432"><ele>192</ele></trkpt>
   <trkpt lat="49.342244" lon="17.379884"><ele>192</ele></trkpt>
   <trkpt lat="49.342229" lon="17.379917"><ele>191.75</ele></trkpt>
   <trkpt lat="49.342229" lon="17.379938"><ele>192</ele></trkpt>
   <trkpt lat="49.342257" lon="17.380023"><ele>191.75</ele></trkpt>
   <trkpt lat="49.342143" lon="17.380131"><ele>192</ele></trkpt>
   <trkpt lat="49.342029" lon="17.380216"><ele>192</ele></trkpt>
   <trkpt lat="49.341869" lon="17.380304"><ele>192</ele></trkpt>
   <trkpt lat="49.341136" lon="17.380613"><ele>192</ele></trkpt>
   <trkpt lat="49.341066" lon="17.380631"><ele>192</ele></trkpt>
   <trkpt lat="49.341005" lon="17.380635"><ele>192</ele></trkpt>
   <trkpt lat="49.340961" lon="17.380632"><ele>192</ele></trkpt>
   <trkpt lat="49.340873" lon="17.380606"><ele>191.75</ele></trkpt>
   <trkpt lat="49.34071" lon="17.380534"><ele>192.25</ele></trkpt>
   <trkpt lat="49.340472" lon="17.38043"><ele>192.5</ele></trkpt>
   <trkpt lat="49.340352" lon="17.380399"><ele>192.25</ele></trkpt>
   <trkpt lat="49.340312" lon="17.380401"><ele>192</ele></trkpt>
   <trkpt lat="49.340286" lon="17.380405"><ele>192</ele></trkpt>
   <trkpt lat="49.340207" lon="17.380447"><ele>192</ele></trkpt>
   <trkpt lat="49.340157" lon="17.380495"><ele>192</ele></trkpt>
   <trkpt lat="49.339416" lon="17.381346"><ele>192</ele></trkpt>
   <trkpt lat="49.339347" lon="17.381408"><ele>192</ele></trkpt>
   <trkpt lat="49.339274" lon="17.381457"><ele>192</ele></trkpt>
   <trkpt lat="49.339186" lon="17.381498"><ele>191.75</ele></trkpt>
   <trkpt lat="49.339063" lon="17.381539"><ele>192</ele></trkpt>
   <trkpt lat="49.338249" lon="17.381761"><ele>192</ele></trkpt>
   <trkpt lat="49.338004" lon="17.381839"><ele>192</ele></trkpt>
   <trkpt lat="49.337916" lon="17.381882"><ele>192</ele></trkpt>
   <trkpt lat="49.337755" lon="17.381999"><ele>192</ele></trkpt>
   <trkpt lat="49.337555" lon="17.382211"><ele>192</ele></trkpt>
   <trkpt lat="49.33636" lon="17.383531"><ele>191.5</ele></trkpt>
   <trkpt lat="49.336172" lon="17.383699"><ele>191.5</ele></trkpt>
   <trkpt lat="49.334714" lon="17.38471"><ele>191</ele></trkpt>
   <trkpt lat="49.334509" lon="17.384844"><ele>191.25</ele></trkpt>
   <trkpt lat="49.334296" lon="17.384962"><ele>191.25</ele></trkpt>
   <trkpt lat="49.334185" lon="17.385002"><ele>191</ele></trkpt>
   <trkpt lat="49.333961" lon="17.385046"><ele>191</ele></trkpt>
   <trkpt lat="49.333658" lon="17.385082"><ele>191</ele></trkpt>
   <trkpt lat="49.333459" lon="17.385095"><ele>191</ele></trkpt>
   <trkpt lat="49.332771" lon="17.385182"><ele>191</ele></trkpt>
   <trkpt lat="49.332464" lon="17.385232"><ele>191</ele></trkpt>
   <trkpt lat="49.332264" lon="17.385276"><ele>191</ele></trkpt>
   <trkpt lat="49.331878" lon="17.385382"><ele>191</ele></trkpt>
   <trkpt lat="49.330679" lon="17.385775"><ele>191.25</ele></trkpt>
   <trkpt lat="49.329058" lon="17.386322"><ele>192.25</ele></trkpt>
   <trkpt lat="49.328953" lon="17.386358"><ele>192</ele></trkpt>
   <trkpt lat="49.328882" lon="17.386381"><ele>191.75</ele></trkpt>
   <trkpt lat="49.328597" lon="17.386481"><ele>190</ele></trkpt>
   <trkpt lat="49.328329" lon="17.386572"><ele>192.5</ele></trkpt>
   <trkpt lat="49.328108" lon="17.38668"><ele>192.75</ele></trkpt>
   <trkpt lat="49.327947" lon="17.386774"><ele>192.5</ele></trkpt>
   <trkpt lat="49.327657" lon="17.386978"><ele>192.5</ele></trkpt>
   <trkpt lat="49.327491" lon="17.387128"><ele>192.5</ele></trkpt>
   <trkpt lat="49.327347" lon="17.387278"><ele>192.25</ele></trkpt>
   <trkpt lat="49.327264" lon="17.387192"><ele>192</ele></trkpt>
   <trkpt lat="49.32717" lon="17.387096"><ele>192</ele></trkpt>
   <trkpt lat="49.327034" lon="17.387043"><ele>192</ele></trkpt>
   <trkpt lat="49.326772" lon="17.387111"><ele>192</ele></trkpt>
   <trkpt lat="49.325192" lon="17.387639"><ele>191.5</ele></trkpt>
   <trkpt lat="49.325017" lon="17.387699"><ele>191.75</ele></trkpt>
   <trkpt lat="49.324749" lon="17.38779"><ele>191.75</ele></trkpt>
   <trkpt lat="49.324565" lon="17.387786"><ele>191.75</ele></trkpt>
   <trkpt lat="49.324084" lon="17.387716"><ele>191</ele></trkpt>
   <trkpt lat="49.323919" lon="17.387754"><ele>191</ele></trkpt>
   <trkpt lat="49.323708" lon="17.387829"><ele>191</ele></trkpt>
   <trkpt lat="49.323584" lon="17.387919"><ele>191</ele></trkpt>
   <trkpt lat="49.323013" lon="17.388667"><ele>191</ele></trkpt>
   <trkpt lat="49.322883" lon="17.388786"><ele>191</ele></trkpt>
   <trkpt lat="49.322723" lon="17.388852"><ele>191</ele></trkpt>
   <trkpt lat="49.322423" lon="17.38894"><ele>191</ele></trkpt>
   <trkpt lat="49.322332" lon="17.388993"><ele>191</ele></trkpt>
   <trkpt lat="49.322157" lon="17.389098"><ele>191</ele></trkpt>
   <trkpt lat="49.321114" lon="17.389912"><ele>191.5</ele></trkpt>
   <trkpt lat="49.320953" lon="17.390009"><ele>191.75</ele></trkpt>
   <trkpt lat="49.320805" lon="17.390086"><ele>191.5</ele></trkpt>
   <trkpt lat="49.320678" lon="17.390125"><ele>191.75</ele></trkpt>
   <trkpt lat="49.320557" lon="17.390136"><ele>191.75</ele></trkpt>
   <trkpt lat="49.320379" lon="17.390123"><ele>191.5</ele></trkpt>
   <trkpt lat="49.32017" lon="17.390069"><ele>191.75</ele></trkpt>
   <trkpt lat="49.319982" lon="17.389958"><ele>191.75</ele></trkpt>
   <trkpt lat="49.319833" lon="17.389838"><ele>191</ele></trkpt>
   <trkpt lat="49.318552" lon="17.388531"><ele>191</ele></trkpt>
   <trkpt lat="49.318117" lon="17.388102"><ele>191</ele></trkpt>
   <trkpt lat="49.317852" lon="17.387897"><ele>190.75</ele></trkpt>
   <trkpt lat="49.317295" lon="17.387675"><ele>191</ele></trkpt>
   <trkpt lat="49.317117" lon="17.387641"><ele>191</ele></trkpt>
   <trkpt lat="49.316961" lon="17.387716"><ele>191</ele></trkpt>
   <trkpt lat="49.316478" lon="17.388062"><ele>190.5</ele></trkpt>
   <trkpt lat="49.31638" lon="17.388175"><ele>190.75</ele></trkpt>
   <trkpt lat="49.31613" lon="17.388573"><ele>190</ele></trkpt>
   <trkpt lat="49.315923" lon="17.388758"><ele>190.75</ele></trkpt>
   <trkpt lat="49.315652" lon="17.388994"><ele>190.75</ele></trkpt>
   <trkpt lat="49.315339" lon="17.389261"><ele>190.75</ele></trkpt>
   <trkpt lat="49.314807" lon="17.389716"><ele>191</ele></trkpt>
   <trkpt lat="49.314531" lon="17.389982"><ele>191</ele></trkpt>
   <trkpt lat="49.31439" lon="17.390119"><ele>191</ele></trkpt>
   <trkpt lat="49.314113" lon="17.390387"><ele>191</ele></trkpt>
   <trkpt lat="49.313905" lon="17.390564"><ele>190.75</ele></trkpt>
   <trkpt lat="49.31339" lon="17.390806"><ele>191.25</ele></trkpt>
   <trkpt lat="49.312999" lon="17.390997"><ele>190.75</ele></trkpt>
   <trkpt lat="49.312581" lon="17.391157"><ele>191.5</ele></trkpt>
   <trkpt lat="49.311196" lon="17.391911"><ele>191</ele></trkpt>
   <trkpt lat="49.309879" lon="17.392661"><ele>191</ele></trkpt>
   <trkpt lat="49.309031" lon="17.393176"><ele>191.25</ele></trkpt>
   <trkpt lat="49.308907" lon="17.393319"><ele>191</ele></trkpt>
   <trkpt lat="49.308495" lon="17.394052"><ele>191</ele></trkpt>
   <trkpt lat="49.307554" lon="17.395218"><ele>191.75</ele></trkpt>
   <trkpt lat="49.307509" lon="17.39528"><ele>191.75</ele></trkpt>
   <trkpt lat="49.307371" lon="17.395196"><ele>191.75</ele></trkpt>
   <trkpt lat="49.307119" lon="17.395269"><ele>191</ele></trkpt>
   <trkpt lat="49.30695" lon="17.395405"><ele>190.75</ele></trkpt>
   <trkpt lat="49.305491" lon="17.397254"><ele>190.75</ele></trkpt>
   <trkpt lat="49.304478" lon="17.398386"><ele>191.25</ele></trkpt>
   <trkpt lat="49.304164" lon="17.39866"><ele>191.75</ele></trkpt>
   <trkpt lat="49.303435" lon="17.399096"><ele>191.25</ele></trkpt>
   <trkpt lat="49.303158" lon="17.399219"><ele>191.25</ele></trkpt>
   <trkpt lat="49.302721" lon="17.399382"><ele>190.75</ele></trkpt>
   <trkpt lat="49.302627" lon="17.399428"><ele>191</ele></trkpt>
   <trkpt lat="49.302529" lon="17.399488"><ele>191</ele></trkpt>
   <trkpt lat="49.302466" lon="17.399538"><ele>190.75</ele></trkpt>
   <trkpt lat="49.302396" lon="17.399608"><ele>190.5</ele></trkpt>
   <trkpt lat="49.302278" lon="17.399786"><ele>191.25</ele></trkpt>
   <trkpt lat="49.302256" lon="17.39982"><ele>191.25</ele></trkpt>
   <trkpt lat="49.302201" lon="17.399737"><ele>190.5</ele></trkpt>
   <trkpt lat="49.302122" lon="17.399839"><ele>189.75</ele></trkpt>
   <trkpt lat="49.302107" lon="17.399825"><ele>189.75</ele></trkpt>
   <trkpt lat="49.302081" lon="17.399801"><ele>189.75</ele></trkpt>
   <trkpt lat="49.301567" lon="17.399247"><ele>192</ele></trkpt>
   <trkpt lat="49.301578" lon="17.399123"><ele>192</ele></trkpt>
   <trkpt lat="49.301559" lon="17.399005"><ele>192</ele></trkpt>
   <trkpt lat="49.30051" lon="17.397885"><ele>192</ele></trkpt>
   <trkpt lat="49.300437" lon="17.398022"><ele>192</ele></trkpt>
   <trkpt lat="49.300371" lon="17.398126"><ele>191.75</ele></trkpt>
   <trkpt lat="49.299515" lon="17.397235"><ele>192</ele></trkpt>
   <trkpt lat="49.299255" lon="17.396938"><ele>192.5</ele></trkpt>
   <trkpt lat="49.299028" lon="17.396684"><ele>193.25</ele></trkpt>
   <trkpt lat="49.298687" lon="17.396166"><ele>194.75</ele></trkpt>
   <trkpt lat="49.298506" lon="17.395828"><ele>195.75</ele></trkpt>
   <trkpt lat="49.298336" lon="17.395434"><ele>197.25</ele></trkpt>
   <trkpt lat="49.29828" lon="17.395283"><ele>198</ele></trkpt>
   <trkpt lat="49.298382" lon="17.395105"><ele>198.5</ele></trkpt>
   <trkpt lat="49.298587" lon="17.39472"><ele>199</ele></trkpt>
   <trkpt lat="49.298805" lon="17.394348"><ele>200.5</ele></trkpt>
   <trkpt lat="49.298855" lon="17.394132"><ele>201</ele></trkpt>
   <trkpt lat="49.298897" lon="17.394059"><ele>201.25</ele></trkpt>
   <trkpt lat="49.299087" lon="17.393725"><ele>201.5</ele></trkpt>
   <trkpt lat="49.299296" lon="17.393347"><ele>202.5</ele></trkpt>
  </trkseg>
 </trk>
</gpx>